{
"type": "FeatureCollection",
"name": "Taraba_state_boundary",
"crs": { "type": "name", "properties": { "name": "urn:ogc:def:crs:OGC:1.3:CRS84" } },
"features": [
{ "type": "Feature", "properties": { "state_code": "TA", "state_name": "Taraba", "cap_city": "Jalingo", "geo_zone": "NEZ" }, "geometry": { "type": "Polygon", "coordinates": [ [ [ 9.5980138, 6.4998821 ], [ 9.5994817, 6.5123572 ], [ 9.6053533, 6.562257 ], [ 9.6064787, 6.5718207 ], [ 9.6091206, 6.5872329 ], [ 9.6222982, 6.6641064 ], [ 9.6273945, 6.6820636 ], [ 9.6313631, 6.6960476 ], [ 9.6361418, 6.7128859 ], [ 9.6460295, 6.7385941 ], [ 9.6486664, 6.7992387 ], [ 9.6474697, 6.8092601 ], [ 9.6433926, 6.8434038 ], [ 9.6414146, 6.8664756 ], [ 9.6456995, 6.8948202 ], [ 9.6641569, 6.9356894 ], [ 9.6823061, 6.9724652 ], [ 9.6892061, 6.9864469 ], [ 9.6997528, 7.0114956 ], [ 9.7006563, 7.0130689 ], [ 9.7208995, 7.0483198 ], [ 9.7379856, 7.078073 ], [ 9.7617159, 7.1011443 ], [ 9.8232889, 7.1715132 ], [ 9.8240089, 7.1723361 ], [ 9.8345556, 7.1993628 ], [ 9.8352146, 7.2171607 ], [ 9.8316087, 7.227618 ], [ 9.8286228, 7.2362771 ], [ 9.827018, 7.2440018 ], [ 9.8249588, 7.2545981 ], [ 9.8282928, 7.2573709 ], [ 9.8384249, 7.2755014 ], [ 9.8408175, 7.2797828 ], [ 9.855979, 7.3252664 ], [ 9.8652077, 7.3628402 ], [ 9.8826761, 7.4142561 ], [ 9.888608, 7.4617176 ], [ 9.8846531, 7.5078602 ], [ 9.8838431, 7.5097503 ], [ 9.8804178, 7.5172415 ], [ 9.8708105, 7.5401602 ], [ 9.8457613, 7.5744376 ], [ 9.8399887, 7.5792742 ], [ 9.8300752, 7.5875982 ], [ 9.821372, 7.5948725 ], [ 9.8163662, 7.5978475 ], [ 9.8085175, 7.6060786 ], [ 9.7976999, 7.614686 ], [ 9.7472134, 7.6548581 ], [ 9.7369205, 7.6673886 ], [ 9.7304138, 7.6753098 ], [ 9.7112828, 7.6985996 ], [ 9.7017298, 7.7102294 ], [ 9.6905443, 7.7284913 ], [ 9.6694298, 7.7629638 ], [ 9.6430626, 7.7998781 ], [ 9.6015348, 7.8295412 ], [ 9.5758514, 7.8354421 ], [ 9.5672677, 7.8374121 ], [ 9.5613241, 7.8387762 ], [ 9.499361, 7.8427248 ], [ 9.4890236, 7.8429062 ], [ 9.401508, 7.8444418 ], [ 9.3866405, 7.8447027 ], [ 9.3780718, 7.8433843 ], [ 9.3147898, 7.834815 ], [ 9.2726021, 7.8229494 ], [ 9.2684019, 7.822541 ], [ 9.2251415, 7.8183351 ], [ 9.1902046, 7.8104248 ], [ 9.1745347, 7.8045873 ], [ 9.1565857, 7.7979007 ], [ 9.1302185, 7.788013 ], [ 9.1203308, 7.7932863 ], [ 9.1157169, 7.8084474 ], [ 9.1242857, 7.8269048 ], [ 9.1401062, 7.8486576 ], [ 9.1499939, 7.8598638 ], [ 9.1620121, 7.8687193 ], [ 9.1625185, 7.8690925 ], [ 9.1704292, 7.8822761 ], [ 9.1721706, 7.886631 ], [ 9.1746235, 7.887176 ], [ 9.1782312, 7.8885288 ], [ 9.181838, 7.891685 ], [ 9.1831913, 7.8957429 ], [ 9.1809368, 7.9038591 ], [ 9.1791258, 7.9080834 ], [ 9.1852256, 7.9108089 ], [ 9.1852787, 7.9108327 ], [ 9.1867914, 7.9115086 ], [ 9.209754, 7.9217687 ], [ 9.2203732, 7.9265132 ], [ 9.2507267, 7.944725 ], [ 9.2810802, 7.9558549 ], [ 9.3053627, 7.969008 ], [ 9.3145857, 7.9740548 ], [ 9.3191156, 7.9765334 ], [ 9.3286988, 7.9817769 ], [ 9.3355179, 7.985508 ], [ 9.339323, 7.990242 ], [ 9.3460264, 8.0018797 ], [ 9.3517132, 8.0065937 ], [ 9.3596935, 8.0125036 ], [ 9.3688297, 8.0184364 ], [ 9.3790503, 8.0278435 ], [ 9.3870535, 8.0326023 ], [ 9.396163, 8.0396843 ], [ 9.4041433, 8.0455942 ], [ 9.4153767, 8.0619249 ], [ 9.4140263, 8.0711041 ], [ 9.4034233, 8.0801029 ], [ 9.398653, 8.0869141 ], [ 9.3950367, 8.0937481 ], [ 9.3925562, 8.1017542 ], [ 9.3922195, 8.1178579 ], [ 9.3921706, 8.1202184 ], [ 9.3919096, 8.1328115 ], [ 9.3869467, 8.1488256 ], [ 9.3914299, 8.155817 ], [ 9.4006138, 8.1594496 ], [ 9.4062767, 8.1653137 ], [ 9.4118233, 8.1769295 ], [ 9.4058237, 8.1871691 ], [ 9.3975334, 8.1962128 ], [ 9.3904696, 8.201828 ], [ 9.3843632, 8.2047577 ], [ 9.3821392, 8.2058239 ], [ 9.3806033, 8.2079296 ], [ 9.3801241, 8.2085867 ], [ 9.3748331, 8.2118092 ], [ 9.3712492, 8.2151079 ], [ 9.3642502, 8.2182531 ], [ 9.3589582, 8.2214756 ], [ 9.3537493, 8.222971 ], [ 9.3467484, 8.2261162 ], [ 9.3414574, 8.2293386 ], [ 9.3361654, 8.2325611 ], [ 9.329567, 8.23631 ], [ 9.3259029, 8.2454443 ], [ 9.3249378, 8.2485611 ], [ 9.3234234, 8.2534513 ], [ 9.3255196, 8.2638493 ], [ 9.3300304, 8.2696915 ], [ 9.3356934, 8.2755556 ], [ 9.3424664, 8.2837429 ], [ 9.3468571, 8.2953367 ], [ 9.3501835, 8.3023062 ], [ 9.3545465, 8.3150492 ], [ 9.3566237, 8.3265972 ], [ 9.3599501, 8.3335676 ], [ 9.3632765, 8.3405371 ], [ 9.3678303, 8.3440781 ], [ 9.3769665, 8.3500109 ], [ 9.3827534, 8.3501234 ], [ 9.3897171, 8.3491097 ], [ 9.4014063, 8.3435841 ], [ 9.4084435, 8.339119 ], [ 9.4201565, 8.3324432 ], [ 9.4318237, 8.3280687 ], [ 9.4435129, 8.3225441 ], [ 9.4528399, 8.3192739 ], [ 9.4668665, 8.312644 ], [ 9.4750366, 8.3093519 ], [ 9.4832067, 8.3060589 ], [ 9.4925098, 8.3039398 ], [ 9.4982967, 8.3040524 ], [ 9.5040569, 8.305316 ], [ 9.5122032, 8.303174 ], [ 9.5180101, 8.3021374 ], [ 9.52493, 8.3034229 ], [ 9.5353403, 8.303627 ], [ 9.5434399, 8.3037853 ], [ 9.5468864, 8.3050032 ], [ 9.5536286, 8.3041065 ], [ 9.5537477, 8.3040906 ], [ 9.5619736, 8.3029966 ], [ 9.5666504, 8.300787 ], [ 9.5840769, 8.2976761 ], [ 9.5922003, 8.2966843 ], [ 9.6003704, 8.2933912 ], [ 9.6096735, 8.2912722 ], [ 9.615387, 8.294836 ], [ 9.6175299, 8.3029327 ], [ 9.6137505, 8.3178186 ], [ 9.6123304, 8.3304491 ], [ 9.612113, 8.3408022 ], [ 9.6119204, 8.3500042 ], [ 9.6140203, 8.3604021 ], [ 9.616836, 8.3718477 ], [ 9.6172554, 8.371029 ], [ 9.6210582, 8.3689127 ], [ 9.6250988, 8.3669139 ], [ 9.6262872, 8.3698533 ], [ 9.6231973, 8.3750265 ], [ 9.6211096, 8.3814023 ], [ 9.620464, 8.383374 ], [ 9.6224637, 8.3831561 ], [ 9.6344871, 8.3818456 ], [ 9.6461334, 8.3810226 ], [ 9.6527538, 8.3841953 ], [ 9.6547661, 8.3823538 ], [ 9.6643801, 8.382781 ], [ 9.6683149, 8.3810253 ], [ 9.6799412, 8.379611 ], [ 9.683876, 8.3778553 ], [ 9.6935787, 8.3763552 ], [ 9.695591, 8.3745146 ], [ 9.7032824, 8.374856 ], [ 9.7071285, 8.3750267 ], [ 9.7110624, 8.373271 ], [ 9.716754, 8.3725309 ], [ 9.723362, 8.3716717 ], [ 9.7264729, 8.3712673 ], [ 9.7281794, 8.3710453 ], [ 9.7334576, 8.3703585 ], [ 9.7566547, 8.367342 ], [ 9.7613239, 8.3697109 ], [ 9.7649908, 8.3737345 ], [ 9.7744274, 8.3780146 ], [ 9.7801399, 8.3815546 ], [ 9.7841616, 8.3824196 ], [ 9.7969666, 8.3905983 ], [ 9.802331, 8.3913231 ], [ 9.8094244, 8.3974476 ], [ 9.8160944, 8.4012079 ], [ 9.8214464, 8.402791 ], [ 9.8242407, 8.405098 ], [ 9.8322685, 8.4101 ], [ 9.832337, 8.4101427 ], [ 9.8361025, 8.4124889 ], [ 9.8410625, 8.416172 ], [ 9.8505307, 8.4220714 ], [ 9.8560257, 8.4254951 ], [ 9.8627768, 8.4275293 ], [ 9.8694468, 8.4312897 ], [ 9.8793669, 8.4386559 ], [ 9.8813924, 8.4402644 ], [ 9.8893748, 8.4466032 ], [ 9.890914, 8.4478254 ], [ 9.895792, 8.4532356 ], [ 9.9056301, 8.4623289 ], [ 9.9088812, 8.4659348 ], [ 9.9153852, 8.4731483 ], [ 9.9202633, 8.4785576 ], [ 9.9268484, 8.4840441 ], [ 9.9285394, 8.4849975 ], [ 9.9335175, 8.4878044 ], [ 9.9434395, 8.4951715 ], [ 9.9498637, 8.4987949 ], [ 9.9501066, 8.4989319 ], [ 9.9533596, 8.5025368 ], [ 9.9582357, 8.5079479 ], [ 9.9631138, 8.5133572 ], [ 9.9713268, 8.520648 ], [ 9.9762869, 8.5243311 ], [ 9.9828768, 8.5298176 ], [ 9.9927969, 8.5371838 ], [ 9.997757, 8.5408678 ], [ 10.0041771, 8.5498066 ], [ 10.0080156, 8.5530024 ], [ 10.010767, 8.5552931 ], [ 10.0140171, 8.5588999 ], [ 10.0222273, 8.5661898 ], [ 10.0254765, 8.5697966 ], [ 10.0320663, 8.5752821 ], [ 10.0436058, 8.5844526 ], [ 10.0518274, 8.5917425 ], [ 10.0518432, 8.591766 ], [ 10.0614071, 8.6060143 ], [ 10.0662069, 8.6131506 ], [ 10.0710859, 8.6185598 ], [ 10.0759659, 8.62397 ], [ 10.0782572, 8.6265148 ], [ 10.0784967, 8.6267808 ], [ 10.0808363, 8.6293793 ], [ 10.0857172, 8.6347895 ], [ 10.0871773, 8.6400452 ], [ 10.0971756, 8.6456862 ], [ 10.1036062, 8.6546249 ], [ 10.1083975, 8.6617613 ], [ 10.1132774, 8.6671705 ], [ 10.1164474, 8.6725035 ], [ 10.1230268, 8.6779909 ], [ 10.1279869, 8.681674 ], [ 10.1328659, 8.6870832 ], [ 10.1377468, 8.6924925 ], [ 10.1409969, 8.6961002 ], [ 10.1492071, 8.7033892 ], [ 10.1524572, 8.706996 ], [ 10.1590462, 8.7124825 ], [ 10.1607916, 8.7144194 ], [ 10.1622963, 8.7160892 ], [ 10.1655464, 8.719696 ], [ 10.1704273, 8.7251053 ], [ 10.1746877, 8.7275075 ], [ 10.1770964, 8.7288656 ], [ 10.1803474, 8.7324715 ], [ 10.18062, 8.7330943 ], [ 10.1834373, 8.7395306 ], [ 10.1859136, 8.7441911 ], [ 10.1881466, 8.748394 ], [ 10.1947374, 8.7538795 ], [ 10.2061958, 8.7647762 ], [ 10.209446, 8.768383 ], [ 10.2143269, 8.7737923 ], [ 10.2240763, 8.7846117 ], [ 10.2290468, 8.7882967 ], [ 10.2357073, 8.7920561 ], [ 10.2362786, 8.7927697 ], [ 10.2455959, 8.8044081 ], [ 10.2486362, 8.8082085 ], [ 10.2569275, 8.8137712 ], [ 10.2618065, 8.8191814 ], [ 10.2669373, 8.8194113 ], [ 10.2769365, 8.8250523 ], [ 10.2868567, 8.8324184 ], [ 10.2918968, 8.8343754 ], [ 10.2984858, 8.8398619 ], [ 10.3050756, 8.8453484 ], [ 10.3247709, 8.8564572 ], [ 10.3250761, 8.8566294 ], [ 10.3298759, 8.8637648 ], [ 10.3346672, 8.8709021 ], [ 10.3410969, 8.8798409 ], [ 10.3509274, 8.8889341 ], [ 10.3575964, 8.8926945 ], [ 10.3625565, 8.8963776 ], [ 10.3691473, 8.9018641 ], [ 10.3723974, 8.9054708 ], [ 10.3756456, 8.9090767 ], [ 10.3805265, 8.9144869 ], [ 10.3888159, 8.9200497 ], [ 10.3971968, 8.9238873 ], [ 10.4004469, 8.927494 ], [ 10.4069567, 8.9347067 ], [ 10.4202061, 8.9439535 ], [ 10.426877, 8.9477139 ], [ 10.431672, 8.9491584 ], [ 10.4336262, 8.9497471 ], [ 10.436343, 8.9512787 ], [ 10.4402962, 8.9535074 ], [ 10.4453468, 8.9554644 ], [ 10.4468469, 8.9560469 ], [ 10.450386, 8.9574213 ], [ 10.4638071, 8.9632158 ], [ 10.468936, 8.9634466 ], [ 10.479187, 8.9639072 ], [ 10.489356, 8.966095 ], [ 10.4979773, 8.9647532 ], [ 10.5017504, 8.966029 ], [ 10.5097771, 8.9687433 ], [ 10.5183964, 8.9674015 ], [ 10.5302773, 8.9696655 ], [ 10.5388269, 8.9700499 ], [ 10.5440273, 8.9685545 ], [ 10.5559874, 8.9690924 ], [ 10.566247, 8.9695539 ], [ 10.5686614, 8.9701563 ], [ 10.570524, 8.9706209 ], [ 10.570555, 8.9706286 ], [ 10.574707, 8.9716644 ], [ 10.5797462, 8.9736214 ], [ 10.5882874, 8.9740057 ], [ 10.5967464, 8.9761162 ], [ 10.6031656, 8.9850559 ], [ 10.6062574, 8.992115 ], [ 10.6095057, 8.9957209 ], [ 10.6143074, 9.0028572 ], [ 10.6191759, 9.0082674 ], [ 10.6227016, 9.0139942 ], [ 10.6272259, 9.0190096 ], [ 10.6300659, 9.0312481 ], [ 10.6298161, 9.0364275 ], [ 10.632906, 9.0434866 ], [ 10.634367, 9.0487423 ], [ 10.6374474, 9.0558014 ], [ 10.6371975, 9.0609808 ], [ 10.6400366, 9.0732193 ], [ 10.6379166, 9.0817738 ], [ 10.6325474, 9.0867233 ], [ 10.6272469, 9.0899448 ], [ 10.6225252, 9.0940294 ], [ 10.6235504, 9.0991144 ], [ 10.6252899, 9.1030531 ], [ 10.6326303, 9.1111012 ], [ 10.6361198, 9.1189775 ], [ 10.6357603, 9.1266842 ], [ 10.6336603, 9.1304522 ], [ 10.6296396, 9.1341343 ], [ 10.6256104, 9.1378164 ], [ 10.6177397, 9.1413279 ], [ 10.6135397, 9.1488638 ], [ 10.6151104, 9.1566553 ], [ 10.6125736, 9.1656294 ], [ 10.6118507, 9.1681871 ], [ 10.6120024, 9.1702929 ], [ 10.6103697, 9.1757498 ], [ 10.6142368, 9.182785 ], [ 10.610487, 9.189537 ], [ 10.5999069, 9.195981 ], [ 10.5996571, 9.2011604 ], [ 10.5957193, 9.2082548 ], [ 10.59723, 9.2099152 ], [ 10.5968704, 9.2176218 ], [ 10.5966101, 9.2234011 ], [ 10.59231, 9.2328634 ], [ 10.5881996, 9.238472 ], [ 10.5801497, 9.2458363 ], [ 10.5798903, 9.2516155 ], [ 10.5792599, 9.2651024 ], [ 10.5789099, 9.2728081 ], [ 10.57864, 9.2785873 ], [ 10.5783701, 9.2843676 ], [ 10.5781002, 9.2901468 ], [ 10.5777502, 9.2978535 ], [ 10.5794897, 9.3017921 ], [ 10.57932, 9.305645 ], [ 10.5808802, 9.3134375 ], [ 10.5806103, 9.3192158 ], [ 10.5802603, 9.3269224 ], [ 10.5780697, 9.3326168 ], [ 10.5741301, 9.3343735 ], [ 10.5705981, 9.337608 ], [ 10.5701103, 9.3380547 ], [ 10.5679197, 9.343749 ], [ 10.5598698, 9.3511133 ], [ 10.5616198, 9.355052 ], [ 10.5614405, 9.3589058 ], [ 10.5612602, 9.3627586 ], [ 10.5665798, 9.3726473 ], [ 10.5643902, 9.3783417 ], [ 10.5603704, 9.3820238 ], [ 10.56001, 9.3897305 ], [ 10.5602739, 9.3901691 ], [ 10.5635901, 9.3956804 ], [ 10.5691795, 9.3997898 ], [ 10.5783501, 9.4098492 ], [ 10.5799198, 9.4176407 ], [ 10.5789404, 9.4388332 ], [ 10.5766602, 9.446454 ], [ 10.5746498, 9.4482946 ], [ 10.5725403, 9.4520626 ], [ 10.5703497, 9.457757 ], [ 10.5661497, 9.465292 ], [ 10.5602102, 9.4688892 ], [ 10.55618, 9.4725714 ], [ 10.5482197, 9.4780092 ], [ 10.5462103, 9.4798508 ], [ 10.5416574, 9.4822884 ], [ 10.5409638, 9.483537 ], [ 10.6042274, 9.4664816 ], [ 10.6178399, 9.4628118 ], [ 10.7213135, 9.4525176 ], [ 10.7735429, 9.4473215 ], [ 10.7776726, 9.4504027 ], [ 10.9172323, 9.5545285 ], [ 10.9563447, 9.6056869 ], [ 10.9691343, 9.6153535 ], [ 10.9743202, 9.5959367 ], [ 10.9748936, 9.5928907 ], [ 10.9755068, 9.5896339 ], [ 10.9775, 9.578269 ], [ 10.9781408, 9.5746136 ], [ 10.9799528, 9.5711756 ], [ 10.9847116, 9.565485 ], [ 10.9923821, 9.5592833 ], [ 11.008193, 9.5521088 ], [ 11.0204287, 9.5494928 ], [ 11.0273981, 9.5490742 ], [ 11.0355263, 9.5486832 ], [ 11.0479828, 9.5503296 ], [ 11.0621357, 9.5522003 ], [ 11.0708561, 9.5512428 ], [ 11.0764081, 9.5513718 ], [ 11.0835775, 9.5466914 ], [ 11.0945108, 9.5330966 ], [ 11.1142382, 9.5255958 ], [ 11.1239049, 9.5326636 ], [ 11.1248239, 9.5333355 ], [ 11.1280236, 9.5356749 ], [ 11.1314504, 9.5377487 ], [ 11.1339863, 9.5392877 ], [ 11.136235, 9.5406808 ], [ 11.1444235, 9.5457538 ], [ 11.1509123, 9.5507803 ], [ 11.1613474, 9.5510225 ], [ 11.161859, 9.551125 ], [ 11.1619418, 9.5511416 ], [ 11.1711674, 9.55299 ], [ 11.1821346, 9.5555649 ], [ 11.1919422, 9.5581131 ], [ 11.1988392, 9.5611725 ], [ 11.2103491, 9.5655003 ], [ 11.2224522, 9.5692616 ], [ 11.2270899, 9.5693684 ], [ 11.2278224, 9.5690801 ], [ 11.2440615, 9.5622215 ], [ 11.2546663, 9.554347 ], [ 11.2692814, 9.5488863 ], [ 11.2745113, 9.5484276 ], [ 11.2780142, 9.5478178 ], [ 11.289086, 9.548156 ], [ 11.2930756, 9.5482779 ], [ 11.2982931, 9.548399 ], [ 11.3080446, 9.5486734 ], [ 11.3107931, 9.5486811 ], [ 11.3203249, 9.5489101 ], [ 11.3290329, 9.5485325 ], [ 11.3377295, 9.5487347 ], [ 11.3464384, 9.5483561 ], [ 11.3534193, 9.5473576 ], [ 11.3679142, 9.5476942 ], [ 11.3738518, 9.5468025 ], [ 11.3812971, 9.5456848 ], [ 11.3934717, 9.5459671 ], [ 11.4056845, 9.5445099 ], [ 11.4201536, 9.5460062 ], [ 11.4276419, 9.5485001 ], [ 11.4295988, 9.5496254 ], [ 11.4361563, 9.5398264 ], [ 11.4343501, 9.5310982 ], [ 11.4334548, 9.5197191 ], [ 11.4390627, 9.516256 ], [ 11.4402323, 9.5022027 ], [ 11.4402201, 9.4937809 ], [ 11.4437597, 9.4884722 ], [ 11.4586438, 9.4828224 ], [ 11.4699774, 9.477334 ], [ 11.4791069, 9.4656334 ], [ 11.4843063, 9.464138 ], [ 11.4898472, 9.4557362 ], [ 11.4935169, 9.4507113 ], [ 11.4944789, 9.4482006 ], [ 11.4944982, 9.4481504 ], [ 11.497427, 9.4405069 ], [ 11.5063066, 9.4339848 ], [ 11.5117559, 9.42731 ], [ 11.5155058, 9.420558 ], [ 11.5170238, 9.4187025 ], [ 11.5209665, 9.4138832 ], [ 11.5259256, 9.4078159 ], [ 11.5200833, 9.4039775 ], [ 11.5221986, 9.4004836 ], [ 11.5239932, 9.3960877 ], [ 11.5243617, 9.3908237 ], [ 11.5238565, 9.3851036 ], [ 11.5261422, 9.3807804 ], [ 11.5302452, 9.3784473 ], [ 11.5348545, 9.3723947 ], [ 11.5358829, 9.3666434 ], [ 11.530128, 9.3430408 ], [ 11.530694, 9.32608 ], [ 11.5525718, 9.3220848 ], [ 11.5526847, 9.3220641 ], [ 11.5818151, 9.3167445 ], [ 11.5907278, 9.3108132 ], [ 11.5932632, 9.3036953 ], [ 11.5990391, 9.3015825 ], [ 11.6115759, 9.3035667 ], [ 11.6249223, 9.309078 ], [ 11.6396093, 9.3067113 ], [ 11.647747, 9.3053999 ], [ 11.6488476, 9.2980328 ], [ 11.6507359, 9.2948885 ], [ 11.6536169, 9.2900925 ], [ 11.6563835, 9.2855024 ], [ 11.6608076, 9.2782097 ], [ 11.6633015, 9.2730808 ], [ 11.6655788, 9.2650671 ], [ 11.6701555, 9.2536144 ], [ 11.6754666, 9.246559 ], [ 11.6754788, 9.2465427 ], [ 11.6770573, 9.2444458 ], [ 11.6816502, 9.2364264 ], [ 11.6874056, 9.2295475 ], [ 11.6789658, 9.2239342 ], [ 11.6795166, 9.2174906 ], [ 11.67774, 9.2105555 ], [ 11.6820392, 9.1992131 ], [ 11.6836446, 9.1928175 ], [ 11.6895667, 9.1901917 ], [ 11.6963857, 9.1803791 ], [ 11.6986458, 9.173696 ], [ 11.7026157, 9.1608095 ], [ 11.7011566, 9.1555529 ], [ 11.6997862, 9.148571 ], [ 11.6984663, 9.1438398 ], [ 11.696867, 9.1380587 ], [ 11.6953974, 9.132803 ], [ 11.6957369, 9.1258974 ], [ 11.6960659, 9.1189919 ], [ 11.6963072, 9.1138124 ], [ 11.6949358, 9.1068296 ], [ 11.696887, 9.1017275 ], [ 11.6989269, 9.0948992 ], [ 11.7008867, 9.089797 ], [ 11.7028465, 9.0846949 ], [ 11.7048063, 9.0795918 ], [ 11.7067566, 9.0744905 ], [ 11.7103472, 9.0711908 ], [ 11.7156363, 9.0679684 ], [ 11.7226372, 9.0648232 ], [ 11.7296362, 9.0616779 ], [ 11.735177, 9.053277 ], [ 11.7362066, 9.0530656 ], [ 11.7420864, 9.0518579 ], [ 11.7490072, 9.0504389 ], [ 11.7525349, 9.049715 ], [ 11.7583008, 9.0428867 ], [ 11.7675171, 9.0337124 ], [ 11.7728124, 9.030419 ], [ 11.7767496, 9.0279703 ], [ 11.7859879, 9.0233727 ], [ 11.7917585, 9.019927 ], [ 11.7927046, 9.0196573 ], [ 11.7948738, 9.0190389 ], [ 11.794934, 9.0190217 ], [ 11.7998505, 9.0176201 ], [ 11.8162408, 9.0127049 ], [ 11.8193226, 9.0120201 ], [ 11.8252811, 9.0106964 ], [ 11.8310575, 9.0083952 ], [ 11.8311082, 9.008386 ], [ 11.8298514, 8.9935137 ], [ 11.8437475, 8.9788562 ], [ 11.8542171, 8.9662927 ], [ 11.8639253, 8.9541098 ], [ 11.8715396, 8.9470666 ], [ 11.8736335, 8.9376249 ], [ 11.8696062, 8.9295702 ], [ 11.869516, 8.9293898 ], [ 11.8624025, 8.9151628 ], [ 11.8646867, 8.9098709 ], [ 11.8608796, 8.9066348 ], [ 11.859648, 8.9045821 ], [ 11.8555612, 8.8977708 ], [ 11.8540268, 8.8952134 ], [ 11.8498389, 8.8750737 ], [ 11.8506003, 8.869934 ], [ 11.8433668, 8.866698 ], [ 11.84508, 8.8598451 ], [ 11.8406849, 8.8449986 ], [ 11.8364992, 8.8204243 ], [ 11.8317023, 8.7922616 ], [ 11.8312004, 8.7694985 ], [ 11.8270696, 8.7390894 ], [ 11.7854729, 8.7109554 ], [ 11.7691684, 8.7120187 ], [ 11.7542721, 8.7000779 ], [ 11.7496665, 8.6889904 ], [ 11.7431424, 8.6776045 ], [ 11.7516766, 8.6733961 ], [ 11.7571259, 8.6667213 ], [ 11.760457, 8.6636581 ], [ 11.7614317, 8.666501 ], [ 11.7658481, 8.6622464 ], [ 11.7741348, 8.6542632 ], [ 11.787881, 8.6434287 ], [ 11.7883201, 8.6424738 ], [ 11.7888993, 8.6412144 ], [ 11.7841654, 8.6297836 ], [ 11.7769339, 8.6251292 ], [ 11.7675141, 8.6206818 ], [ 11.7576119, 8.6172123 ], [ 11.759708, 8.6074694 ], [ 11.7667631, 8.5969072 ], [ 11.7900008, 8.5727664 ], [ 11.7926653, 8.5644824 ], [ 11.7932393, 8.5603509 ], [ 11.7941393, 8.5539291 ], [ 11.7945471, 8.5462341 ], [ 11.7906542, 8.5313711 ], [ 11.7859821, 8.5222282 ], [ 11.780158, 8.5142326 ], [ 11.766222, 8.5039663 ], [ 11.7569208, 8.4948349 ], [ 11.7487869, 8.4879885 ], [ 11.7414641, 8.4814512 ], [ 11.7387725, 8.4790484 ], [ 11.7360029, 8.4765759 ], [ 11.7301893, 8.4708691 ], [ 11.7243919, 8.4685936 ], [ 11.7162743, 8.4651794 ], [ 11.7090456, 8.4653037 ], [ 11.6994483, 8.4688536 ], [ 11.6901738, 8.4646073 ], [ 11.6794999, 8.46258 ], [ 11.6702188, 8.451773 ], [ 11.6617883, 8.4497799 ], [ 11.6558051, 8.4453619 ], [ 11.648308, 8.4423685 ], [ 11.6459221, 8.4331227 ], [ 11.6429738, 8.4268528 ], [ 11.638274, 8.4138399 ], [ 11.63301, 8.4113116 ], [ 11.6181183, 8.4067704 ], [ 11.6128945, 8.4037211 ], [ 11.6297879, 8.3865666 ], [ 11.6221123, 8.3761501 ], [ 11.6186237, 8.3727255 ], [ 11.6151352, 8.3693008 ], [ 11.6011677, 8.3521709 ], [ 11.5988264, 8.3464556 ], [ 11.5953274, 8.3407421 ], [ 11.5894995, 8.3316021 ], [ 11.584816, 8.3201714 ], [ 11.5801382, 8.309885 ], [ 11.5777969, 8.3041687 ], [ 11.5731354, 8.2973146 ], [ 11.5668845, 8.2860949 ], [ 11.5661325, 8.2847452 ], [ 11.56145, 8.2733145 ], [ 11.5544424, 8.2595997 ], [ 11.5497761, 8.2516012 ], [ 11.546277, 8.2458887 ], [ 11.5381279, 8.23561 ], [ 11.5288153, 8.2241898 ], [ 11.5229864, 8.2150497 ], [ 11.514842, 8.2059155 ], [ 11.510191, 8.2013493 ], [ 11.5043726, 8.1944971 ], [ 11.4962339, 8.1865072 ], [ 11.485775, 8.1773777 ], [ 11.4776363, 8.1693869 ], [ 11.4695082, 8.1636848 ], [ 11.4613686, 8.155694 ], [ 11.4567184, 8.1511278 ], [ 11.4552226, 8.1498689 ], [ 11.448636, 8.1442823 ], [ 11.4393395, 8.1362944 ], [ 11.4335317, 8.1317301 ], [ 11.4265498, 8.1237373 ], [ 11.4184159, 8.1168909 ], [ 11.4079522, 8.1066179 ], [ 11.4009818, 8.1009121 ], [ 11.3905276, 8.092927 ], [ 11.3835515, 8.0860777 ], [ 11.3800649, 8.082654 ], [ 11.3765706, 8.0780849 ], [ 11.371909, 8.0712309 ], [ 11.3626183, 8.0643873 ], [ 11.3579463, 8.0552444 ], [ 11.354453, 8.0506763 ], [ 11.3521222, 8.0472488 ], [ 11.3497914, 8.0438213 ], [ 11.3463086, 8.0415411 ], [ 11.3468608, 8.0358191 ], [ 11.352064, 8.0346632 ], [ 11.3543681, 8.0323696 ], [ 11.3543414, 8.0266485 ], [ 11.3542901, 8.0266656 ], [ 11.3508748, 8.0278006 ], [ 11.347413, 8.030097 ], [ 11.3473834, 8.0300825 ], [ 11.3473616, 8.030097 ], [ 11.342721, 8.0278196 ], [ 11.3415375, 8.0221014 ], [ 11.3415213, 8.0186682 ], [ 11.3461351, 8.0152254 ], [ 11.350749, 8.0117826 ], [ 11.3518639, 8.0026264 ], [ 11.3541517, 7.996901 ], [ 11.356451, 7.993463 ], [ 11.3587551, 7.9911695 ], [ 11.3633528, 7.9842935 ], [ 11.3656311, 7.9762793 ], [ 11.3667774, 7.9739885 ], [ 11.3725224, 7.9648218 ], [ 11.3828754, 7.9510679 ], [ 11.3932333, 7.9384589 ], [ 11.4001093, 7.9235687 ], [ 11.4035444, 7.9155521 ], [ 11.4081364, 7.9075322 ], [ 11.4115667, 7.8983707 ], [ 11.4207726, 7.8869081 ], [ 11.4265118, 7.8765979 ], [ 11.4345655, 7.866282 ], [ 11.4380226, 7.8628416 ], [ 11.4437666, 7.8536754 ], [ 11.446679, 7.8504532 ], [ 11.4541302, 7.8422093 ], [ 11.4575825, 7.837625 ], [ 11.4621849, 7.8318939 ], [ 11.465641, 7.8284535 ], [ 11.4725266, 7.8158512 ], [ 11.4806128, 7.8124008 ], [ 11.4821901, 7.8102388 ], [ 11.4898138, 7.7997937 ], [ 11.4944382, 7.7986393 ], [ 11.494467, 7.7986449 ], [ 11.4944896, 7.7986393 ], [ 11.5002822, 7.7997699 ], [ 11.5009906, 7.8004654 ], [ 11.5009836, 7.800509 ], [ 11.5072069, 7.8066192 ], [ 11.5141935, 7.8157563 ], [ 11.5165501, 7.8249044 ], [ 11.5259047, 7.8454776 ], [ 11.5282516, 7.8523374 ], [ 11.5294304, 7.8569112 ], [ 11.5329447, 7.8660569 ], [ 11.5352907, 7.8729162 ], [ 11.5376482, 7.8820643 ], [ 11.5388269, 7.8866382 ], [ 11.5411682, 7.8923535 ], [ 11.5446625, 7.8969221 ], [ 11.5499725, 7.9018621 ], [ 11.5515528, 7.9033318 ], [ 11.5555849, 7.9037886 ], [ 11.5632219, 7.906033 ], [ 11.5632733, 7.906033 ], [ 11.570218, 7.9060173 ], [ 11.5844467, 7.9082681 ], [ 11.5904205, 7.9080177 ], [ 11.5994298, 7.8977244 ], [ 11.6099319, 7.8876073 ], [ 11.6196741, 7.8737148 ], [ 11.632421, 7.867192 ], [ 11.6464204, 7.865797 ], [ 11.6506436, 7.8573267 ], [ 11.6478652, 7.8455229 ], [ 11.646158, 7.8171506 ], [ 11.6488011, 7.7907676 ], [ 11.636128, 7.7730301 ], [ 11.6320645, 7.7644576 ], [ 11.6329776, 7.7504053 ], [ 11.6486901, 7.742869 ], [ 11.6827219, 7.7341471 ], [ 11.7265461, 7.7191846 ], [ 11.7580365, 7.7248092 ], [ 11.7648381, 7.6939011 ], [ 11.7694148, 7.6824493 ], [ 11.7716502, 7.6652818 ], [ 11.7727441, 7.6515493 ], [ 11.7691602, 7.6275301 ], [ 11.766158, 7.6149244 ], [ 11.7663306, 7.61272 ], [ 11.7665438, 7.6042913 ], [ 11.7665729, 7.6031408 ], [ 11.7683438, 7.5983982 ], [ 11.7682828, 7.5963497 ], [ 11.7681292, 7.5911822 ], [ 11.768058, 7.5887918 ], [ 11.7679867, 7.5881227 ], [ 11.7678213, 7.5825706 ], [ 11.768425, 7.5796208 ], [ 11.7665877, 7.5749992 ], [ 11.7665501, 7.5749044 ], [ 11.7653666, 7.5691862 ], [ 11.7641668, 7.5600357 ], [ 11.7629509, 7.5474525 ], [ 11.7629194, 7.5405879 ], [ 11.7651758, 7.527997 ], [ 11.7663012, 7.5211291 ], [ 11.7674217, 7.5131173 ], [ 11.7719355, 7.4879355 ], [ 11.7765331, 7.48106 ], [ 11.7857447, 7.4707413 ], [ 11.7914944, 7.4627194 ], [ 11.7960863, 7.4546995 ], [ 11.8017416, 7.4495406 ], [ 11.8047485, 7.4467974 ], [ 11.8099175, 7.4420815 ], [ 11.816824, 7.4340568 ], [ 11.8193989, 7.4309796 ], [ 11.8526721, 7.3912172 ], [ 11.8463879, 7.3813887 ], [ 11.7994394, 7.2966633 ], [ 11.7644444, 7.2838888 ], [ 11.7555542, 7.2786102 ], [ 11.7519436, 7.2752771 ], [ 11.7497215, 7.2705555 ], [ 11.7497215, 7.2649994 ], [ 11.7516651, 7.2599993 ], [ 11.7555542, 7.2572222 ], [ 11.7611103, 7.2558327 ], [ 11.768055, 7.2555552 ], [ 11.7805538, 7.2566662 ], [ 11.786665, 7.2558327 ], [ 11.7913876, 7.2536106 ], [ 11.7949982, 7.2502775 ], [ 11.7983037, 7.2458177 ], [ 11.8161676, 7.2217162 ], [ 11.8330779, 7.1989011 ], [ 11.8824997, 7.1322222 ], [ 11.8641663, 7.0847216 ], [ 11.8178294, 7.0475253 ], [ 11.8170496, 7.0468993 ], [ 11.7627773, 7.0033331 ], [ 11.7586098, 7.0008326 ], [ 11.7013874, 6.9761105 ], [ 11.6943763, 6.972693 ], [ 11.6461105, 6.9491663 ], [ 11.6377773, 6.9438887 ], [ 11.5874996, 6.8922215 ], [ 11.5859761, 6.8897187 ], [ 11.5797215, 6.8794441 ], [ 11.5563889, 6.833333 ], [ 11.5547218, 6.8211107 ], [ 11.560833, 6.8133326 ], [ 11.563272, 6.8117066 ], [ 11.5649986, 6.8105555 ], [ 11.5833321, 6.7944441 ], [ 11.5858326, 6.7902775 ], [ 11.5891666, 6.7799997 ], [ 11.5886097, 6.7594442 ], [ 11.5847206, 6.7355547 ], [ 11.5808315, 6.7186108 ], [ 11.5791664, 6.7130547 ], [ 11.5624981, 6.6674995 ], [ 11.5620723, 6.6665947 ], [ 11.558054, 6.6580553 ], [ 11.5552769, 6.6538887 ], [ 11.535978, 6.6296565 ], [ 11.5183315, 6.6074991 ], [ 11.5147209, 6.604166 ], [ 11.5105553, 6.6016665 ], [ 11.5049992, 6.6002769 ], [ 11.4733315, 6.6025 ], [ 11.4547215, 6.6008329 ], [ 11.4449997, 6.5969439 ], [ 11.4372215, 6.5908327 ], [ 11.4349995, 6.5861111 ], [ 11.4150058, 6.5161342 ], [ 11.4141645, 6.5097218 ], [ 11.4130554, 6.498333 ], [ 11.4127769, 6.4844437 ], [ 11.4063873, 6.4772215 ], [ 11.3888874, 6.4602776 ], [ 11.3852768, 6.4569435 ], [ 11.3769436, 6.4516659 ], [ 11.3719444, 6.4497213 ], [ 11.3402767, 6.4408331 ], [ 11.2730541, 6.4333324 ], [ 11.266943, 6.4330549 ], [ 11.2615973, 6.4333761 ], [ 11.214151, 6.4362271 ], [ 11.2022209, 6.436944 ], [ 11.1974983, 6.4349995 ], [ 11.1919441, 6.4338884 ], [ 11.1816654, 6.4333324 ], [ 11.1408329, 6.4336109 ], [ 11.1291656, 6.435833 ], [ 11.1244431, 6.438055 ], [ 11.1169434, 6.4441662 ], [ 11.1144428, 6.4486103 ], [ 11.1102772, 6.4580555 ], [ 11.0952759, 6.4980555 ], [ 11.092247, 6.5085373 ], [ 11.091491, 6.511692 ], [ 11.0883331, 6.5249996 ], [ 11.0845487, 6.5414991 ], [ 11.081016, 6.5457706 ], [ 11.072031, 6.5582099 ], [ 11.0666296, 6.572612 ], [ 11.0623213, 6.5963914 ], [ 11.0597177, 6.642548 ], [ 11.0643338, 6.6630811 ], [ 11.0782091, 6.6793858 ], [ 11.082222, 6.6977777 ], [ 11.0783329, 6.7074995 ], [ 11.0758324, 6.7116661 ], [ 11.0711098, 6.7191658 ], [ 11.0667857, 6.7245382 ], [ 11.0568734, 6.7368536 ], [ 11.0498797, 6.7455429 ], [ 11.0436096, 6.7533331 ], [ 11.0260916, 6.7714481 ], [ 11.019165, 6.7786102 ], [ 11.0136681, 6.7805099 ], [ 11.0, 6.7808332 ], [ 10.9694443, 6.7774992 ], [ 10.9563885, 6.7769442 ], [ 10.9433327, 6.7780552 ], [ 10.9386101, 6.7799997 ], [ 10.9030552, 6.8069439 ], [ 10.8827763, 6.8277769 ], [ 10.8811092, 6.8394442 ], [ 10.8816662, 6.8669443 ], [ 10.8791657, 6.8777771 ], [ 10.8744843, 6.8925417 ], [ 10.8647213, 6.9233332 ], [ 10.8627777, 6.9283333 ], [ 10.854166, 6.9469442 ], [ 10.8490919, 6.9483041 ], [ 10.8446186, 6.9568701 ], [ 10.8420011, 6.9582502 ], [ 10.8249791, 6.9576595 ], [ 10.8077736, 6.9587672 ], [ 10.798366, 6.9626268 ], [ 10.7950157, 6.9617213 ], [ 10.7894409, 6.9602146 ], [ 10.7865462, 6.9619031 ], [ 10.7840134, 6.9657626 ], [ 10.7790684, 6.96721 ], [ 10.769902, 6.9619031 ], [ 10.7668868, 6.9555108 ], [ 10.7613387, 6.958526 ], [ 10.7586257, 6.9636266 ], [ 10.7539144, 6.966125 ], [ 10.7474423, 6.9694563 ], [ 10.7471567, 6.9720261 ], [ 10.7474423, 6.9760236 ], [ 10.7433496, 6.9798307 ], [ 10.7407592, 6.9835113 ], [ 10.7383798, 6.9885558 ], [ 10.7360003, 6.9893172 ], [ 10.7332401, 6.9916015 ], [ 10.7298137, 6.9888413 ], [ 10.7254317, 6.9892817 ], [ 10.7204824, 6.9882918 ], [ 10.708528, 6.9990279 ], [ 10.7047209, 7.0062615 ], [ 10.7003807, 7.0134951 ], [ 10.6947462, 7.0143326 ], [ 10.6910247, 7.0167978 ], [ 10.6876744, 7.0160363 ], [ 10.6838673, 7.0164932 ], [ 10.6829535, 7.0204526 ], [ 10.6788418, 7.0268486 ], [ 10.6670497, 7.0322061 ], [ 10.6297207, 7.0491657 ], [ 10.6199989, 7.0536108 ], [ 10.6166649, 7.0569439 ], [ 10.6149998, 7.0686102 ], [ 10.6094677, 7.0638885 ], [ 10.5599995, 7.0216665 ], [ 10.5133324, 6.8780546 ], [ 10.3687809, 6.8760791 ], [ 10.3677605, 6.8760652 ], [ 10.2694445, 6.8747215 ], [ 10.2377777, 6.8780546 ], [ 10.2236099, 6.8844442 ], [ 10.2152767, 6.8902769 ], [ 10.2049999, 6.9005547 ], [ 10.1949997, 6.9177771 ], [ 10.1911106, 6.9274998 ], [ 10.1897221, 6.9330549 ], [ 10.188055, 6.9516659 ], [ 10.1877766, 6.9783325 ], [ 10.1805553, 6.998333 ], [ 10.1758327, 7.0072222 ], [ 10.1672211, 7.019166 ], [ 10.164999, 7.0211105 ], [ 10.1362515, 6.9971542 ], [ 10.1007921, 6.9676045 ], [ 10.0949993, 6.9627771 ], [ 10.0535378, 6.9277325 ], [ 10.030972, 6.9086592 ], [ 9.8849983, 6.7852774 ], [ 9.8747215, 6.7758331 ], [ 9.7955551, 6.8016663 ], [ 9.7863884, 6.7777777 ], [ 9.7441654, 6.6394444 ], [ 9.7316822, 6.5976711 ], [ 9.7309433, 6.5951986 ], [ 9.7088451, 6.5212507 ], [ 9.6555538, 6.5258331 ], [ 9.6377773, 6.5233326 ], [ 9.5980138, 6.4998821 ] ] ] } }
]
}
