{
"type": "FeatureCollection",
"name": "Taraba_micro_catchments",
"crs": { "type": "name", "properties": { "name": "urn:ogc:def:crs:OGC:1.3:CRS84" } },
"features": [
{ "type": "Feature", "properties": { "Stra_Catch": "Gali-Lamurde", "State": "Gombe", "LGA": "Billiri", "Population": 202680, "Cleard_TOR": "Not Yet", "Status": "Not yet awarded", "Start_Date": "2024-03-20T00:00:00", "End_Date": "2025-09-11T00:00:00", "Micr_Catch": "COE Billiri", "Size_Ha": 153506.33583500001, "Comments": null, "OBJECTID_1": 0, "Shape_Leng": 0.0, "Shape_Area": 0.0, "parent_strategic_name": "Gali-Lamurde", "clipped_to_state": true }, "geometry": { "type": "MultiPolygon", "coordinates": [ [ [ [ 11.094510799998501, 9.533096599999919, 0.0 ], [ 11.083577499998629, 9.54669139999997, 0.0 ], [ 11.076408099998616, 9.551371799999968, 0.0 ], [ 11.0764081, 9.5513718, 0.0 ], [ 11.0835775, 9.5466914, 0.0 ], [ 11.0945108, 9.5330966, 0.0 ], [ 11.114238199999019, 9.525595800000373, 0.0 ], [ 11.11423819999845, 9.525595799999957, 0.0 ], [ 11.094510799998501, 9.533096599999919, 0.0 ] ] ], [ [ [ 11.062135699999267, 9.552200299999903, 0.0 ], [ 11.0621357, 9.5522003, 0.0 ], [ 11.0708561, 9.5512428, 0.0 ], [ 11.071639381281283, 9.551260999438993, 0.0 ], [ 11.070856099998608, 9.551242799999965, 0.0 ], [ 11.062135699999267, 9.552200299999903, 0.0 ] ] ], [ [ [ 11.027398099998855, 9.549074199999952, 0.0 ], [ 11.020428699998837, 9.549492799999953, 0.0 ], [ 11.008192999998933, 9.552108799999953, 0.0 ], [ 10.99238209999899, 9.5592833, 0.0 ], [ 10.984711599998963, 9.565485, 0.0 ], [ 10.979952799999053, 9.571175599999965, 0.0 ], [ 10.978140799999057, 9.574613599999946, 0.0 ], [ 10.977499999999067, 9.578269, 0.0 ], [ 10.975506799999001, 9.5896339, 0.0 ], [ 10.974893599999071, 9.592890699999989, 0.0 ], [ 10.974320199999058, 9.595936699999948, 0.0 ], [ 10.969134299999222, 9.615353499999411, 0.0 ], [ 10.9691343, 9.6153535, 0.0 ], [ 10.9743202, 9.5959367, 0.0 ], [ 10.9748936, 9.5928907, 0.0 ], [ 10.9755068, 9.5896339, 0.0 ], [ 10.9775, 9.578269, 0.0 ], [ 10.9781408, 9.5746136, 0.0 ], [ 10.9799528, 9.5711756, 0.0 ], [ 10.9847116, 9.565485, 0.0 ], [ 10.9923821, 9.5592833, 0.0 ], [ 11.008193, 9.5521088, 0.0 ], [ 11.0204287, 9.5494928, 0.0 ], [ 11.0273981, 9.5490742, 0.0 ], [ 11.035526299999512, 9.548683200000022, 0.0 ], [ 11.035526299998823, 9.548683199999932, 0.0 ], [ 11.027398099998855, 9.549074199999952, 0.0 ] ] ] ] } },
{ "type": "Feature", "properties": { "Stra_Catch": "\tGali-Lamurde", "State": "Plateau", "LGA": "Wase/kanam", "Population": 481800, "Cleard_TOR": "No", "Status": "Submitted to the Bank", "Start_Date": "1899-12-30T00:00:00", "End_Date": "1899-12-30T00:00:00", "Micr_Catch": "Zurak_CMP", "Size_Ha": 28335.579769, "Comments": null, "OBJECTID_1": 0, "Shape_Leng": 0.0, "Shape_Area": 0.0, "parent_strategic_name": "Gali-Lamurde", "clipped_to_state": true }, "geometry": { "type": "MultiPolygon", "coordinates": [ [ [ [ 10.562195887815115, 9.380351669873122, 0.0 ], [ 10.5603704, 9.3820238, 0.0 ], [ 10.560302256693737, 9.383480958763544, 0.0 ], [ 10.561932712547749, 9.38137715681459, 0.0 ], [ 10.562195887815115, 9.380351669873122, 0.0 ] ] ], [ [ [ 10.578529085704583, 9.36478937759389, 0.0 ], [ 10.578610919403674, 9.364580751729358, 0.0 ], [ 10.578733120822465, 9.363207030813454, 0.0 ], [ 10.578536369873838, 9.353371630205771, 0.0 ], [ 10.578873701381001, 9.351856295868524, 0.0 ], [ 10.584300149742234, 9.327480038992769, 0.0 ], [ 10.584270035330784, 9.320805094998814, 0.0 ], [ 10.588673859279982, 9.310105365709255, 0.0 ], [ 10.591489826185429, 9.301248347126144, 0.0 ], [ 10.591974946034304, 9.297074268051086, 0.0 ], [ 10.586519595821857, 9.279409586829443, 0.0 ], [ 10.585511046332035, 9.26055692185529, 0.0 ], [ 10.592826457015803, 9.243753346425981, 0.0 ], [ 10.597330896482783, 9.233494228945338, 0.0 ], [ 10.592022468161861, 9.233255734339085, 0.0 ], [ 10.5881996, 9.238472, 0.0 ], [ 10.5801497, 9.2458363, 0.0 ], [ 10.5798903, 9.2516155, 0.0 ], [ 10.5792599, 9.2651024, 0.0 ], [ 10.5789099, 9.2728081, 0.0 ], [ 10.57864, 9.2785873, 0.0 ], [ 10.5783701, 9.2843676, 0.0 ], [ 10.5781002, 9.2901468, 0.0 ], [ 10.5777502, 9.2978535, 0.0 ], [ 10.5794897, 9.3017921, 0.0 ], [ 10.57932, 9.305645, 0.0 ], [ 10.5808802, 9.3134375, 0.0 ], [ 10.5806103, 9.3192158, 0.0 ], [ 10.5802603, 9.3269224, 0.0 ], [ 10.5780697, 9.3326168, 0.0 ], [ 10.5741301, 9.3343735, 0.0 ], [ 10.5705981, 9.337608, 0.0 ], [ 10.5701103, 9.3380547, 0.0 ], [ 10.5679197, 9.343749, 0.0 ], [ 10.5598698, 9.3511133, 0.0 ], [ 10.5616198, 9.355052, 0.0 ], [ 10.5614405, 9.3589058, 0.0 ], [ 10.5612602, 9.3627586, 0.0 ], [ 10.5665798, 9.3726473, 0.0 ], [ 10.565566593798428, 9.375282302463571, 0.0 ], [ 10.570250447857445, 9.374080233878855, 0.0 ], [ 10.578529085704583, 9.36478937759389, 0.0 ] ] ] ] } },
{ "type": "Feature", "properties": { "Stra_Catch": "Gali-Lamurde", "State": "Taraba", "LGA": "Jalingo", "Population": 0, "Cleard_TOR": "Yes", "Status": "Completed", "Start_Date": "2025-01-20T00:00:00", "End_Date": "2025-03-29T00:00:00", "Micr_Catch": "Mayo-Gwoi", "Size_Ha": 13014.7108775, "Comments": null, "OBJECTID_1": 0, "Shape_Leng": 0.0, "Shape_Area": 0.0, "parent_strategic_name": "Gali-Lamurde", "clipped_to_state": true }, "geometry": { "type": "Polygon", "coordinates": [ [ [ 11.324432712127868, 8.92182142469612, 0.0 ], [ 11.338145616316105, 8.936596340603234, 0.0 ], [ 11.344982571068639, 8.938350762261223, 0.0 ], [ 11.346400621198836, 8.943877156575457, 0.0 ], [ 11.355095757374965, 8.953463745117116, 0.0 ], [ 11.364710489905242, 8.954733954535516, 0.0 ], [ 11.368622843420829, 8.957766045464336, 0.0 ], [ 11.373043823238488, 8.958900621202181, 0.0 ], [ 11.378462388776622, 8.96341959635409, 0.0 ], [ 11.379733954531821, 8.97304382324211, 0.0 ], [ 11.382766045460606, 8.976956176757731, 0.0 ], [ 11.383900621198443, 8.981377156575441, 0.0 ], [ 11.386932712127228, 8.985289510091064, 0.0 ], [ 11.388067287865063, 8.988246663411379, 0.0 ], [ 11.383900621198448, 8.993622843424403, 0.0 ], [ 11.382766045460617, 9.000746663411379, 0.0 ], [ 11.386932712127237, 9.0061228434244, 0.0 ], [ 11.387499999996157, 9.008333333333256, 0.0 ], [ 11.389634874128078, 9.008976236979088, 0.0 ], [ 11.393698459197472, 9.011857096354083, 0.0 ], [ 11.411584472652123, 9.013142903645743, 0.0 ], [ 11.413244967986302, 8.996863471137063, 0.0 ], [ 11.419868977860347, 8.994868977864492, 0.0 ], [ 11.421859063038273, 8.98825920952682, 0.0 ], [ 11.433967081701315, 8.98685709635407, 0.0 ], [ 11.443698459196851, 8.995190429687399, 0.0 ], [ 11.447968207460683, 8.996476236979063, 0.0 ], [ 11.456366305876376, 9.003667873806318, 0.0 ], [ 11.458976236974429, 9.008655124240347, 0.0 ], [ 11.454809570307825, 9.014531792534617, 0.0 ], [ 11.454166666661999, 9.016666666666563, 0.0 ], [ 11.454827880854705, 9.024100409613611, 0.0 ], [ 11.461649237733953, 9.025850762261179, 0.0 ], [ 11.463419596349382, 9.032750447591036, 0.0 ], [ 11.474062771262432, 9.042233954535476, 0.0 ], [ 11.47721048990388, 9.041099378797629, 0.0 ], [ 11.481122843419449, 9.038067287868806, 0.0 ], [ 11.48333333332827, 9.037499999999882, 0.0 ], [ 11.483333333328266, 9.02916666666655, 0.0 ], [ 11.482766045459348, 9.022789510091027, 0.0 ], [ 11.47973395453057, 9.018877156575407, 0.0 ], [ 11.478599378792733, 9.006122843424365, 0.0 ], [ 11.474432712126125, 9.000746663411343, 0.0 ], [ 11.475567287863951, 8.993622843424367, 0.0 ], [ 11.478599378792724, 8.989710489908738, 0.0 ], [ 11.479733954530552, 8.985289510091029, 0.0 ], [ 11.486932712125933, 8.977210489908737, 0.0 ], [ 11.488067287863759, 8.972789510091024, 0.0 ], [ 11.491099378792534, 8.968877156575401, 0.0 ], [ 11.492375013558135, 8.959220716688247, 0.0 ], [ 11.498043823236868, 8.957766045464284, 0.0 ], [ 11.506122843419034, 8.950567287868797, 0.0 ], [ 11.511892361105577, 8.949086507161329, 0.0 ], [ 11.512499999994446, 8.933333333333204, 0.0 ], [ 11.512499999994445, 8.929166666666534, 0.0 ], [ 11.501956176752419, 8.929733954535466, 0.0 ], [ 11.498043823236856, 8.932766045464286, 0.0 ], [ 11.48945617675261, 8.93390062120214, 0.0 ], [ 11.48137715657044, 8.941099378797626, 0.0 ], [ 11.475850762256284, 8.942517428927843, 0.0 ], [ 11.474149237733741, 8.949149237738601, 0.0 ], [ 11.468622843419585, 8.950567287868813, 0.0 ], [ 11.464710489904014, 8.953599378797634, 0.0 ], [ 11.443622843419927, 8.954733954535488, 0.0 ], [ 11.438718668615303, 8.958534749348861, 0.0 ], [ 11.434078640403557, 8.957494439019001, 0.0 ], [ 11.432766045459996, 8.949253336588447, 0.0 ], [ 11.43703138562921, 8.94375, 0.0 ], [ 11.433900621197823, 8.939710489908755, 0.0 ], [ 11.43244594997388, 8.934041680229939, 0.0 ], [ 11.422789510086851, 8.932766045464316, 0.0 ], [ 11.404784478077515, 8.915651448567621, 0.0 ], [ 11.404166666662588, 8.904166666666583, 0.0 ], [ 11.403813340924744, 8.901742214626651, 0.0 ], [ 11.396186659067194, 8.894091118706516, 0.0 ], [ 11.39583333332935, 8.891666666666582, 0.0 ], [ 11.389456176753901, 8.892233954535511, 0.0 ], [ 11.385543823238324, 8.895266045464329, 0.0 ], [ 11.371732923715909, 8.896494547525968, 0.0 ], [ 11.369933742943363, 8.903505452473883, 0.0 ], [ 11.356122843420943, 8.904733954535523, 0.0 ], [ 11.35221048990536, 8.907766045464342, 0.0 ], [ 11.343622843421073, 8.908900621202191, 0.0 ], [ 11.335543823238867, 8.916099378797684, 0.0 ], [ 11.32916666666341, 8.916666666666606, 0.0 ], [ 11.325970119896949, 8.917486911349767, 0.0 ], [ 11.324432712127868, 8.92182142469612, 0.0 ] ] ] } },
{ "type": "Feature", "properties": { "Stra_Catch": "Shemankar-Katsina_Ala", "State": "Taraba", "LGA": "Takum", "Population": 0, "Cleard_TOR": "Yes", "Status": "Completed", "Start_Date": "2025-01-20T00:00:00", "End_Date": "2025-03-29T00:00:00", "Micr_Catch": "Ndibam/Fadama", "Size_Ha": 14720.500040299999, "Comments": null, "OBJECTID_1": 0, "Shape_Leng": 0.0, "Shape_Area": 0.0, "parent_strategic_name": "Shemankar-Katsina-Ala", "clipped_to_state": true }, "geometry": { "type": "Polygon", "coordinates": [ [ [ 9.907766045464433, 7.276956176757838, 0.0 ], [ 9.909184095594643, 7.282482401529971, 0.0 ], [ 9.915815904405404, 7.284184265136746, 0.0 ], [ 9.916666666666689, 7.2875, 0.0 ], [ 9.918159413702776, 7.287419979297709, 0.0 ], [ 9.918538050278176, 7.28717110762739, 0.0 ], [ 9.919696236598318, 7.28733759584997, 0.0 ], [ 9.922428222058691, 7.287191144113697, 0.0 ], [ 9.922842506640377, 7.286909554118944, 0.0 ], [ 9.923625714680151, 7.284482843467444, 0.0 ], [ 9.924182452193012, 7.284211425599488, 0.0 ], [ 9.924714194450409, 7.283657057506543, 0.0 ], [ 9.925378448993889, 7.283017093899297, 0.0 ], [ 9.928409645159258, 7.282272648099647, 0.0 ], [ 9.928791224285085, 7.281483280847012, 0.0 ], [ 9.929966774989056, 7.281194687908236, 0.0 ], [ 9.930981079262937, 7.28121327208947, 0.0 ], [ 9.9315657846925, 7.282410843343174, 0.0 ], [ 9.932325012486389, 7.282018697991901, 0.0 ], [ 9.932673933480931, 7.281904773676141, 0.0 ], [ 9.933245068130416, 7.281337637576577, 0.0 ], [ 9.93340918190612, 7.280659760953735, 0.0 ], [ 9.933685681673774, 7.280393150467722, 0.0 ], [ 9.933951544918621, 7.280115961421553, 0.0 ], [ 9.934731924293221, 7.279861190988114, 0.0 ], [ 9.935417344835088, 7.279180569118952, 0.0 ], [ 9.936275376110368, 7.280035891666611, 0.0 ], [ 9.936669511086738, 7.280115647012829, 0.0 ], [ 9.937350961451354, 7.280100457197232, 0.0 ], [ 9.938130661020109, 7.280114741995403, 0.0 ], [ 9.938577734923298, 7.281479524746134, 0.0 ], [ 9.939391868942227, 7.281461407307788, 0.0 ], [ 9.93976393848645, 7.281468055310896, 0.0 ], [ 9.940207281065382, 7.282821714771322, 0.0 ], [ 9.940756630172459, 7.283086613068147, 0.0 ], [ 9.941322485916471, 7.283376385286259, 0.0 ], [ 9.941292250802531, 7.285036928536258, 0.0 ], [ 9.941569935695711, 7.285313736803187, 0.0 ], [ 9.942663938608725, 7.285524702815989, 0.0 ], [ 9.943476148003887, 7.286613668934797, 0.0 ], [ 9.943753757585659, 7.286879129399213, 0.0 ], [ 9.944287793510577, 7.287431823690086, 0.0 ], [ 9.945135371917257, 7.287412564739153, 0.0 ], [ 9.945651729098888, 7.286873576576459, 0.0 ], [ 9.946466488362065, 7.287150101408775, 0.0 ], [ 9.946887357674253, 7.287140741248291, 0.0 ], [ 9.947280004833841, 7.286329080062205, 0.0 ], [ 9.94782181117912, 7.285273855889925, 0.0 ], [ 9.948090108133169, 7.283885328564596, 0.0 ], [ 9.948671216216662, 7.283602172882903, 0.0 ], [ 9.950274678504266, 7.283631666192515, 0.0 ], [ 9.950252993732107, 7.282659765507818, 0.0 ], [ 9.951081174518993, 7.282256317394868, 0.0 ], [ 9.952928184389865, 7.281000668788328, 0.0 ], [ 9.953249233468821, 7.28198041770656, 0.0 ], [ 9.953542767107354, 7.282245838311531, 0.0 ], [ 9.954063875024284, 7.281702062308861, 0.0 ], [ 9.956261620607998, 7.281162167593688, 0.0 ], [ 9.957073473002888, 7.282823990865738, 0.0 ], [ 9.959508844775087, 7.282463762731853, 0.0 ], [ 9.961412939067428, 7.280860839983514, 0.0 ], [ 9.963033770133315, 7.280331677140582, 0.0 ], [ 9.963299613089394, 7.280054473191041, 0.0 ], [ 9.96446557759266, 7.27976793433836, 0.0 ], [ 9.966559944005191, 7.279046965981687, 0.0 ], [ 9.967810589076596, 7.279889576677744, 0.0 ], [ 9.968269269431655, 7.282666099148639, 0.0 ], [ 9.969029024598196, 7.28303226343083, 0.0 ], [ 9.969011951338969, 7.28397933218494, 0.0 ], [ 9.969030152792524, 7.284793306545359, 0.0 ], [ 9.969012555751879, 7.285743026423773, 0.0 ], [ 9.969025425956278, 7.286298923800667, 0.0 ], [ 9.968477232112143, 7.286826873795271, 0.0 ], [ 9.968438492137867, 7.287148995196425, 0.0 ], [ 9.977424452039955, 7.287853325737873, 0.0 ], [ 9.980908881293425, 7.291313340928843, 0.0 ], [ 9.985831021016734, 7.291577198815032, 0.0 ], [ 9.98589263437011, 7.288227019008899, 0.0 ], [ 9.986963456005537, 7.287877563863801, 0.0 ], [ 9.987227504311871, 7.286786342259281, 0.0 ], [ 9.990764874962906, 7.286512572626177, 0.0 ], [ 9.991046587993504, 7.286218890948818, 0.0 ], [ 9.992663841503811, 7.286248202187942, 0.0 ], [ 9.993750758379157, 7.28622355825531, 0.0 ], [ 9.99456071074489, 7.286238206838497, 0.0 ], [ 9.99564658199764, 7.285499714541825, 0.0 ], [ 9.996913090519396, 7.285086212277686, 0.0 ], [ 9.99763519067414, 7.285455587894281, 0.0 ], [ 9.99864007161778, 7.286495256503895, 0.0 ], [ 9.999235212612351, 7.286615746850938, 0.0 ], [ 10.00024305806093, 7.285504595622665, 0.0 ], [ 10.000268099679152, 7.285401018453786, 0.0 ], [ 10.000391626182861, 7.28534079902925, 0.0 ], [ 10.001857223119378, 7.283724976049186, 0.0 ], [ 10.001644890568295, 7.283505516335097, 0.0 ], [ 10.00134842272913, 7.280015380267362, 0.0 ], [ 10.003249893724984, 7.279701679851463, 0.0 ], [ 10.00364771055089, 7.278878843761719, 0.0 ], [ 10.004539726537855, 7.277139685865039, 0.0 ], [ 10.006200716314513, 7.276330473600741, 0.0 ], [ 10.007313976379059, 7.276707974029105, 0.0 ], [ 10.007881194617024, 7.276761800532999, 0.0 ], [ 10.008333333333338, 7.275, 0.0 ], [ 10.007766045464415, 7.272789510091172, 0.0 ], [ 10.007011770305091, 7.271816281522563, 0.0 ], [ 10.004856898259382, 7.271558065413846, 0.0 ], [ 10.004126847309831, 7.271184477361985, 0.0 ], [ 10.003770446391643, 7.269384491054339, 0.0 ], [ 10.003476330893081, 7.26910320849105, 0.0 ], [ 10.003496210976371, 7.268017293591523, 0.0 ], [ 10.003910921864898, 7.267815308864745, 0.0 ], [ 10.00359937879775, 7.267413330078154, 0.0 ], [ 10.004733954535597, 7.260289510091169, 0.0 ], [ 10.007864549424919, 7.25625, 0.0 ], [ 10.004784639287523, 7.25227600138891, 0.0 ], [ 10.004474201103536, 7.252170633609423, 0.0 ], [ 10.004083809019125, 7.251371722241467, 0.0 ], [ 10.003599378797748, 7.250746663411483, 0.0 ], [ 10.003643376788284, 7.250470407050703, 0.0 ], [ 10.003642530634098, 7.250468675452585, 0.0 ], [ 10.003643856146766, 7.250467397235292, 0.0 ], [ 10.004069268285933, 7.247796302306499, 0.0 ], [ 10.003717031176304, 7.247683083626681, 0.0 ], [ 10.002893519510341, 7.246304905243942, 0.0 ], [ 10.002905333259736, 7.245647207990968, 0.0 ], [ 10.002896467170006, 7.245237574185827, 0.0 ], [ 10.004239152535726, 7.243568443299413, 0.0 ], [ 10.003333465280795, 7.242703439306856, 0.0 ], [ 10.004253759143001, 7.242255189949034, 0.0 ], [ 10.004528368522339, 7.241404540559955, 0.0 ], [ 10.005598613420757, 7.240373010236876, 0.0 ], [ 10.00596945782635, 7.239605351001994, 0.0 ], [ 10.006689666145236, 7.240350461039655, 0.0 ], [ 10.007159916479456, 7.240615455992964, 0.0 ], [ 10.007776581057261, 7.238703616278984, 0.0 ], [ 10.008726553735317, 7.238720590166982, 0.0 ], [ 10.009109743157721, 7.238711984276565, 0.0 ], [ 10.009384837606424, 7.238403251335688, 0.0 ], [ 10.009667826014425, 7.235540915777174, 0.0 ], [ 10.008576487147984, 7.23518985616489, 0.0 ], [ 10.009940439538575, 7.233559883593317, 0.0 ], [ 10.010205623244962, 7.233011325447638, 0.0 ], [ 10.010753754127096, 7.232744074912326, 0.0 ], [ 10.011290040198171, 7.231923579913008, 0.0 ], [ 10.012167855465339, 7.230763158393551, 0.0 ], [ 10.012375820619743, 7.230562626980245, 0.0 ], [ 10.01296488617346, 7.22394065694512, 0.0 ], [ 10.012814777694061, 7.223863878775984, 0.0 ], [ 10.012986431031685, 7.223698460801286, 0.0 ], [ 10.013067287868928, 7.222789510091171, 0.0 ], [ 10.015616528616249, 7.219500185584057, 0.0 ], [ 10.015608881361539, 7.21916124293115, 0.0 ], [ 10.015970874384212, 7.219042967794885, 0.0 ], [ 10.016099378797747, 7.218877156575543, 0.0 ], [ 10.017517598470057, 7.213350931803411, 0.0 ], [ 10.022836365827489, 7.211985975847714, 0.0 ], [ 10.022367832821722, 7.211538197357664, 0.0 ], [ 10.02238953368645, 7.210330392603452, 0.0 ], [ 10.022368299031889, 7.209380239837439, 0.0 ], [ 10.023742611575708, 7.209109009794163, 0.0 ], [ 10.02400776740102, 7.208560447364636, 0.0 ], [ 10.024665605603996, 7.207926117099364, 0.0 ], [ 10.024757742527873, 7.206890261826465, 0.0 ], [ 10.023731213983273, 7.206395692604079, 0.0 ], [ 10.023452836849152, 7.205545215937862, 0.0 ], [ 10.023489635236686, 7.203497937787981, 0.0 ], [ 10.022899972751114, 7.201789637372296, 0.0 ], [ 10.022909882728278, 7.201239527210407, 0.0 ], [ 10.022888651277245, 7.200289904194806, 0.0 ], [ 10.022894367587552, 7.199971227155599, 0.0 ], [ 10.021400621202261, 7.198043823242213, 0.0 ], [ 10.020266045464416, 7.189456176757837, 0.0 ], [ 10.016402011447488, 7.184470452202715, 0.0 ], [ 10.020833333333339, 7.183333333333358, 0.0 ], [ 10.021400621202263, 7.181122843424505, 0.0 ], [ 10.025567287868927, 7.175746663411481, 0.0 ], [ 10.024372185601134, 7.155074734158011, 0.0 ], [ 10.020833333333337, 7.154166666666693, 0.0 ], [ 10.018408881293407, 7.15451999240454, 0.0 ], [ 10.010757785373269, 7.162146674262176, 0.0 ], [ 10.001742214626743, 7.162853325737873, 0.0 ], [ 9.997916666666674, 7.166652086046032, 0.0 ], [ 9.994091118706603, 7.162853325737873, 0.0 ], [ 9.989242214626744, 7.162146674262178, 0.0 ], [ 9.98575778537327, 7.158686659071206, 0.0 ], [ 9.979166666666673, 7.158333333333357, 0.0 ], [ 9.975661214192733, 7.159232923719643, 0.0 ], [ 9.974432712131101, 7.17304382324221, 0.0 ], [ 9.957352362738732, 7.191012573242211, 0.0 ], [ 9.943622843424498, 7.192233954535618, 0.0 ], [ 9.935543823242208, 7.199432712131102, 0.0 ], [ 9.931122843424498, 7.20056728786895, 0.0 ], [ 9.927210489908875, 7.203599378797768, 0.0 ], [ 9.922789510091167, 7.204733954535615, 0.0 ], [ 9.917634412977451, 7.208729214138482, 0.0 ], [ 9.915754869249154, 7.216052415635874, 0.0 ], [ 9.889456176757836, 7.217233954535616, 0.0 ], [ 9.881377156575544, 7.224432712131104, 0.0 ], [ 9.875, 7.225, 0.0 ], [ 9.875353325737871, 7.235757785373287, 0.0 ], [ 9.881234063042559, 7.241668023003496, 0.0 ], [ 9.885417005750893, 7.237514241536484, 0.0 ], [ 9.891310967339434, 7.243378872341607, 0.0 ], [ 9.892019992404537, 7.252424452039954, 0.0 ], [ 9.895480007595506, 7.255908881293426, 0.0 ], [ 9.895833333333357, 7.258333333333355, 0.0 ], [ 9.896400621202281, 7.264710489908878, 0.0 ], [ 9.907766045464433, 7.276956176757838, 0.0 ] ] ] } },
{ "type": "Feature", "properties": { "Stra_Catch": "Gali-Lamurde", "State": "Taraba", "LGA": "Jalingo", "Population": 0, "Cleard_TOR": "No", "Status": "Not yet awarded", "Start_Date": "2025-01-20T00:00:00", "End_Date": "2025-03-29T00:00:00", "Micr_Catch": "Mayo-Gwoi", "Size_Ha": 21303.355957, "Comments": null, "OBJECTID_1": 0, "Shape_Leng": 0.0, "Shape_Area": 0.0, "parent_strategic_name": "Shemankar-Katsina-Ala", "clipped_to_state": true }, "geometry": { "type": "Polygon", "coordinates": [ [ [ 9.679519992404543, 7.82742445203996, 0.0 ], [ 9.68504672580298, 7.832979159885011, 0.0 ], [ 9.706591118706624, 7.833686659071207, 0.0 ], [ 9.710075547960098, 7.837146674262182, 0.0 ], [ 9.714924452039956, 7.837853325737878, 0.0 ], [ 9.720475260416697, 7.843376498752198, 0.0 ], [ 9.721186659071208, 7.848257785373293, 0.0 ], [ 9.72464667426218, 7.851742214626764, 0.0 ], [ 9.725, 7.875, 0.0 ], [ 9.727424452039958, 7.875353325737878, 0.0 ], [ 9.731620279947943, 7.879519992404544, 0.0 ], [ 9.748257785373294, 7.878813340928851, 0.0 ], [ 9.752453613281279, 7.874646674262184, 0.0 ], [ 9.76075778537329, 7.87535332573788, 0.0 ], [ 9.764583333333359, 7.879152086046036, 0.0 ], [ 9.769120279947943, 7.874646674262184, 0.0 ], [ 9.777424452039957, 7.875353325737876, 0.0 ], [ 9.789242214626762, 7.887146674262185, 0.0 ], [ 9.791431921313004, 7.887465789558274, 0.0 ], [ 9.791620771241609, 7.886294417133731, 0.0 ], [ 9.792805021731438, 7.886316025172388, 0.0 ], [ 9.793466807991541, 7.884949577815041, 0.0 ], [ 9.794026500281056, 7.884677174274414, 0.0 ], [ 9.794290719957759, 7.883314658736636, 0.0 ], [ 9.794567658314422, 7.883048090938156, 0.0 ], [ 9.794833946659008, 7.882770942732283, 0.0 ], [ 9.795630550912987, 7.882785629476676, 0.0 ], [ 9.796537611219645, 7.875919426812096, 0.0 ], [ 9.80041357303959, 7.87268707354592, 0.0 ], [ 9.800528885197137, 7.872449082792593, 0.0 ], [ 9.800805812627843, 7.872182511857376, 0.0 ], [ 9.801077383225472, 7.871063765213999, 0.0 ], [ 9.803509042664864, 7.871108402020012, 0.0 ], [ 9.804607074272973, 7.870541883877552, 0.0 ], [ 9.807342602903383, 7.870240378800182, 0.0 ], [ 9.808014747968024, 7.869593587333742, 0.0 ], [ 9.808490240015699, 7.868123608830259, 0.0 ], [ 9.810334442434511, 7.867820621868063, 0.0 ], [ 9.810859551229287, 7.867273743611938, 0.0 ], [ 9.811680179347409, 7.866734773867496, 0.0 ], [ 9.811662141171825, 7.865931382340836, 0.0 ], [ 9.812495770252603, 7.864700780827477, 0.0 ], [ 9.812468445692998, 7.863495694653492, 0.0 ], [ 9.813193426253598, 7.862425352621172, 0.0 ], [ 9.812755970107961, 7.860215185618498, 0.0 ], [ 9.812404813709067, 7.859198862281187, 0.0 ], [ 9.81275334105263, 7.858863780967377, 0.0 ], [ 9.813281100779976, 7.857774211822353, 0.0 ], [ 9.814835978674191, 7.857392805540018, 0.0 ], [ 9.815198131386582, 7.856688310280257, 0.0 ], [ 9.815552258257886, 7.85595680201786, 0.0 ], [ 9.816551006782591, 7.855471535517284, 0.0 ], [ 9.816262463284028, 7.853861533844794, 0.0 ], [ 9.814984257063221, 7.853029848601834, 0.0 ], [ 9.816000669540157, 7.852339983304368, 0.0 ], [ 9.816549683339215, 7.852072876029765, 0.0 ], [ 9.81681434813383, 7.850981694554365, 0.0 ], [ 9.817335796114955, 7.850479865120348, 0.0 ], [ 9.817705353911274, 7.849761575378072, 0.0 ], [ 9.817087062902788, 7.848570886934512, 0.0 ], [ 9.81746387061952, 7.847755599487757, 0.0 ], [ 9.81930307528903, 7.847393766276992, 0.0 ], [ 9.820067998100694, 7.846658276233932, 0.0 ], [ 9.8192585434116, 7.845821448468723, 0.0 ], [ 9.818229927888437, 7.845151985207752, 0.0 ], [ 9.817895366779785, 7.844467390567422, 0.0 ], [ 9.817078283238775, 7.844074154082938, 0.0 ], [ 9.817420975475146, 7.842119508795362, 0.0 ], [ 9.818621979557314, 7.841535274896041, 0.0 ], [ 9.819520566913921, 7.840670745245661, 0.0 ], [ 9.820061560051565, 7.839844537367603, 0.0 ], [ 9.820868860838841, 7.839859393609646, 0.0 ], [ 9.821382321828656, 7.8395946854059, 0.0 ], [ 9.821400621202281, 7.839456176757839, 0.0 ], [ 9.822494082158421, 7.838045267284351, 0.0 ], [ 9.822480215004511, 7.837423185013055, 0.0 ], [ 9.823306870312065, 7.836996514240656, 0.0 ], [ 9.824422766958616, 7.835556655651089, 0.0 ], [ 9.824218954311659, 7.835184399614675, 0.0 ], [ 9.824648263954487, 7.834703905527547, 0.0 ], [ 9.82556728786895, 7.83112284342451, 0.0 ], [ 9.826196551645317, 7.830310894704791, 0.0 ], [ 9.824684324197788, 7.829962813624626, 0.0 ], [ 9.824596496042506, 7.828539502038241, 0.0 ], [ 9.824927912899819, 7.828168409404672, 0.0 ], [ 9.825486475269281, 7.827910813857367, 0.0 ], [ 9.825742055996832, 7.82708145022529, 0.0 ], [ 9.827370467847873, 7.824977483483941, 0.0 ], [ 9.827110980598672, 7.82382267077725, 0.0 ], [ 9.826818698224956, 7.823015048257973, 0.0 ], [ 9.827108336448378, 7.822480807195205, 0.0 ], [ 9.827363911686035, 7.821651443049739, 0.0 ], [ 9.828202519663529, 7.82139117585131, 0.0 ], [ 9.827102710310536, 7.81962484277159, 0.0 ], [ 9.827358565257184, 7.818938038282137, 0.0 ], [ 9.827987078149265, 7.817778835729435, 0.0 ], [ 9.827486946174723, 7.816396609815054, 0.0 ], [ 9.828796762027787, 7.811479686360311, 0.0 ], [ 9.828203697104893, 7.810396542528856, 0.0 ], [ 9.828715181427718, 7.809453264055954, 0.0 ], [ 9.828971283056086, 7.808895240108945, 0.0 ], [ 9.82951347344353, 7.807895194914995, 0.0 ], [ 9.829255568410233, 7.80753797489552, 0.0 ], [ 9.828535313236062, 7.806898130450584, 0.0 ], [ 9.828979774926491, 7.805653963262451, 0.0 ], [ 9.82923480484369, 7.804553258244324, 0.0 ], [ 9.830043766488494, 7.803828800715429, 0.0 ], [ 9.830087964017464, 7.803066625921389, 0.0 ], [ 9.830018241762085, 7.801933699991178, 0.0 ], [ 9.830661936612568, 7.801211686019009, 0.0 ], [ 9.831950194354626, 7.800748086751441, 0.0 ], [ 9.832474213576548, 7.80077832397411, 0.0 ], [ 9.832522509887193, 7.799941416527278, 0.0 ], [ 9.832424798090175, 7.798361786399148, 0.0 ], [ 9.832773837698856, 7.798048951503615, 0.0 ], [ 9.833029928343485, 7.797490926099561, 0.0 ], [ 9.833316373242925, 7.79723385979727, 0.0 ], [ 9.833596212144226, 7.796324421101499, 0.0 ], [ 9.834401438311572, 7.795603674871768, 0.0 ], [ 9.834831972773776, 7.795121619751184, 0.0 ], [ 9.835616521757371, 7.794694511804151, 0.0 ], [ 9.83676289565968, 7.795312835886233, 0.0 ], [ 9.837120534440684, 7.794784285526603, 0.0 ], [ 9.838347497526026, 7.792105015270703, 0.0 ], [ 9.839019086099846, 7.791795777088544, 0.0 ], [ 9.839274084586549, 7.790695068973326, 0.0 ], [ 9.839731184356754, 7.789415892835722, 0.0 ], [ 9.838756276451182, 7.788972123661742, 0.0 ], [ 9.838466284460761, 7.787440573920112, 0.0 ], [ 9.837921189078964, 7.78695673499212, 0.0 ], [ 9.83856145698855, 7.786132436096445, 0.0 ], [ 9.839795620762814, 7.78575001017488, 0.0 ], [ 9.83987729854586, 7.784338027045133, 0.0 ], [ 9.839409776390712, 7.783047431925912, 0.0 ], [ 9.839816379428777, 7.782297258797221, 0.0 ], [ 9.84006921241817, 7.780111190140948, 0.0 ], [ 9.840550839460441, 7.779679906513751, 0.0 ], [ 9.840975967316078, 7.778895778378509, 0.0 ], [ 9.840609581889707, 7.778225570694912, 0.0 ], [ 9.840350211314167, 7.777125880796441, 0.0 ], [ 9.840010493085986, 7.776504375889185, 0.0 ], [ 9.840373890105644, 7.775140061282107, 0.0 ], [ 9.840290430826453, 7.773786700405187, 0.0 ], [ 9.84059875134583, 7.772783929397182, 0.0 ], [ 9.840885175915341, 7.772526859959639, 0.0 ], [ 9.841140703279219, 7.771697491641344, 0.0 ], [ 9.841427126814169, 7.771440421939423, 0.0 ], [ 9.84187788591186, 7.770456977156878, 0.0 ], [ 9.842727754329752, 7.769504008241606, 0.0 ], [ 9.843477054575095, 7.769547038596239, 0.0 ], [ 9.844720380742016, 7.769255738820135, 0.0 ], [ 9.844657784638764, 7.768244163775229, 0.0 ], [ 9.8455753641125, 7.766038621484874, 0.0 ], [ 9.845481661847097, 7.764297036342766, 0.0 ], [ 9.844932698781617, 7.763293233565315, 0.0 ], [ 9.844674414080506, 7.762736225789794, 0.0 ], [ 9.844386974158548, 7.762480294247098, 0.0 ], [ 9.844121711911132, 7.761355179338175, 0.0 ], [ 9.842762500952125, 7.758941241656126, 0.0 ], [ 9.841362061142815, 7.757697538927363, 0.0 ], [ 9.841414449752111, 7.756787487527003, 0.0 ], [ 9.84110945316116, 7.756516749018083, 0.0 ], [ 9.841157991283989, 7.755679123896955, 0.0 ], [ 9.841035926689946, 7.75554213326965, 0.0 ], [ 9.838609969365189, 7.754880913215778, 0.0 ], [ 9.838711178896309, 7.753131302198911, 0.0 ], [ 9.837019647249118, 7.751912003009968, 0.0 ], [ 9.837062799143926, 7.751163079215777, 0.0 ], [ 9.836716603480983, 7.750205583881246, 0.0 ], [ 9.836801879203533, 7.748724165198456, 0.0 ], [ 9.83621879109959, 7.748075573967843, 0.0 ], [ 9.835469144359402, 7.748915978572945, 0.0 ], [ 9.835093496354562, 7.748648553337389, 0.0 ], [ 9.835138699054939, 7.747859347291604, 0.0 ], [ 9.834608115526351, 7.746890021114566, 0.0 ], [ 9.835157805602305, 7.74587713541545, 0.0 ], [ 9.830929268248211, 7.741321093945023, 0.0 ], [ 9.830757260793398, 7.741311181740874, 0.0 ], [ 9.830379785937, 7.741734299272141, 0.0 ], [ 9.828843339538338, 7.741264029504463, 0.0 ], [ 9.828021017994899, 7.740533744076866, 0.0 ], [ 9.827762771516577, 7.739976721604088, 0.0 ], [ 9.827203321505113, 7.739721303342503, 0.0 ], [ 9.826945605427664, 7.739435621726365, 0.0 ], [ 9.826658192251022, 7.73917967511434, 0.0 ], [ 9.826398891772387, 7.738079968328923, 0.0 ], [ 9.825673448866134, 7.737435874174604, 0.0 ], [ 9.82474139287501, 7.735732775392157, 0.0 ], [ 9.82477789875103, 7.735105754734144, 0.0 ], [ 9.824695617646711, 7.733775698315693, 0.0 ], [ 9.825277781351781, 7.733352537511858, 0.0 ], [ 9.824432712131102, 7.726956176757843, 0.0 ], [ 9.820388137615563, 7.722417032508796, 0.0 ], [ 9.819894047043542, 7.722447362021898, 0.0 ], [ 9.819337643887346, 7.721827837015238, 0.0 ], [ 9.817920099121922, 7.722087056225328, 0.0 ], [ 9.816930257012526, 7.722625806625774, 0.0 ], [ 9.816315081037834, 7.722663549113513, 0.0 ], [ 9.816014363175235, 7.721832073832529, 0.0 ], [ 9.816040585295282, 7.721376781736821, 0.0 ], [ 9.815755650423474, 7.720463131218434, 0.0 ], [ 9.815059524206131, 7.719844396274453, 0.0 ], [ 9.815936412490537, 7.71858669989927, 0.0 ], [ 9.815175053353526, 7.717194866695835, 0.0 ], [ 9.815219264911796, 7.716422088977094, 0.0 ], [ 9.814763411386004, 7.715588257380693, 0.0 ], [ 9.815378602762076, 7.714454014000291, 0.0 ], [ 9.814927106876592, 7.713952464189649, 0.0 ], [ 9.813416687946757, 7.712863073619407, 0.0 ], [ 9.813696044820954, 7.711355117998674, 0.0 ], [ 9.81306728786895, 7.71054382324222, 0.0 ], [ 9.812232156104706, 7.704222679470179, 0.0 ], [ 9.811965050085707, 7.704140957076781, 0.0 ], [ 9.811501062074568, 7.702650504111143, 0.0 ], [ 9.810518665695113, 7.701778444587549, 0.0 ], [ 9.81056289826121, 7.701012025466676, 0.0 ], [ 9.81027696075185, 7.700394092353251, 0.0 ], [ 9.808091000373127, 7.699398167075697, 0.0 ], [ 9.807822172414928, 7.696871249666814, 0.0 ], [ 9.806824115585989, 7.696416295032273, 0.0 ], [ 9.806459045934357, 7.695245748745505, 0.0 ], [ 9.805641645439202, 7.694519636603776, 0.0 ], [ 9.806168573570586, 7.693346883432838, 0.0 ], [ 9.806468763462425, 7.693078154911838, 0.0 ], [ 9.804893404457129, 7.692715433994358, 0.0 ], [ 9.80524701797937, 7.69194390785896, 0.0 ], [ 9.804166666666697, 7.691666666666696, 0.0 ], [ 9.797789510091173, 7.692233954535618, 0.0 ], [ 9.777210489908882, 7.711932712131107, 0.0 ], [ 9.771684095594646, 7.713350931803417, 0.0 ], [ 9.770266045464435, 7.718877156575552, 0.0 ], [ 9.750567287868954, 7.739456176757841, 0.0 ], [ 9.75, 7.741666666666695, 0.0 ], [ 9.750567287868954, 7.743877156575548, 0.0 ], [ 9.75359937879777, 7.747789510091177, 0.0 ], [ 9.754733954535617, 7.750937228732666, 0.0 ], [ 9.746400621202286, 7.760289510091175, 0.0 ], [ 9.745266045464438, 7.76471048990888, 0.0 ], [ 9.732687717013917, 7.778263176812093, 0.0 ], [ 9.726956176757842, 7.779733954535622, 0.0 ], [ 9.723043823242218, 7.782766045464443, 0.0 ], [ 9.714456176757842, 7.783900621202289, 0.0 ], [ 9.705086263020863, 7.792249552408885, 0.0 ], [ 9.703315904405409, 7.799149068196643, 0.0 ], [ 9.697789510091175, 7.800567287868957, 0.0 ], [ 9.69263441297746, 7.804562547471817, 0.0 ], [ 9.691099378797773, 7.810543823242218, 0.0 ], [ 9.688067287868952, 7.814456176757842, 0.0 ], [ 9.686932712131105, 7.818877156575549, 0.0 ], [ 9.683900621202284, 7.822789510091176, 0.0 ], [ 9.683333333333362, 7.825, 0.0 ], [ 9.679166666666697, 7.825, 0.0 ], [ 9.679519992404543, 7.82742445203996, 0.0 ] ] ] } },
{ "type": "Feature", "properties": { "Stra_Catch": "Shemankar-Katsina_Ala", "State": "Taraba", "LGA": "Takum", "Population": 0, "Cleard_TOR": "Yes", "Status": "Completed", "Start_Date": "2025-01-20T00:00:00", "End_Date": "2025-03-29T00:00:00", "Micr_Catch": "Ndibam/Fadama", "Size_Ha": 14720.500040299999, "Comments": null, "OBJECTID_1": 0, "Shape_Leng": 0.0, "Shape_Area": 0.0, "parent_strategic_name": "Wase-Taraba", "clipped_to_state": true }, "geometry": { "type": "MultiPolygon", "coordinates": [ [ [ [ 9.918538050278176, 7.28717110762739, 0.0 ], [ 9.918159413702776, 7.287419979297709, 0.0 ], [ 9.919696236598318, 7.28733759584997, 0.0 ], [ 9.918538050278176, 7.28717110762739, 0.0 ] ] ], [ [ [ 9.926742214626756, 7.283686659071206, 0.0 ], [ 9.931591118706617, 7.282980007595512, 0.0 ], [ 9.932673933480931, 7.281904773676141, 0.0 ], [ 9.932325012486389, 7.282018697991901, 0.0 ], [ 9.9315657846925, 7.282410843343174, 0.0 ], [ 9.930981079262937, 7.28121327208947, 0.0 ], [ 9.929966774989056, 7.281194687908236, 0.0 ], [ 9.928791224285085, 7.281483280847012, 0.0 ], [ 9.928409645159258, 7.282272648099647, 0.0 ], [ 9.925378448993889, 7.283017093899297, 0.0 ], [ 9.924714194450409, 7.283657057506543, 0.0 ], [ 9.924182452193012, 7.284211425599488, 0.0 ], [ 9.923625714680151, 7.284482843467444, 0.0 ], [ 9.922842506640377, 7.286909554118944, 0.0 ], [ 9.922428222058691, 7.287191144113697, 0.0 ], [ 9.923257785373284, 7.287146674262179, 0.0 ], [ 9.926742214626756, 7.283686659071206, 0.0 ] ] ], [ [ [ 9.933951544918621, 7.280115961421553, 0.0 ], [ 9.933685681673774, 7.280393150467722, 0.0 ], [ 9.93340918190612, 7.280659760953735, 0.0 ], [ 9.933245068130416, 7.281337637576577, 0.0 ], [ 9.934731924293221, 7.279861190988114, 0.0 ], [ 9.933951544918621, 7.280115961421553, 0.0 ] ] ], [ [ [ 9.941322485916471, 7.283376385286259, 0.0 ], [ 9.940756630172459, 7.283086613068147, 0.0 ], [ 9.940207281065382, 7.282821714771322, 0.0 ], [ 9.93976393848645, 7.281468055310896, 0.0 ], [ 9.939391868942227, 7.281461407307788, 0.0 ], [ 9.938577734923298, 7.281479524746134, 0.0 ], [ 9.938130661020109, 7.280114741995403, 0.0 ], [ 9.937350961451354, 7.280100457197232, 0.0 ], [ 9.936669511086738, 7.280115647012829, 0.0 ], [ 9.936275376110368, 7.280035891666611, 0.0 ], [ 9.941292250802531, 7.285036928536258, 0.0 ], [ 9.941322485916471, 7.283376385286259, 0.0 ] ] ], [ [ [ 9.948257785373285, 7.287146674262178, 0.0 ], [ 9.95245361328127, 7.282980007595512, 0.0 ], [ 9.964924452039956, 7.283686659071206, 0.0 ], [ 9.968408881293428, 7.287146674262176, 0.0 ], [ 9.968438492137867, 7.287148995196425, 0.0 ], [ 9.968477232112143, 7.286826873795271, 0.0 ], [ 9.969025425956278, 7.286298923800667, 0.0 ], [ 9.969012555751879, 7.285743026423773, 0.0 ], [ 9.969030152792524, 7.284793306545359, 0.0 ], [ 9.969011951338969, 7.28397933218494, 0.0 ], [ 9.969029024598196, 7.28303226343083, 0.0 ], [ 9.968269269431655, 7.282666099148639, 0.0 ], [ 9.967810589076596, 7.279889576677744, 0.0 ], [ 9.966559944005191, 7.279046965981687, 0.0 ], [ 9.96446557759266, 7.27976793433836, 0.0 ], [ 9.963299613089394, 7.280054473191041, 0.0 ], [ 9.963033770133315, 7.280331677140582, 0.0 ], [ 9.961412939067428, 7.280860839983514, 0.0 ], [ 9.959508844775087, 7.282463762731853, 0.0 ], [ 9.957073473002888, 7.282823990865738, 0.0 ], [ 9.956261620607998, 7.281162167593688, 0.0 ], [ 9.954063875024284, 7.281702062308861, 0.0 ], [ 9.953542767107354, 7.282245838311531, 0.0 ], [ 9.953249233468821, 7.28198041770656, 0.0 ], [ 9.952928184389865, 7.281000668788328, 0.0 ], [ 9.951081174518993, 7.282256317394868, 0.0 ], [ 9.950252993732107, 7.282659765507818, 0.0 ], [ 9.950274678504266, 7.283631666192515, 0.0 ], [ 9.948671216216662, 7.283602172882903, 0.0 ], [ 9.948090108133169, 7.283885328564596, 0.0 ], [ 9.94782181117912, 7.285273855889925, 0.0 ], [ 9.947280004833841, 7.286329080062205, 0.0 ], [ 9.946887357674253, 7.287140741248291, 0.0 ], [ 9.946466488362065, 7.287150101408775, 0.0 ], [ 9.945651729098888, 7.286873576576459, 0.0 ], [ 9.945135371917257, 7.287412564739153, 0.0 ], [ 9.944287793510577, 7.287431823690086, 0.0 ], [ 9.943753757585659, 7.286879129399213, 0.0 ], [ 9.943476148003887, 7.286613668934797, 0.0 ], [ 9.942663938608725, 7.285524702815989, 0.0 ], [ 9.941569935695711, 7.285313736803187, 0.0 ], [ 9.944117567274326, 7.287853325737873, 0.0 ], [ 9.948257785373285, 7.287146674262178, 0.0 ] ] ], [ [ [ 9.988387383355041, 7.288208516438827, 0.0 ], [ 9.999070739746101, 7.286797078450549, 0.0 ], [ 9.999235212612351, 7.286615746850938, 0.0 ], [ 9.99864007161778, 7.286495256503895, 0.0 ], [ 9.99763519067414, 7.285455587894281, 0.0 ], [ 9.996913090519396, 7.285086212277686, 0.0 ], [ 9.99564658199764, 7.285499714541825, 0.0 ], [ 9.99456071074489, 7.286238206838497, 0.0 ], [ 9.993750758379157, 7.28622355825531, 0.0 ], [ 9.992663841503811, 7.286248202187942, 0.0 ], [ 9.991046587993504, 7.286218890948818, 0.0 ], [ 9.990764874962906, 7.286512572626177, 0.0 ], [ 9.987227504311871, 7.286786342259281, 0.0 ], [ 9.986963456005537, 7.287877563863801, 0.0 ], [ 9.98589263437011, 7.288227019008899, 0.0 ], [ 9.985831021016734, 7.291577198815032, 0.0 ], [ 9.9875, 7.291666666666694, 0.0 ], [ 9.988387383355041, 7.288208516438827, 0.0 ] ] ], [ [ [ 10.000268099679152, 7.285401018453786, 0.0 ], [ 10.00024305806093, 7.285504595622665, 0.0 ], [ 10.000391626182861, 7.28534079902925, 0.0 ], [ 10.000268099679152, 7.285401018453786, 0.0 ] ] ], [ [ [ 10.007881194617024, 7.276761800532999, 0.0 ], [ 10.007313976379059, 7.276707974029105, 0.0 ], [ 10.006200716314513, 7.276330473600741, 0.0 ], [ 10.004539726537855, 7.277139685865039, 0.0 ], [ 10.00364771055089, 7.278878843761719, 0.0 ], [ 10.003249893724984, 7.279701679851463, 0.0 ], [ 10.00134842272913, 7.280015380267362, 0.0 ], [ 10.001644890568295, 7.283505516335097, 0.0 ], [ 10.001857223119378, 7.283724976049186, 0.0 ], [ 10.007766045464416, 7.277210489908878, 0.0 ], [ 10.007881194617024, 7.276761800532999, 0.0 ] ] ], [ [ [ 10.003496210976371, 7.268017293591523, 0.0 ], [ 10.003476330893081, 7.26910320849105, 0.0 ], [ 10.003770446391643, 7.269384491054339, 0.0 ], [ 10.004126847309831, 7.271184477361985, 0.0 ], [ 10.004856898259382, 7.271558065413846, 0.0 ], [ 10.007011770305091, 7.271816281522563, 0.0 ], [ 10.003910921864898, 7.267815308864745, 0.0 ], [ 10.003496210976371, 7.268017293591523, 0.0 ] ] ], [ [ [ 10.004474201103536, 7.252170633609423, 0.0 ], [ 10.004784639287523, 7.25227600138891, 0.0 ], [ 10.004083809019125, 7.251371722241467, 0.0 ], [ 10.004474201103536, 7.252170633609423, 0.0 ] ] ], [ [ [ 10.003642530634098, 7.250468675452585, 0.0 ], [ 10.003643376788284, 7.250470407050703, 0.0 ], [ 10.003643856146766, 7.250467397235292, 0.0 ], [ 10.003642530634098, 7.250468675452585, 0.0 ] ] ], [ [ [ 10.009109743157721, 7.238711984276565, 0.0 ], [ 10.008726553735317, 7.238720590166982, 0.0 ], [ 10.007776581057261, 7.238703616278984, 0.0 ], [ 10.007159916479456, 7.240615455992964, 0.0 ], [ 10.006689666145236, 7.240350461039655, 0.0 ], [ 10.00596945782635, 7.239605351001994, 0.0 ], [ 10.005598613420757, 7.240373010236876, 0.0 ], [ 10.004528368522339, 7.241404540559955, 0.0 ], [ 10.004253759143001, 7.242255189949034, 0.0 ], [ 10.003333465280795, 7.242703439306856, 0.0 ], [ 10.004239152535726, 7.243568443299413, 0.0 ], [ 10.002896467170006, 7.245237574185827, 0.0 ], [ 10.002905333259736, 7.245647207990968, 0.0 ], [ 10.002893519510341, 7.246304905243942, 0.0 ], [ 10.003717031176304, 7.247683083626681, 0.0 ], [ 10.004069268285933, 7.247796302306499, 0.0 ], [ 10.004733954535595, 7.243622843424504, 0.0 ], [ 10.009109743157721, 7.238711984276565, 0.0 ] ] ], [ [ [ 10.012375820619743, 7.230562626980245, 0.0 ], [ 10.012167855465339, 7.230763158393551, 0.0 ], [ 10.011290040198171, 7.231923579913008, 0.0 ], [ 10.010753754127096, 7.232744074912326, 0.0 ], [ 10.010205623244962, 7.233011325447638, 0.0 ], [ 10.009940439538575, 7.233559883593317, 0.0 ], [ 10.008576487147984, 7.23518985616489, 0.0 ], [ 10.009667826014425, 7.235540915777174, 0.0 ], [ 10.009384837606424, 7.238403251335688, 0.0 ], [ 10.011932712131081, 7.235543823242212, 0.0 ], [ 10.012375820619743, 7.230562626980245, 0.0 ] ] ], [ [ [ 10.012814777694061, 7.223863878775984, 0.0 ], [ 10.01296488617346, 7.22394065694512, 0.0 ], [ 10.012986431031685, 7.223698460801286, 0.0 ], [ 10.012814777694061, 7.223863878775984, 0.0 ] ] ], [ [ [ 10.015608881361539, 7.21916124293115, 0.0 ], [ 10.015616528616249, 7.219500185584057, 0.0 ], [ 10.015970874384212, 7.219042967794885, 0.0 ], [ 10.015608881361539, 7.21916124293115, 0.0 ] ] ], [ [ [ 10.024665605603996, 7.207926117099364, 0.0 ], [ 10.02400776740102, 7.208560447364636, 0.0 ], [ 10.023742611575708, 7.209109009794163, 0.0 ], [ 10.022368299031889, 7.209380239837439, 0.0 ], [ 10.02238953368645, 7.210330392603452, 0.0 ], [ 10.022367832821722, 7.211538197357664, 0.0 ], [ 10.022836365827489, 7.211985975847714, 0.0 ], [ 10.024338785807295, 7.211600409613738, 0.0 ], [ 10.024665605603996, 7.207926117099364, 0.0 ] ] ], [ [ [ 10.02443271213108, 7.201956176757838, 0.0 ], [ 10.022894367587552, 7.199971227155599, 0.0 ], [ 10.022888651277245, 7.200289904194806, 0.0 ], [ 10.022909882728278, 7.201239527210407, 0.0 ], [ 10.022899972751114, 7.201789637372296, 0.0 ], [ 10.023489635236686, 7.203497937787981, 0.0 ], [ 10.023452836849152, 7.205545215937862, 0.0 ], [ 10.023731213983273, 7.206395692604079, 0.0 ], [ 10.024757742527873, 7.206890261826465, 0.0 ], [ 10.025, 7.204166666666691, 0.0 ], [ 10.02443271213108, 7.201956176757838, 0.0 ] ] ] ] } },
{ "type": "Feature", "properties": { "Stra_Catch": "Gali-Lamurde", "State": "Taraba", "LGA": "Jalingo", "Population": 0, "Cleard_TOR": "No", "Status": "Not yet awarded", "Start_Date": "2025-01-20T00:00:00", "End_Date": "2025-03-29T00:00:00", "Micr_Catch": "Mayo-Gwoi", "Size_Ha": 21303.355957, "Comments": null, "OBJECTID_1": 0, "Shape_Leng": 0.0, "Shape_Area": 0.0, "parent_strategic_name": "Wase-Taraba", "clipped_to_state": true }, "geometry": { "type": "MultiPolygon", "coordinates": [ [ [ [ 9.79512498643666, 7.886612616644997, 0.0 ], [ 9.795630550912987, 7.882785629476676, 0.0 ], [ 9.794833946659008, 7.882770942732283, 0.0 ], [ 9.794567658314422, 7.883048090938156, 0.0 ], [ 9.794290719957759, 7.883314658736636, 0.0 ], [ 9.794026500281056, 7.884677174274414, 0.0 ], [ 9.793466807991541, 7.884949577815041, 0.0 ], [ 9.792805021731438, 7.886316025172388, 0.0 ], [ 9.791620771241609, 7.886294417133731, 0.0 ], [ 9.791431921313004, 7.887465789558274, 0.0 ], [ 9.791666666666693, 7.8875, 0.0 ], [ 9.79512498643666, 7.886612616644997, 0.0 ] ] ], [ [ [ 9.811612616644997, 7.870124816894561, 0.0 ], [ 9.813067287868948, 7.864456176757841, 0.0 ], [ 9.816099378797771, 7.860543823242221, 0.0 ], [ 9.817233954535618, 7.851956176757842, 0.0 ], [ 9.820266045464434, 7.848043823242217, 0.0 ], [ 9.821382321828656, 7.8395946854059, 0.0 ], [ 9.820868860838841, 7.839859393609646, 0.0 ], [ 9.820061560051565, 7.839844537367603, 0.0 ], [ 9.819520566913921, 7.840670745245661, 0.0 ], [ 9.818621979557314, 7.841535274896041, 0.0 ], [ 9.817420975475146, 7.842119508795362, 0.0 ], [ 9.817078283238775, 7.844074154082938, 0.0 ], [ 9.817895366779785, 7.844467390567422, 0.0 ], [ 9.818229927888437, 7.845151985207752, 0.0 ], [ 9.8192585434116, 7.845821448468723, 0.0 ], [ 9.820067998100694, 7.846658276233932, 0.0 ], [ 9.81930307528903, 7.847393766276992, 0.0 ], [ 9.81746387061952, 7.847755599487757, 0.0 ], [ 9.817087062902788, 7.848570886934512, 0.0 ], [ 9.817705353911274, 7.849761575378072, 0.0 ], [ 9.817335796114955, 7.850479865120348, 0.0 ], [ 9.81681434813383, 7.850981694554365, 0.0 ], [ 9.816549683339215, 7.852072876029765, 0.0 ], [ 9.816000669540157, 7.852339983304368, 0.0 ], [ 9.814984257063221, 7.853029848601834, 0.0 ], [ 9.816262463284028, 7.853861533844794, 0.0 ], [ 9.816551006782591, 7.855471535517284, 0.0 ], [ 9.815552258257886, 7.85595680201786, 0.0 ], [ 9.815198131386582, 7.856688310280257, 0.0 ], [ 9.814835978674191, 7.857392805540018, 0.0 ], [ 9.813281100779976, 7.857774211822353, 0.0 ], [ 9.81275334105263, 7.858863780967377, 0.0 ], [ 9.812404813709067, 7.859198862281187, 0.0 ], [ 9.812755970107961, 7.860215185618498, 0.0 ], [ 9.813193426253598, 7.862425352621172, 0.0 ], [ 9.812468445692998, 7.863495694653492, 0.0 ], [ 9.812495770252603, 7.864700780827477, 0.0 ], [ 9.811662141171825, 7.865931382340836, 0.0 ], [ 9.811680179347409, 7.866734773867496, 0.0 ], [ 9.810859551229287, 7.867273743611938, 0.0 ], [ 9.810334442434511, 7.867820621868063, 0.0 ], [ 9.808490240015699, 7.868123608830259, 0.0 ], [ 9.808014747968024, 7.869593587333742, 0.0 ], [ 9.807342602903383, 7.870240378800182, 0.0 ], [ 9.804607074272973, 7.870541883877552, 0.0 ], [ 9.803509042664864, 7.871108402020012, 0.0 ], [ 9.801077383225472, 7.871063765213999, 0.0 ], [ 9.800805812627843, 7.872182511857376, 0.0 ], [ 9.800528885197137, 7.872449082792593, 0.0 ], [ 9.80041357303959, 7.87268707354592, 0.0 ], [ 9.801956176757839, 7.871400621202286, 0.0 ], [ 9.811612616644997, 7.870124816894561, 0.0 ] ] ], [ [ [ 9.822480215004511, 7.837423185013055, 0.0 ], [ 9.822494082158421, 7.838045267284351, 0.0 ], [ 9.823306870312065, 7.836996514240656, 0.0 ], [ 9.822480215004511, 7.837423185013055, 0.0 ] ] ], [ [ [ 9.824648263954487, 7.834703905527547, 0.0 ], [ 9.824218954311659, 7.835184399614675, 0.0 ], [ 9.824422766958616, 7.835556655651089, 0.0 ], [ 9.824432712131102, 7.835543823242216, 0.0 ], [ 9.824648263954487, 7.834703905527547, 0.0 ] ] ], [ [ [ 9.829733954535618, 7.814456176757841, 0.0 ], [ 9.832864718967041, 7.8104166666667, 0.0 ], [ 9.829628499348983, 7.806241183810791, 0.0 ], [ 9.8369327121311, 7.798043823242212, 0.0 ], [ 9.838067287868949, 7.793622843424507, 0.0 ], [ 9.84109937879777, 7.789710489908884, 0.0 ], [ 9.842327880859401, 7.775899590386316, 0.0 ], [ 9.845833333333356, 7.775, 0.0 ], [ 9.845833333333358, 7.770833333333363, 0.0 ], [ 9.8455753641125, 7.766038621484874, 0.0 ], [ 9.844657784638764, 7.768244163775229, 0.0 ], [ 9.844720380742016, 7.769255738820135, 0.0 ], [ 9.843477054575095, 7.769547038596239, 0.0 ], [ 9.842727754329752, 7.769504008241606, 0.0 ], [ 9.84187788591186, 7.770456977156878, 0.0 ], [ 9.841427126814169, 7.771440421939423, 0.0 ], [ 9.841140703279219, 7.771697491641344, 0.0 ], [ 9.840885175915341, 7.772526859959639, 0.0 ], [ 9.84059875134583, 7.772783929397182, 0.0 ], [ 9.840290430826453, 7.773786700405187, 0.0 ], [ 9.840373890105644, 7.775140061282107, 0.0 ], [ 9.840010493085986, 7.776504375889185, 0.0 ], [ 9.840350211314167, 7.777125880796441, 0.0 ], [ 9.840609581889707, 7.778225570694912, 0.0 ], [ 9.840975967316078, 7.778895778378509, 0.0 ], [ 9.840550839460441, 7.779679906513751, 0.0 ], [ 9.84006921241817, 7.780111190140948, 0.0 ], [ 9.839816379428777, 7.782297258797221, 0.0 ], [ 9.839409776390712, 7.783047431925912, 0.0 ], [ 9.83987729854586, 7.784338027045133, 0.0 ], [ 9.839795620762814, 7.78575001017488, 0.0 ], [ 9.83856145698855, 7.786132436096445, 0.0 ], [ 9.837921189078964, 7.78695673499212, 0.0 ], [ 9.838466284460761, 7.787440573920112, 0.0 ], [ 9.838756276451182, 7.788972123661742, 0.0 ], [ 9.839731184356754, 7.789415892835722, 0.0 ], [ 9.839274084586549, 7.790695068973326, 0.0 ], [ 9.839019086099846, 7.791795777088544, 0.0 ], [ 9.838347497526026, 7.792105015270703, 0.0 ], [ 9.837120534440684, 7.794784285526603, 0.0 ], [ 9.83676289565968, 7.795312835886233, 0.0 ], [ 9.835616521757371, 7.794694511804151, 0.0 ], [ 9.834831972773776, 7.795121619751184, 0.0 ], [ 9.834401438311572, 7.795603674871768, 0.0 ], [ 9.833596212144226, 7.796324421101499, 0.0 ], [ 9.833316373242925, 7.79723385979727, 0.0 ], [ 9.833029928343485, 7.797490926099561, 0.0 ], [ 9.832773837698856, 7.798048951503615, 0.0 ], [ 9.832424798090175, 7.798361786399148, 0.0 ], [ 9.832522509887193, 7.799941416527278, 0.0 ], [ 9.832474213576548, 7.80077832397411, 0.0 ], [ 9.831950194354626, 7.800748086751441, 0.0 ], [ 9.830661936612568, 7.801211686019009, 0.0 ], [ 9.830018241762085, 7.801933699991178, 0.0 ], [ 9.830087964017464, 7.803066625921389, 0.0 ], [ 9.830043766488494, 7.803828800715429, 0.0 ], [ 9.82923480484369, 7.804553258244324, 0.0 ], [ 9.828979774926491, 7.805653963262451, 0.0 ], [ 9.828535313236062, 7.806898130450584, 0.0 ], [ 9.829255568410233, 7.80753797489552, 0.0 ], [ 9.82951347344353, 7.807895194914995, 0.0 ], [ 9.828971283056086, 7.808895240108945, 0.0 ], [ 9.828715181427718, 7.809453264055954, 0.0 ], [ 9.828203697104893, 7.810396542528856, 0.0 ], [ 9.828796762027787, 7.811479686360311, 0.0 ], [ 9.827486946174723, 7.816396609815054, 0.0 ], [ 9.827987078149265, 7.817778835729435, 0.0 ], [ 9.827358565257184, 7.818938038282137, 0.0 ], [ 9.827102710310536, 7.81962484277159, 0.0 ], [ 9.828202519663529, 7.82139117585131, 0.0 ], [ 9.827363911686035, 7.821651443049739, 0.0 ], [ 9.827108336448378, 7.822480807195205, 0.0 ], [ 9.826818698224956, 7.823015048257973, 0.0 ], [ 9.827110980598672, 7.82382267077725, 0.0 ], [ 9.827370467847873, 7.824977483483941, 0.0 ], [ 9.825742055996832, 7.82708145022529, 0.0 ], [ 9.825486475269281, 7.827910813857367, 0.0 ], [ 9.824927912899819, 7.828168409404672, 0.0 ], [ 9.824596496042506, 7.828539502038241, 0.0 ], [ 9.824684324197788, 7.829962813624626, 0.0 ], [ 9.826196551645317, 7.830310894704791, 0.0 ], [ 9.828599378797771, 7.827210489908886, 0.0 ], [ 9.829733954535618, 7.814456176757841, 0.0 ] ] ], [ [ [ 9.841157991283989, 7.755679123896955, 0.0 ], [ 9.84110945316116, 7.756516749018083, 0.0 ], [ 9.841414449752111, 7.756787487527003, 0.0 ], [ 9.841362061142815, 7.757697538927363, 0.0 ], [ 9.842762500952125, 7.758941241656126, 0.0 ], [ 9.844121711911132, 7.761355179338175, 0.0 ], [ 9.844386974158548, 7.762480294247098, 0.0 ], [ 9.844674414080506, 7.762736225789794, 0.0 ], [ 9.844932698781617, 7.763293233565315, 0.0 ], [ 9.845481661847097, 7.764297036342766, 0.0 ], [ 9.845266045464433, 7.760289510091172, 0.0 ], [ 9.841157991283989, 7.755679123896955, 0.0 ] ] ], [ [ [ 9.836932712131103, 7.747789510091176, 0.0 ], [ 9.835157805602305, 7.74587713541545, 0.0 ], [ 9.834608115526351, 7.746890021114566, 0.0 ], [ 9.835138699054939, 7.747859347291604, 0.0 ], [ 9.835093496354562, 7.748648553337389, 0.0 ], [ 9.835469144359402, 7.748915978572945, 0.0 ], [ 9.83621879109959, 7.748075573967843, 0.0 ], [ 9.836801879203533, 7.748724165198456, 0.0 ], [ 9.836716603480983, 7.750205583881246, 0.0 ], [ 9.837062799143926, 7.751163079215777, 0.0 ], [ 9.837019647249118, 7.751912003009968, 0.0 ], [ 9.838711178896309, 7.753131302198911, 0.0 ], [ 9.838609969365189, 7.754880913215778, 0.0 ], [ 9.841035926689946, 7.75554213326965, 0.0 ], [ 9.838067287868951, 7.752210489908886, 0.0 ], [ 9.836932712131103, 7.747789510091176, 0.0 ] ] ], [ [ [ 9.825277781351781, 7.733352537511858, 0.0 ], [ 9.824695617646711, 7.733775698315693, 0.0 ], [ 9.82477789875103, 7.735105754734144, 0.0 ], [ 9.82474139287501, 7.735732775392157, 0.0 ], [ 9.825673448866134, 7.737435874174604, 0.0 ], [ 9.826398891772387, 7.738079968328923, 0.0 ], [ 9.826658192251022, 7.73917967511434, 0.0 ], [ 9.826945605427664, 7.739435621726365, 0.0 ], [ 9.827203321505113, 7.739721303342503, 0.0 ], [ 9.827762771516577, 7.739976721604088, 0.0 ], [ 9.828021017994899, 7.740533744076866, 0.0 ], [ 9.828843339538338, 7.741264029504463, 0.0 ], [ 9.830379785937, 7.741734299272141, 0.0 ], [ 9.830757260793398, 7.741311181740874, 0.0 ], [ 9.830929268248211, 7.741321093945023, 0.0 ], [ 9.825567287868948, 7.735543823242216, 0.0 ], [ 9.825277781351781, 7.733352537511858, 0.0 ] ] ], [ [ [ 9.816099378797771, 7.714456176757845, 0.0 ], [ 9.813696044820954, 7.711355117998674, 0.0 ], [ 9.813416687946757, 7.712863073619407, 0.0 ], [ 9.814927106876592, 7.713952464189649, 0.0 ], [ 9.815378602762076, 7.714454014000291, 0.0 ], [ 9.814763411386004, 7.715588257380693, 0.0 ], [ 9.815219264911796, 7.716422088977094, 0.0 ], [ 9.815175053353526, 7.717194866695835, 0.0 ], [ 9.815936412490537, 7.71858669989927, 0.0 ], [ 9.815059524206131, 7.719844396274453, 0.0 ], [ 9.815755650423474, 7.720463131218434, 0.0 ], [ 9.816040585295282, 7.721376781736821, 0.0 ], [ 9.816014363175235, 7.721832073832529, 0.0 ], [ 9.816315081037834, 7.722663549113513, 0.0 ], [ 9.816930257012526, 7.722625806625774, 0.0 ], [ 9.817920099121922, 7.722087056225328, 0.0 ], [ 9.819337643887346, 7.721827837015238, 0.0 ], [ 9.819894047043542, 7.722447362021898, 0.0 ], [ 9.820388137615563, 7.722417032508796, 0.0 ], [ 9.817233954535618, 7.718877156575553, 0.0 ], [ 9.816099378797771, 7.714456176757845, 0.0 ] ] ], [ [ [ 9.808900621202282, 7.698043823242212, 0.0 ], [ 9.807482571072075, 7.692517598470079, 0.0 ], [ 9.80524701797937, 7.69194390785896, 0.0 ], [ 9.804893404457129, 7.692715433994358, 0.0 ], [ 9.806468763462425, 7.693078154911838, 0.0 ], [ 9.806168573570586, 7.693346883432838, 0.0 ], [ 9.805641645439202, 7.694519636603776, 0.0 ], [ 9.806459045934357, 7.695245748745505, 0.0 ], [ 9.806824115585989, 7.696416295032273, 0.0 ], [ 9.807822172414928, 7.696871249666814, 0.0 ], [ 9.808091000373127, 7.699398167075697, 0.0 ], [ 9.81027696075185, 7.700394092353251, 0.0 ], [ 9.81056289826121, 7.701012025466676, 0.0 ], [ 9.810518665695113, 7.701778444587549, 0.0 ], [ 9.811501062074568, 7.702650504111143, 0.0 ], [ 9.811965050085707, 7.704140957076781, 0.0 ], [ 9.812232156104706, 7.704222679470179, 0.0 ], [ 9.811932712131103, 7.701956176757843, 0.0 ], [ 9.808900621202282, 7.698043823242212, 0.0 ] ] ] ] } }
]
}
