{
"type": "FeatureCollection",
"name": "Taraba_interventions",
"crs": { "type": "name", "properties": { "name": "urn:ogc:def:crs:OGC:1.3:CRS84" } },
"features": [
{ "type": "Feature", "properties": { "OBJECTID": 198, "ActivityID": "TAR0008", "Stra_Catch": "Shemankar-Katsina-Ala", "Micr_Catch": "Ndibam/Fadama", "State": "Taraba", "LGA": "Takum", "Site_Name": "Takum Vocational Site", "Interv_Typ": "Afforestation (Tree Planting)", "Component": "A - Dryland Management", "Comments": "Completed", "Implemnter": "Taraba_ACReSAL_CDD", "Start_Date": "2024-08-15T00:00:00", "End_Date": "2024/09/23", "No_Trees_P": 0, "Sub_compon": "A2-1", "Lon": 10.0064670187, "Lat": 7.2298121735200001, "Female_pop": 0, "Buffer_Mtr": 0, "Area_Impac": 3.3865435875799998, "Male_pop": 0, "Area_Intev": 3.3865435875799998, "Netsize_Ha": 3.3865435875799998, "Indicator": "Area under improved catchment management", "Benefi_pop": 0.0, "Perct_NDVI": 0.0, "parent_micro_name": "Ndibam/Fadama" }, "geometry": { "type": "Polygon", "coordinates": [ [ [ 10.005988892828896, 7.228967510748893, 0.0 ], [ 10.005434673236865, 7.229706756917387, 0.0 ], [ 10.004679493674065, 7.230819697543302, 0.0 ], [ 10.004902793624202, 7.230820051841772, 0.0 ], [ 10.005245807456701, 7.230788470829609, 0.0 ], [ 10.005799159753931, 7.230509242458102, 0.0 ], [ 10.006183443296614, 7.230403751094082, 0.0 ], [ 10.006382352798999, 7.23037064860919, 0.0 ], [ 10.006643316408649, 7.230325927897334, 0.0 ], [ 10.00691849302831, 7.230163873739697, 0.0 ], [ 10.007247122099489, 7.229857741640999, 0.0 ], [ 10.007589517004128, 7.229683492229519, 0.0 ], [ 10.00795893372711, 7.229492443268744, 0.0 ], [ 10.008311712704732, 7.229331269590085, 0.0 ], [ 10.008298807797724, 7.229194595796987, 0.0 ], [ 10.007976497599099, 7.229001330023436, 0.0 ], [ 10.007888549198178, 7.22881117459466, 0.0 ], [ 10.007595566218557, 7.228860504285821, 0.0 ], [ 10.0072934279089, 7.228903467695117, 0.0 ], [ 10.007074548132397, 7.22926915239738, 0.0 ], [ 10.006893925665379, 7.229441953359784, 0.0 ], [ 10.006743450746521, 7.22950673961001, 0.0 ], [ 10.006607293944684, 7.229682000072726, 0.0 ], [ 10.006247377281365, 7.229693512435274, 0.0 ], [ 10.005988892828896, 7.228967510748893, 0.0 ] ] ] } },
{ "type": "Feature", "properties": { "OBJECTID": 202, "ActivityID": "TAR0007", "Stra_Catch": "Shemankar-Katsina-Ala", "Micr_Catch": "Ndibam/Fadama", "State": "Taraba", "LGA": "Takum", "Site_Name": "Takum Commercial Site", "Interv_Typ": "Afforestation (Tree Planting)", "Component": "A - Dryland Management", "Comments": "Completed", "Implemnter": "Taraba_ACReSAL_CDD", "Start_Date": "2024-10-09T00:00:00", "End_Date": "2024/10/11", "No_Trees_P": 0, "Sub_compon": "A2-1", "Lon": 9.9688532682099993, "Lat": 7.2596141844100002, "Female_pop": 0, "Buffer_Mtr": 0, "Area_Impac": 10.500377977799999, "Male_pop": 0, "Area_Intev": 10.500377977799999, "Netsize_Ha": 10.500377977799999, "Indicator": "Area under improved catchment management", "Benefi_pop": 0.0, "Perct_NDVI": 0.0, "parent_micro_name": "Ndibam/Fadama" }, "geometry": { "type": "Polygon", "coordinates": [ [ [ 9.966282588683114, 7.259144440943913, 0.0 ], [ 9.968370630626575, 7.260629928178608, 0.0 ], [ 9.969703667865527, 7.261185220375674, 0.0 ], [ 9.970656817647452, 7.261238654619153, 0.0 ], [ 9.97115813710608, 7.260955932706666, 0.0 ], [ 9.971398901077317, 7.260514467288301, 0.0 ], [ 9.9701680987048, 7.259341607116547, 0.0 ], [ 9.969013534052092, 7.258595768385447, 0.0 ], [ 9.967733051729528, 7.257841917821891, 0.0 ], [ 9.966282588683114, 7.259144440943913, 0.0 ] ] ] } }
]
}
