{
"type": "FeatureCollection",
"name": "Benue_state_boundary",
"crs": { "type": "name", "properties": { "name": "urn:ogc:def:crs:OGC:1.3:CRS84" } },
"features": [
{ "type": "Feature", "properties": { "state_code": "BE", "state_name": "Benue", "cap_city": "Makurdi", "geo_zone": "NCZ" }, "geometry": { "type": "Polygon", "coordinates": [ [ [ 9.5980138, 6.4998821 ], [ 9.5944443, 6.497777 ], [ 9.5252762, 6.4297218 ], [ 9.5071908, 6.4216198 ], [ 9.4685287, 6.4042997 ], [ 9.4674085, 6.4012661 ], [ 9.4580277, 6.4047302 ], [ 9.4659777, 6.457883 ], [ 9.4660349, 6.4583278 ], [ 9.4672163, 6.4662348 ], [ 9.4672861, 6.4732451 ], [ 9.4708195, 6.4881458 ], [ 9.4720184, 6.4905947 ], [ 9.4731522, 6.495018 ], [ 9.4743271, 6.4996028 ], [ 9.4743614, 6.5041952 ], [ 9.474412, 6.5110831 ], [ 9.4732971, 6.514535 ], [ 9.4733219, 6.5179791 ], [ 9.4722071, 6.521431 ], [ 9.4710922, 6.5248842 ], [ 9.4688272, 6.527195 ], [ 9.4654131, 6.528367 ], [ 9.4620085, 6.5306859 ], [ 9.458602, 6.5330062 ], [ 9.4549308, 6.5358174 ], [ 9.4540644, 6.5364809 ], [ 9.4495182, 6.5388088 ], [ 9.4467217, 6.5416639 ], [ 9.4415922, 6.5469012 ], [ 9.4380755, 6.5505146 ], [ 9.4325418, 6.5572958 ], [ 9.4280291, 6.5642152 ], [ 9.4246492, 6.5699792 ], [ 9.4223938, 6.5734391 ], [ 9.4201374, 6.5768991 ], [ 9.4167576, 6.5826631 ], [ 9.4154509, 6.5844427 ], [ 9.4133692, 6.5872779 ], [ 9.4099712, 6.5907459 ], [ 9.4054422, 6.5953698 ], [ 9.4020624, 6.6011338 ], [ 9.3963928, 6.6057649 ], [ 9.3918543, 6.609241 ], [ 9.3861761, 6.6127238 ], [ 9.3816557, 6.6184959 ], [ 9.3771172, 6.6219721 ], [ 9.3725796, 6.6254468 ], [ 9.368042, 6.628922 ], [ 9.361248, 6.6358581 ], [ 9.3601913, 6.6380246 ], [ 9.3578768, 6.6427698 ], [ 9.3522148, 6.6485491 ], [ 9.347703, 6.6554689 ], [ 9.3432074, 6.6646848 ], [ 9.3341484, 6.6739321 ], [ 9.3312212, 6.6772946 ], [ 9.325099, 6.6843271 ], [ 9.3183222, 6.6935592 ], [ 9.3148596, 6.698868 ], [ 9.3138094, 6.7004781 ], [ 9.3092976, 6.7073979 ], [ 9.3070583, 6.7131538 ], [ 9.3036699, 6.7177701 ], [ 9.3002644, 6.720089 ], [ 9.295701, 6.72012 ], [ 9.2911463, 6.7213011 ], [ 9.2864131, 6.7203815 ], [ 9.2854328, 6.720191 ], [ 9.2797203, 6.7190828 ], [ 9.2705936, 6.7191448 ], [ 9.2660303, 6.7191768 ], [ 9.2557545, 6.7181001 ], [ 9.2477427, 6.7147112 ], [ 9.2385988, 6.7124772 ], [ 9.2372549, 6.7120368 ], [ 9.2283058, 6.7091041 ], [ 9.2157316, 6.7057462 ], [ 9.2088604, 6.7023492 ], [ 9.2027498, 6.6993279 ], [ 9.1997004, 6.6978202 ], [ 9.1938532, 6.6949295 ], [ 9.1935373, 6.6947733 ], [ 9.1928291, 6.6944232 ], [ 9.1848335, 6.6933298 ], [ 9.1756744, 6.6887999 ], [ 9.1711025, 6.6876841 ], [ 9.1689672, 6.6869841 ], [ 9.1676712, 6.6865592 ], [ 9.16539, 6.6865749 ], [ 9.1585274, 6.6843262 ], [ 9.153964, 6.6843581 ], [ 9.1494007, 6.6843891 ], [ 9.1459694, 6.6832638 ], [ 9.1391077, 6.681015 ], [ 9.1356764, 6.6798911 ], [ 9.1319669, 6.6774401 ], [ 9.1290579, 6.675518 ], [ 9.1230764, 6.67309 ], [ 9.1173296, 6.667388 ], [ 9.1093092, 6.6628509 ], [ 9.1058702, 6.6605792 ], [ 9.099, 6.6571822 ], [ 9.0932779, 6.6549249 ], [ 9.0852671, 6.651536 ], [ 9.0829678, 6.6492548 ], [ 9.0772381, 6.6458502 ], [ 9.0703678, 6.6424532 ], [ 9.059971, 6.6425249 ], [ 9.058959, 6.6425319 ], [ 9.0475597, 6.6437588 ], [ 9.0350361, 6.6472888 ], [ 9.0338296, 6.6478191 ], [ 9.0270758, 6.6507878 ], [ 9.0225458, 6.6554122 ], [ 9.018034, 6.6623321 ], [ 9.01124, 6.6692672 ], [ 9.0102729, 6.6702543 ], [ 9.00981, 6.6707268 ], [ 9.004446, 6.6762018 ], [ 8.9976521, 6.6831379 ], [ 8.9925028, 6.6915641 ], [ 8.9920158, 6.6923609 ], [ 8.9901704, 6.692374 ], [ 8.9897347, 6.6923771 ], [ 8.9874535, 6.6923928 ], [ 8.9851799, 6.6935568 ], [ 8.980608, 6.69244 ], [ 8.9783258, 6.6924558 ], [ 8.9760361, 6.6913228 ], [ 8.9726133, 6.6913471 ], [ 8.9703312, 6.6913619 ], [ 8.9692078, 6.6936669 ], [ 8.968092, 6.6971192 ], [ 8.9692593, 6.7005548 ], [ 8.9704256, 6.7039909 ], [ 8.9727325, 6.7074189 ], [ 8.9738903, 6.7097082 ], [ 8.9750481, 6.7119961 ], [ 8.9772862, 6.7142152 ], [ 8.9773645, 6.7165732 ], [ 8.9808292, 6.7222891 ], [ 8.981987, 6.724577 ], [ 8.9836023, 6.7285559 ], [ 8.9843111, 6.7303019 ], [ 8.9866266, 6.734879 ], [ 8.9870761, 6.7362032 ], [ 8.987793, 6.7383151 ], [ 8.9901094, 6.7428908 ], [ 8.9912758, 6.7463269 ], [ 8.9935913, 6.7509041 ], [ 8.9947577, 6.7543402 ], [ 8.9947748, 6.7566371 ], [ 8.9948006, 6.7600799 ], [ 8.9936848, 6.7635331 ], [ 8.9925699, 6.766984 ], [ 8.9914455, 6.769289 ], [ 8.9880486, 6.7727561 ], [ 8.9846601, 6.7773719 ], [ 8.9812632, 6.780839 ], [ 8.9790068, 6.7842989 ], [ 8.9767427, 6.7866111 ], [ 8.9744778, 6.7889228 ], [ 8.9722052, 6.7900872 ], [ 8.9687996, 6.792407 ], [ 8.9642534, 6.794734 ], [ 8.9608479, 6.7970538 ], [ 8.9574509, 6.8005209 ], [ 8.9517717, 6.8040051 ], [ 8.9472342, 6.8074799 ], [ 8.9438286, 6.8098001 ], [ 8.9397097, 6.8132224 ], [ 8.9347448, 6.8156028 ], [ 8.9324799, 6.817915 ], [ 8.9294262, 6.8204088 ], [ 8.9268093, 6.822546 ], [ 8.9234037, 6.8248658 ], [ 8.9188576, 6.8271928 ], [ 8.9131794, 6.830677 ], [ 8.9086332, 6.833004 ], [ 8.9029465, 6.83534 ], [ 8.8972588, 6.8376751 ], [ 8.8952134, 6.8389298 ], [ 8.8915796, 6.8411589 ], [ 8.8870335, 6.8434858 ], [ 8.8790903, 6.8492808 ], [ 8.8745356, 6.850461 ], [ 8.8701085, 6.8538525 ], [ 8.869998, 6.8539371 ], [ 8.8677158, 6.8539519 ], [ 8.8643103, 6.8562722 ], [ 8.8597727, 6.8597469 ], [ 8.8563585, 6.860919 ], [ 8.8517637, 6.8632791 ], [ 8.8484068, 6.8655658 ], [ 8.843852, 6.866745 ], [ 8.8393059, 6.8690729 ], [ 8.8336096, 6.8702598 ], [ 8.8301964, 6.8714318 ], [ 8.8222265, 6.8737831 ], [ 8.8205, 6.8746672 ], [ 8.8176804, 6.876111 ], [ 8.811985, 6.8772979 ], [ 8.8074303, 6.8784781 ], [ 8.8028765, 6.8796568 ], [ 8.7983208, 6.880836 ], [ 8.7903519, 6.8831868 ], [ 8.7857885, 6.8832188 ], [ 8.7812424, 6.8855462 ], [ 8.7766953, 6.8878741 ], [ 8.7740972, 6.8883283 ], [ 8.7724226, 6.8886164 ], [ 8.7699048, 6.8890611 ], [ 8.7698593, 6.8890691 ], [ 8.7653046, 6.8902478 ], [ 8.7596083, 6.8914361 ], [ 8.7539043, 6.8914752 ], [ 8.748209, 6.892663 ], [ 8.7413635, 6.8927102 ], [ 8.733386, 6.8939118 ], [ 8.7276907, 6.8951001 ], [ 8.7231176, 6.8958994 ], [ 8.7208538, 6.8962951 ], [ 8.7151499, 6.8963342 ], [ 8.7071638, 6.896389 ], [ 8.703742, 6.8964128 ], [ 8.7014427, 6.8941331 ], [ 8.6968536, 6.8907199 ], [ 8.6934233, 6.889596 ], [ 8.6899748, 6.8861752 ], [ 8.6885599, 6.8852406 ], [ 8.6865349, 6.883903 ], [ 8.6807966, 6.8793502 ], [ 8.6773577, 6.8770771 ], [ 8.6750584, 6.8747959 ], [ 8.6693201, 6.870244 ], [ 8.6684447, 6.8698111 ], [ 8.6647406, 6.8679791 ], [ 8.6613092, 6.8668542 ], [ 8.6567373, 6.8657379 ], [ 8.6544466, 6.864605 ], [ 8.6510248, 6.8646288 ], [ 8.6453114, 6.8635201 ], [ 8.6361761, 6.8624349 ], [ 8.6293316, 6.862483 ], [ 8.628784, 6.8624868 ], [ 8.6236277, 6.8625221 ], [ 8.6190557, 6.8614049 ], [ 8.6089554, 6.8596287 ], [ 8.6064892, 6.8591952 ], [ 8.6007605, 6.8557911 ], [ 8.6007423, 6.8534942 ], [ 8.6018572, 6.8500428 ], [ 8.6023612, 6.8495284 ], [ 8.6041222, 6.8477311 ], [ 8.6075277, 6.8454108 ], [ 8.6109247, 6.8419428 ], [ 8.6154623, 6.8384681 ], [ 8.6200008, 6.8349919 ], [ 8.6222734, 6.833828 ], [ 8.625679, 6.8315091 ], [ 8.6302338, 6.8303289 ], [ 8.6336308, 6.8268609 ], [ 8.6370449, 6.8256898 ], [ 8.6393013, 6.8222299 ], [ 8.6415567, 6.8187699 ], [ 8.6403742, 6.8130379 ], [ 8.6403484, 6.8095942 ], [ 8.6403141, 6.8050008 ], [ 8.6368408, 6.7981372 ], [ 8.6322432, 6.7935758 ], [ 8.6310854, 6.7912879 ], [ 8.6287861, 6.7890072 ], [ 8.6253386, 6.7855868 ], [ 8.6232272, 6.7834926 ], [ 8.6230402, 6.7833071 ], [ 8.6207409, 6.7810259 ], [ 8.6161604, 6.7787609 ], [ 8.61273, 6.777637 ], [ 8.607008, 6.7753801 ], [ 8.6012955, 6.774271 ], [ 8.5944252, 6.770875 ], [ 8.5875626, 6.7686248 ], [ 8.5784111, 6.765244 ], [ 8.5704165, 6.7641511 ], [ 8.5635624, 6.7630501 ], [ 8.5578499, 6.761941 ], [ 8.5509882, 6.7596931 ], [ 8.5441341, 6.7585921 ], [ 8.5350161, 6.7598028 ], [ 8.5304527, 6.7598338 ], [ 8.5236082, 6.759881 ], [ 8.5156221, 6.7599359 ], [ 8.5087681, 6.7588348 ], [ 8.5030556, 6.7577271 ], [ 8.4961853, 6.7543292 ], [ 8.4881907, 6.7532358 ], [ 8.4801874, 6.7509961 ], [ 8.4767485, 6.748723 ], [ 8.4721766, 6.7476058 ], [ 8.4687452, 6.7464809 ], [ 8.4641819, 6.7465129 ], [ 8.4607592, 6.7465372 ], [ 8.458478, 6.746552 ], [ 8.4539232, 6.7477322 ], [ 8.4504995, 6.7477551 ], [ 8.4482441, 6.751215 ], [ 8.4437075, 6.7546911 ], [ 8.4403009, 6.75701 ], [ 8.4357462, 6.7581902 ], [ 8.4323235, 6.758214 ], [ 8.4277601, 6.758245 ], [ 8.4243288, 6.7571211 ], [ 8.4197655, 6.7571521 ], [ 8.415185, 6.7548871 ], [ 8.410614, 6.7537708 ], [ 8.4083233, 6.7526379 ], [ 8.4025936, 6.7492328 ], [ 8.3980045, 6.745821 ], [ 8.3934164, 6.7424078 ], [ 8.3910999, 6.7378321 ], [ 8.3884927, 6.7335297 ], [ 8.3876352, 6.7321148 ], [ 8.3864689, 6.7286792 ], [ 8.3830032, 6.7229619 ], [ 8.3818283, 6.7183781 ], [ 8.37953, 6.7160969 ], [ 8.3772144, 6.7115211 ], [ 8.374898, 6.706944 ], [ 8.3725996, 6.7046642 ], [ 8.3702927, 6.7012348 ], [ 8.3668442, 6.6978149 ], [ 8.3611059, 6.6932621 ], [ 8.3576756, 6.6921382 ], [ 8.3542356, 6.6898651 ], [ 8.3485146, 6.6876078 ], [ 8.3450832, 6.6864839 ], [ 8.3405027, 6.6842189 ], [ 8.3359308, 6.6831031 ], [ 8.3302097, 6.6808462 ], [ 8.3256378, 6.679729 ], [ 8.3210659, 6.6786132 ], [ 8.3176432, 6.6786361 ], [ 8.3130713, 6.6775188 ], [ 8.3073673, 6.6775579 ], [ 8.3039532, 6.67873 ], [ 8.2993984, 6.6799102 ], [ 8.2945147, 6.678709 ], [ 8.2838163, 6.6925058 ], [ 8.2828022, 6.6936121 ], [ 8.278821, 6.6979551 ], [ 8.2801838, 6.7047663 ], [ 8.2856321, 6.7102156 ], [ 8.2801838, 6.7152104 ], [ 8.2738256, 6.7129402 ], [ 8.2738256, 6.7165728 ], [ 8.2688313, 6.7279253 ], [ 8.2611113, 6.7311039 ], [ 8.2515755, 6.7356448 ], [ 8.2560329, 6.7374611 ], [ 8.2624909, 6.7379318 ], [ 8.2660898, 6.7415733 ], [ 8.2648281, 6.7450346 ], [ 8.2611113, 6.7551708 ], [ 8.255662, 6.7660689 ], [ 8.2497587, 6.7683392 ], [ 8.2497587, 6.771075 ], [ 8.2497587, 6.7756047 ], [ 8.2443104, 6.7855949 ], [ 8.2406769, 6.7924061 ], [ 8.2343197, 6.7992177 ], [ 8.2293253, 6.8001256 ], [ 8.2261467, 6.7896819 ], [ 8.2202435, 6.7787833 ], [ 8.2129774, 6.7760587 ], [ 8.2077668, 6.7769272 ], [ 8.1993551, 6.7783294 ], [ 8.1916351, 6.7783294 ], [ 8.1839161, 6.7756047 ], [ 8.1730175, 6.7733345 ], [ 8.1652975, 6.7665229 ], [ 8.1603031, 6.7610741 ], [ 8.1525831, 6.7547164 ], [ 8.1490631, 6.7470889 ], [ 8.1471338, 6.7429099 ], [ 8.145318, 6.7347364 ], [ 8.1444092, 6.7252007 ], [ 8.1362362, 6.7161188 ], [ 8.1276083, 6.7115779 ], [ 8.1121693, 6.7093072 ], [ 8.1039953, 6.7120318 ], [ 8.098546, 6.707037 ], [ 8.0953674, 6.7079449 ], [ 8.0890102, 6.7115779 ], [ 8.0852474, 6.712205 ], [ 8.079566, 6.7131519 ], [ 8.075388, 6.7138481 ], [ 8.0624542, 6.7201637 ], [ 8.0462676, 6.7272704 ], [ 8.0319936, 6.7324582 ], [ 8.0199988, 6.7333002 ], [ 8.0093282, 6.7250191 ], [ 7.9872602, 6.7216966 ], [ 7.9844309, 6.720462 ], [ 7.9757016, 6.71241 ], [ 7.9744551, 6.7112602 ], [ 7.9746, 6.6902892 ], [ 7.9788319, 6.6671215 ], [ 7.9782882, 6.6479215 ], [ 7.9870663, 6.6334739 ], [ 7.9884286, 6.6180348 ], [ 7.9870663, 6.6112232 ], [ 7.9732482, 6.5967713 ], [ 7.9591552, 6.5907536 ], [ 7.9552487, 6.5834117 ], [ 7.954156, 6.5618542 ], [ 7.9541863, 6.5518261 ], [ 7.9507783, 6.5431117 ], [ 7.9447603, 6.5400198 ], [ 7.9328699, 6.5415491 ], [ 7.9252995, 6.54377 ], [ 7.9156434, 6.5486929 ], [ 7.9066719, 6.552447 ], [ 7.8995863, 6.5559549 ], [ 7.8881641, 6.5588426 ], [ 7.8780842, 6.561727 ], [ 7.8690023, 6.5689926 ], [ 7.8670571, 6.5707366 ], [ 7.8558335, 6.5807991 ], [ 7.8526549, 6.5880647 ], [ 7.8499098, 6.5927773 ], [ 7.8487757, 6.5943517 ], [ 7.8472606, 6.5957874 ], [ 7.846201, 6.5982608 ], [ 7.84524, 6.6027865 ], [ 7.844027, 6.6084986 ], [ 7.836762, 6.6148558 ], [ 7.8335829, 6.6193967 ], [ 7.8335829, 6.6262083 ], [ 7.8317666, 6.6384687 ], [ 7.8217769, 6.6389227 ], [ 7.8177161, 6.6375062 ], [ 7.8130175, 6.642104 ], [ 7.8110209, 6.6457248 ], [ 7.8139793, 6.6501452 ], [ 7.8214881, 6.6545625 ], [ 7.8308246, 6.6619441 ], [ 7.8405011, 6.6776701 ], [ 7.8559546, 6.7000968 ], [ 7.8626746, 6.7141401 ], [ 7.8684904, 6.7249164 ], [ 7.8748707, 6.7410404 ], [ 7.8781877, 6.7601991 ], [ 7.8884282, 6.766501 ], [ 7.8947301, 6.7743788 ], [ 7.9033957, 6.7814684 ], [ 7.9002447, 6.7861948 ], [ 7.8900037, 6.7854071 ], [ 7.8876405, 6.7893457 ], [ 7.8864589, 6.7940726 ], [ 7.8864589, 6.8051009 ], [ 7.8888221, 6.8216438 ], [ 7.8892257, 6.8272944 ], [ 7.8897432, 6.8345399 ], [ 7.8903975, 6.8437009 ], [ 7.8880343, 6.8539419 ], [ 7.882597, 6.8582916 ], [ 7.8762178, 6.8633947 ], [ 7.8746424, 6.8689089 ], [ 7.8636141, 6.8799376 ], [ 7.8549485, 6.8807254 ], [ 7.8395595, 6.8807254 ], [ 7.8335137, 6.8863974 ], [ 7.818618, 6.8919466 ], [ 7.8036248, 6.8912314 ], [ 7.791776, 6.8893398 ], [ 7.7856264, 6.872848 ], [ 7.7760344, 6.8758249 ], [ 7.7627816, 6.8799376 ], [ 7.7574043, 6.8792655 ], [ 7.7501774, 6.8783622 ], [ 7.7376233, 6.8703585 ], [ 7.7190947, 6.8724724 ], [ 7.7137566, 6.871026 ], [ 7.7119256, 6.8609189 ], [ 7.6917484, 6.8515783 ], [ 7.6881284, 6.8526892 ], [ 7.6745529, 6.8555174 ], [ 7.6616789, 6.8653259 ], [ 7.65801, 6.8681211 ], [ 7.646194, 6.8854518 ], [ 7.6385142, 6.8990388 ], [ 7.635953, 6.9035702 ], [ 7.6201978, 6.9193254 ], [ 7.5997162, 6.9248395 ], [ 7.5962242, 6.9260867 ], [ 7.5776591, 6.9327173 ], [ 7.5713573, 6.9398069 ], [ 7.5642672, 6.9524112 ], [ 7.5586114, 6.972521 ], [ 7.5571775, 6.9776192 ], [ 7.5552151, 6.9805628 ], [ 7.5524511, 6.9847088 ], [ 7.5493002, 6.9910111 ], [ 7.5482555, 6.9937269 ], [ 7.5464964, 6.9983002 ], [ 7.545361, 7.0012517 ], [ 7.5422101, 7.0083418 ], [ 7.5382714, 7.0201578 ], [ 7.5366187, 7.02274 ], [ 7.5305138, 7.0322781 ], [ 7.543582, 7.0401211 ], [ 7.5806856, 7.0271974 ], [ 7.5931926, 7.0180259 ], [ 7.6011138, 7.0163579 ], [ 7.6058744, 7.0172505 ], [ 7.6077843, 7.0176086 ], [ 7.6102858, 7.0234451 ], [ 7.6111193, 7.0271974 ], [ 7.6098685, 7.0322003 ], [ 7.6069503, 7.0413718 ], [ 7.6036153, 7.0530453 ], [ 7.6023645, 7.0622168 ], [ 7.600697, 7.0730562 ], [ 7.5994463, 7.0793099 ], [ 7.6019478, 7.0905662 ], [ 7.6111193, 7.1001549 ], [ 7.6144858, 7.1037082 ], [ 7.6186237, 7.1080756 ], [ 7.6219587, 7.1126618 ], [ 7.62988, 7.1247516 ], [ 7.6333143, 7.1283769 ], [ 7.6361461, 7.1313662 ], [ 7.6373839, 7.1326728 ], [ 7.6354515, 7.1471285 ], [ 7.6430812, 7.1582817 ], [ 7.672369, 7.1737027 ], [ 7.6819234, 7.1854494 ], [ 7.6910222, 7.1918299 ], [ 7.702966, 7.1889636 ], [ 7.7100737, 7.1831123 ], [ 7.7180492, 7.1836 ], [ 7.7215507, 7.1870631 ], [ 7.7293244, 7.1927042 ], [ 7.7499271, 7.1993181 ], [ 7.7677559, 7.2062735 ], [ 7.7793899, 7.2089166 ], [ 7.7848704, 7.2149887 ], [ 7.789969, 7.216886 ], [ 7.7938652, 7.2258253 ], [ 7.7970562, 7.2331452 ], [ 7.7942194, 7.2686522 ], [ 7.7958674, 7.2743426 ], [ 7.8011553, 7.2926017 ], [ 7.7970562, 7.2935953 ], [ 7.789969, 7.296514 ], [ 7.7791295, 7.300683 ], [ 7.7686951, 7.3018866 ], [ 7.7703208, 7.3049313 ], [ 7.771497, 7.3071342 ], [ 7.7899144, 7.3416278 ], [ 7.7939234, 7.3481141 ], [ 7.7957815, 7.3518836 ], [ 7.7983445, 7.3570832 ], [ 7.8026083, 7.3642883 ], [ 7.7971226, 7.3759522 ], [ 7.7983971, 7.3852456 ], [ 7.8001166, 7.3917775 ], [ 7.7993788, 7.401134 ], [ 7.7921889, 7.4098641 ], [ 7.7928872, 7.4149132 ], [ 7.7762113, 7.4194989 ], [ 7.76829, 7.4270029 ], [ 7.7641211, 7.4336734 ], [ 7.7622577, 7.4436897 ], [ 7.7607861, 7.4516001 ], [ 7.7595353, 7.4786983 ], [ 7.7585784, 7.492456 ], [ 7.7553663, 7.5049629 ], [ 7.7545323, 7.5128841 ], [ 7.7552984, 7.5236086 ], [ 7.7557831, 7.5303941 ], [ 7.7374077, 7.5390833 ], [ 7.7377669, 7.567204 ], [ 7.736677, 7.5781859 ], [ 7.7368774, 7.5852725 ], [ 7.7368376, 7.5917865 ], [ 7.7362046, 7.5993812 ], [ 7.731816, 7.6127036 ], [ 7.7262583, 7.6144665 ], [ 7.7242557, 7.6204962 ], [ 7.7325541, 7.6390134 ], [ 7.7410432, 7.6387316 ], [ 7.7524481, 7.6397312 ], [ 7.7524481, 7.6477828 ], [ 7.754674, 7.6477284 ], [ 7.754674, 7.6613159 ], [ 7.7539945, 7.6796589 ], [ 7.7526355, 7.7081923 ], [ 7.7526355, 7.7441988 ], [ 7.7501696, 7.7517896 ], [ 7.7446904, 7.7686567 ], [ 7.7281785, 7.7924342 ], [ 7.6934285, 7.8378761 ], [ 7.6928511, 7.8386312 ], [ 7.6697526, 7.8848286 ], [ 7.6636381, 7.905889 ], [ 7.6643176, 7.935102 ], [ 7.6662985, 7.9489685 ], [ 7.6711111, 7.9826579 ], [ 7.672782, 7.9919398 ], [ 7.6768379, 8.0144711 ], [ 7.6974669, 8.0136623 ], [ 7.7277783, 8.0081508 ], [ 7.7384028, 8.0062189 ], [ 7.7607322, 8.0034285 ], [ 7.7825956, 7.9987764 ], [ 7.8109722, 7.991333 ], [ 7.838418, 7.9852858 ], [ 7.86726, 7.9862161 ], [ 7.8770289, 7.9834251 ], [ 7.8929157, 7.9746304 ], [ 7.903079, 7.9690042 ], [ 7.931921, 7.9573746 ], [ 7.972857, 7.9392323 ], [ 7.9803173, 7.9336768 ], [ 7.9947209, 7.9229507 ], [ 8.0407743, 7.8964353 ], [ 8.0641167, 7.882361 ], [ 8.0641376, 7.8823485 ], [ 8.0708244, 7.8783166 ], [ 8.0724068, 7.8773623 ], [ 8.0952015, 7.868989 ], [ 8.1138086, 7.8638721 ], [ 8.1393938, 7.861546 ], [ 8.1598625, 7.8596854 ], [ 8.1756783, 7.8550334 ], [ 8.1803579, 7.8525805 ], [ 8.1831217, 7.8531728 ], [ 8.1854477, 7.8522425 ], [ 8.1910295, 7.8489861 ], [ 8.2152195, 7.8345652 ], [ 8.2381163, 7.8269328 ], [ 8.2515039, 7.8224702 ], [ 8.2747631, 7.8145623 ], [ 8.3017445, 7.8024673 ], [ 8.3182337, 7.7959284 ], [ 8.3287249, 7.7917681 ], [ 8.3454723, 7.7843251 ], [ 8.3622189, 7.7745562 ], [ 8.372159, 7.7700024 ], [ 8.385478, 7.7680435 ], [ 8.4031553, 7.7661829 ], [ 8.411994, 7.7685089 ], [ 8.420536, 7.7742327 ], [ 8.4205906, 7.7742447 ], [ 8.4189789, 7.7781931 ], [ 8.4190817, 7.7795294 ], [ 8.4193558, 7.7806829 ], [ 8.4197099, 7.7816195 ], [ 8.4200601, 7.7826455 ], [ 8.4192073, 7.7847623 ], [ 8.418543, 7.7856417 ], [ 8.4174465, 7.7881392 ], [ 8.4169449, 7.7898829 ], [ 8.4161835, 7.790454 ], [ 8.4154697, 7.7920482 ], [ 8.4153078, 7.7930733 ], [ 8.415719, 7.7938842 ], [ 8.4155705, 7.7946494 ], [ 8.4154247, 7.7961614 ], [ 8.415362, 7.7972408 ], [ 8.4155909, 7.797591 ], [ 8.415693, 7.7984647 ], [ 8.4157901, 7.7995026 ], [ 8.4157593, 7.7999577 ], [ 8.4149976, 7.8013946 ], [ 8.4123846, 7.8048548 ], [ 8.4102703, 7.8080944 ], [ 8.4086644, 7.8118881 ], [ 8.4067041, 7.8176745 ], [ 8.4062546, 7.819724 ], [ 8.4063456, 7.8252058 ], [ 8.4063548, 7.8274939 ], [ 8.4059918, 7.8296354 ], [ 8.4037777, 7.8344708 ], [ 8.401507, 7.8382082 ], [ 8.4011695, 7.8403729 ], [ 8.4010341, 7.841721 ], [ 8.4009022, 7.8448564 ], [ 8.4006137, 7.8471945 ], [ 8.4000307, 7.8484158 ], [ 8.3993659, 7.8502554 ], [ 8.3988789, 7.8525446 ], [ 8.3985015, 7.8556583 ], [ 8.3984746, 7.8573778 ], [ 8.396644, 7.8647237 ], [ 8.3941789, 7.8728684 ], [ 8.3934239, 7.8752714 ], [ 8.3918789, 7.878803 ], [ 8.3915818, 7.8806865 ], [ 8.3918195, 7.8836883 ], [ 8.3919978, 7.8865723 ], [ 8.3911065, 7.8904569 ], [ 8.3890268, 7.8926346 ], [ 8.3849862, 7.8942238 ], [ 8.3818964, 7.8949301 ], [ 8.3792819, 7.8963426 ], [ 8.3757167, 7.8978729 ], [ 8.3739935, 7.8992266 ], [ 8.3708443, 7.9022282 ], [ 8.3479161, 7.9281514 ], [ 8.3397162, 7.9609895 ], [ 8.3444067, 7.9734157 ], [ 8.3602962, 7.9622836 ], [ 8.3602962, 7.9872761 ], [ 8.3634529, 8.0165844 ], [ 8.3711176, 8.0463438 ], [ 8.3909133, 8.0782938 ], [ 8.4035014, 8.0902525 ], [ 8.4136798, 8.0999221 ], [ 8.4265785, 8.1121759 ], [ 8.466258, 8.1392298 ], [ 8.4860983, 8.1491499 ], [ 8.5013182, 8.1569551 ], [ 8.5036831, 8.1581678 ], [ 8.5126801, 8.1577768 ], [ 8.5244246, 8.1572657 ], [ 8.5604963, 8.140132 ], [ 8.5880013, 8.1288586 ], [ 8.5898698, 8.1283786 ], [ 8.6011434, 8.1254828 ], [ 8.6371498, 8.1162338 ], [ 8.6910353, 8.0982723 ], [ 8.6966686, 8.0963945 ], [ 8.7046428, 8.0943796 ], [ 8.7805367, 8.075202 ], [ 8.7821865, 8.0749934 ], [ 8.8197651, 8.0702419 ], [ 8.8418589, 8.0670853 ], [ 8.900515, 8.0583488 ], [ 8.9108467, 8.0562639 ], [ 8.9640841, 8.0612742 ], [ 9.0253754, 8.0625763 ], [ 9.0501757, 8.075202 ], [ 9.0570202, 8.0776415 ], [ 9.0624666, 8.0744734 ], [ 9.0676756, 8.0675201 ], [ 9.0835419, 8.0463438 ], [ 9.0934286, 8.0340614 ], [ 9.0984221, 8.0278568 ], [ 9.1146545, 8.0080175 ], [ 9.1326904, 7.991334 ], [ 9.1343528, 7.9886397 ], [ 9.1457663, 7.9701419 ], [ 9.1638021, 7.9367752 ], [ 9.1755257, 7.9164844 ], [ 9.1761339, 7.9150649 ], [ 9.1791258, 7.9080834 ], [ 9.1809368, 7.9038591 ], [ 9.1831913, 7.8957429 ], [ 9.181838, 7.891685 ], [ 9.1782312, 7.8885288 ], [ 9.1746235, 7.887176 ], [ 9.1721706, 7.886631 ], [ 9.1704292, 7.8822761 ], [ 9.1625185, 7.8690925 ], [ 9.1620121, 7.8687193 ], [ 9.1499939, 7.8598638 ], [ 9.1401062, 7.8486576 ], [ 9.1242857, 7.8269048 ], [ 9.1157169, 7.8084474 ], [ 9.1203308, 7.7932863 ], [ 9.1302185, 7.788013 ], [ 9.1565857, 7.7979007 ], [ 9.1745347, 7.8045873 ], [ 9.1902046, 7.8104248 ], [ 9.2251415, 7.8183351 ], [ 9.2684019, 7.822541 ], [ 9.2726021, 7.8229494 ], [ 9.3147898, 7.834815 ], [ 9.3780718, 7.8433843 ], [ 9.3866405, 7.8447027 ], [ 9.401508, 7.8444418 ], [ 9.4890236, 7.8429062 ], [ 9.499361, 7.8427248 ], [ 9.5613241, 7.8387762 ], [ 9.5672677, 7.8374121 ], [ 9.5758514, 7.8354421 ], [ 9.6015348, 7.8295412 ], [ 9.6430626, 7.7998781 ], [ 9.6694298, 7.7629638 ], [ 9.6905443, 7.7284913 ], [ 9.7017298, 7.7102294 ], [ 9.7112828, 7.6985996 ], [ 9.7304138, 7.6753098 ], [ 9.7369205, 7.6673886 ], [ 9.7472134, 7.6548581 ], [ 9.7976999, 7.614686 ], [ 9.8085175, 7.6060786 ], [ 9.8163662, 7.5978475 ], [ 9.821372, 7.5948725 ], [ 9.8300752, 7.5875982 ], [ 9.8399887, 7.5792742 ], [ 9.8457613, 7.5744376 ], [ 9.8708105, 7.5401602 ], [ 9.8804178, 7.5172415 ], [ 9.8838431, 7.5097503 ], [ 9.8846531, 7.5078602 ], [ 9.888608, 7.4617176 ], [ 9.8826761, 7.4142561 ], [ 9.8652077, 7.3628402 ], [ 9.855979, 7.3252664 ], [ 9.8408175, 7.2797828 ], [ 9.8384249, 7.2755014 ], [ 9.8282928, 7.2573709 ], [ 9.8249588, 7.2545981 ], [ 9.827018, 7.2440018 ], [ 9.8286228, 7.2362771 ], [ 9.8316087, 7.227618 ], [ 9.8352146, 7.2171607 ], [ 9.8345556, 7.1993628 ], [ 9.8240089, 7.1723361 ], [ 9.8232889, 7.1715132 ], [ 9.7617159, 7.1011443 ], [ 9.7379856, 7.078073 ], [ 9.7208995, 7.0483198 ], [ 9.7006563, 7.0130689 ], [ 9.6997528, 7.0114956 ], [ 9.6892061, 6.9864469 ], [ 9.6823061, 6.9724652 ], [ 9.6641569, 6.9356894 ], [ 9.6456995, 6.8948202 ], [ 9.6414146, 6.8664756 ], [ 9.6433926, 6.8434038 ], [ 9.6474697, 6.8092601 ], [ 9.6486664, 6.7992387 ], [ 9.6460295, 6.7385941 ], [ 9.6361418, 6.7128859 ], [ 9.6313631, 6.6960476 ], [ 9.6273945, 6.6820636 ], [ 9.6222982, 6.6641064 ], [ 9.6091206, 6.5872329 ], [ 9.6064787, 6.5718207 ], [ 9.6053533, 6.562257 ], [ 9.5994817, 6.5123572 ], [ 9.5980138, 6.4998821 ] ] ] } }
]
}
