{
"type": "FeatureCollection",
"name": "Zamfara_state_boundary",
"crs": { "type": "name", "properties": { "name": "urn:ogc:def:crs:OGC:1.3:CRS84" } },
"features": [
{ "type": "Feature", "properties": { "state_code": "ZA", "state_name": "Zamfara", "cap_city": "Gusau", "geo_zone": "NWZ" }, "geometry": { "type": "Polygon", "coordinates": [ [ [ 6.2665485, 10.9661064 ], [ 6.2423034, 10.9886231 ], [ 6.2235057, 10.9964753 ], [ 6.2082772, 11.0048034 ], [ 6.1961419, 11.0176525 ], [ 6.1626391, 11.0430176 ], [ 6.1275183, 11.0538679 ], [ 6.1199516, 11.0597214 ], [ 6.1126704, 11.0612918 ], [ 6.0965377, 11.0592931 ], [ 6.0778351, 11.0562949 ], [ 6.0659854, 11.05501 ], [ 6.0464, 11.0544 ], [ 6.044778, 11.0574193 ], [ 6.0399, 11.0665 ], [ 6.0334142, 11.0744271 ], [ 6.0327, 11.0753 ], [ 6.0311, 11.0841 ], [ 6.0268677, 11.0990013 ], [ 6.0263, 11.101 ], [ 6.0262923, 11.1010377 ], [ 6.0166656, 11.118289 ], [ 6.0140416, 11.1296512 ], [ 6.0158784, 11.1379028 ], [ 6.0159, 11.138 ], [ 6.0254295, 11.1716629 ], [ 6.0253462, 11.1717278 ], [ 6.0289523, 11.1761299 ], [ 6.0323749, 11.1813343 ], [ 6.0415303, 11.1989612 ], [ 6.0484611, 11.2097048 ], [ 6.0552207, 11.2177622 ], [ 6.0562706, 11.2223609 ], [ 6.0562184, 11.2223784 ], [ 6.0590711, 11.2297639 ], [ 6.0699378, 11.2270782 ], [ 6.0658789, 11.2101972 ], [ 6.0547073, 11.2016472 ], [ 6.0470342, 11.1636012 ], [ 6.0468748, 11.1628105 ], [ 6.0468353, 11.1626149 ], [ 6.0515278, 11.162711 ], [ 6.0621482, 11.1629284 ], [ 6.0692785, 11.1641875 ], [ 6.0762535, 11.1686886 ], [ 6.0957, 11.1769 ], [ 6.1059195, 11.1833454 ], [ 6.1128093, 11.1971055 ], [ 6.1172373, 11.2074024 ], [ 6.1172922, 11.2204336 ], [ 6.1165188, 11.2238839 ], [ 6.1147937, 11.2270961 ], [ 6.1129497, 11.229773 ], [ 6.1108676, 11.2329258 ], [ 6.109083, 11.2354242 ], [ 6.1086666, 11.2383986 ], [ 6.1097969, 11.2423247 ], [ 6.1124548, 11.2453347 ], [ 6.1179573, 11.2574997 ], [ 6.1217562, 11.2646376 ], [ 6.1357236, 11.2953745 ], [ 6.1477587, 11.305567 ], [ 6.1730807, 11.3178561 ], [ 6.1905645, 11.3340817 ], [ 6.1749823, 11.3589939 ], [ 6.174735, 11.3593892 ], [ 6.2035985, 11.3829924 ], [ 6.2044315, 11.3836736 ], [ 6.2008815, 11.3900119 ], [ 6.1775889, 11.3839539 ], [ 6.1542963, 11.3830219 ], [ 6.1314838, 11.3838928 ], [ 6.1278619, 11.3844939 ], [ 6.1244942, 11.384871 ], [ 6.0922881, 11.3862917 ], [ 6.0870972, 11.3871398 ], [ 6.0795704, 11.388412 ], [ 6.0756772, 11.390193 ], [ 6.0736873, 11.3913804 ], [ 6.0537, 11.4008 ], [ 6.0529445, 11.4015431 ], [ 6.0388467, 11.4207293 ], [ 6.0300532, 11.4435537 ], [ 6.0280186, 11.4439319 ], [ 6.0256509, 11.4449267 ], [ 6.0095434, 11.4626467 ], [ 5.9679532, 11.4669102 ], [ 5.9611606, 11.4540549 ], [ 5.9462731, 11.4495422 ], [ 5.9366039, 11.443826 ], [ 5.9337991, 11.4366401 ], [ 5.890599, 11.440457 ], [ 5.876053, 11.4396183 ], [ 5.8656451, 11.4377974 ], [ 5.8441521, 11.4327656 ], [ 5.835453, 11.4353515 ], [ 5.8302479, 11.4398244 ], [ 5.826754, 11.4442971 ], [ 5.8237159, 11.4566703 ], [ 5.8240012, 11.4678514 ], [ 5.8242865, 11.4886345 ], [ 5.8245717, 11.4984868 ], [ 5.8164431, 11.5154654 ], [ 5.8171561, 11.5367745 ], [ 5.8158955, 11.5423719 ], [ 5.8162893, 11.5463129 ], [ 5.8173419, 11.5477381 ], [ 5.8168193, 11.5516164 ], [ 5.8159518, 11.5531921 ], [ 5.8169216, 11.5565217 ], [ 5.8178564, 11.5570878 ], [ 5.8171996, 11.5601197 ], [ 5.8186909, 11.56149 ], [ 5.8192912, 11.5646565 ], [ 5.821366, 11.5663403 ], [ 5.820943, 11.5693757 ], [ 5.8204082, 11.5710639 ], [ 5.8199923, 11.572752 ], [ 5.8200229, 11.5746709 ], [ 5.8202724, 11.5751948 ], [ 5.8207716, 11.5755092 ], [ 5.8209498, 11.5761728 ], [ 5.8214133, 11.5766967 ], [ 5.8223402, 11.577011 ], [ 5.8230176, 11.5775698 ], [ 5.8235321, 11.5776627 ], [ 5.8242298, 11.5783382 ], [ 5.8261194, 11.5792463 ], [ 5.8265828, 11.5821801 ], [ 5.8265828, 11.5860918 ], [ 5.8273672, 11.5886414 ], [ 5.8288289, 11.5896891 ], [ 5.8297559, 11.5917497 ], [ 5.8298985, 11.594369 ], [ 5.8288388, 11.6248148 ], [ 5.8222766, 11.6343346 ], [ 5.8194934, 11.6484399 ], [ 5.8028053, 11.6642075 ], [ 5.7878315, 11.6788717 ], [ 5.7803258, 11.6838981 ], [ 5.760736, 11.6865527 ], [ 5.7558315, 11.6862758 ], [ 5.7207431, 11.6877505 ], [ 5.7050309, 11.687973 ], [ 5.7044757, 11.6868814 ], [ 5.6961971, 11.6706034 ], [ 5.6961252, 11.6705577 ], [ 5.6910228, 11.667317 ], [ 5.6696878, 11.6614448 ], [ 5.659627, 11.6626712 ], [ 5.64608, 11.6628561 ], [ 5.6393685, 11.6628561 ], [ 5.6049, 11.6686 ], [ 5.5962168, 11.6715113 ], [ 5.5802448, 11.6754218 ], [ 5.5640825, 11.6843597 ], [ 5.5537345, 11.6766899 ], [ 5.5531423, 11.6756074 ], [ 5.551464, 11.6725516 ], [ 5.546506, 11.668726 ], [ 5.5417498, 11.6659642 ], [ 5.5416, 11.6657 ], [ 5.5275088, 11.6612904 ], [ 5.5258926, 11.6640837 ], [ 5.5219947, 11.6666907 ], [ 5.5204735, 11.6694839 ], [ 5.5182869, 11.6707874 ], [ 5.5155298, 11.6705081 ], [ 5.5152599, 11.6694509 ], [ 5.5140748, 11.6648091 ], [ 5.5137327, 11.6647421 ], [ 5.5095019, 11.6639133 ], [ 5.505795, 11.6630813 ], [ 5.5053274, 11.6620209 ], [ 5.5043277, 11.6597535 ], [ 5.5041308, 11.6595848 ], [ 5.5024743, 11.6581652 ], [ 5.5001575, 11.6572576 ], [ 5.4972228, 11.6558962 ], [ 5.4937476, 11.657182 ], [ 5.4813142, 11.6648209 ], [ 5.4791518, 11.6645183 ], [ 5.4745955, 11.6642914 ], [ 5.4711975, 11.6638376 ], [ 5.4690351, 11.665199 ], [ 5.4678185, 11.6667124 ], [ 5.4659112, 11.6693075 ], [ 5.4630591, 11.6704248 ], [ 5.4614904, 11.6713559 ], [ 5.4599996, 11.6730646 ], [ 5.4594591, 11.6781317 ], [ 5.4600769, 11.6816862 ], [ 5.4602313, 11.6844088 ], [ 5.4576828, 11.6907613 ], [ 5.45637, 11.6950719 ], [ 5.4541304, 11.6989286 ], [ 5.448879, 11.7025585 ], [ 5.4456355, 11.7046002 ], [ 5.4428553, 11.7070201 ], [ 5.4401524, 11.708835 ], [ 5.4363683, 11.7081544 ], [ 5.4328931, 11.7073982 ], [ 5.4298071, 11.7076831 ], [ 5.4294005, 11.7073116 ], [ 5.4289944, 11.7068024 ], [ 5.4284523, 11.7067196 ], [ 5.4281671, 11.706971 ], [ 5.4278556, 11.7074287 ], [ 5.4273414, 11.7074808 ], [ 5.4264296, 11.7076505 ], [ 5.4256572, 11.7079065 ], [ 5.4243856, 11.7080927 ], [ 5.4236963, 11.7084069 ], [ 5.4232923, 11.7086513 ], [ 5.4226505, 11.708756 ], [ 5.4222328, 11.7087302 ], [ 5.421474, 11.7085698 ], [ 5.4210796, 11.7082844 ], [ 5.4205114, 11.7082673 ], [ 5.420122, 11.7082796 ], [ 5.4198816, 11.7082207 ], [ 5.4195607, 11.7076971 ], [ 5.4185149, 11.7069291 ], [ 5.4176141, 11.7061014 ], [ 5.4151582, 11.7053996 ], [ 5.4127631, 11.704334 ], [ 5.4113349, 11.7038994 ], [ 5.4105047, 11.7039426 ], [ 5.4094935, 11.7039953 ], [ 5.4076648, 11.7037987 ], [ 5.4065953, 11.7034845 ], [ 5.4057734, 11.7029681 ], [ 5.4051692, 11.7028794 ], [ 5.4046938, 11.7029609 ], [ 5.4037906, 11.7033915 ], [ 5.4013074, 11.7052808 ], [ 5.3991429, 11.7082725 ], [ 5.3984526, 11.709454 ], [ 5.3970092, 11.7120301 ], [ 5.3964502, 11.7120822 ], [ 5.3957795, 11.7121448 ], [ 5.3943602, 11.7108926 ], [ 5.3940254, 11.7107343 ], [ 5.3935335, 11.7107977 ], [ 5.3934445, 11.7110894 ], [ 5.3930674, 11.7115075 ], [ 5.392692, 11.7115709 ], [ 5.3920577, 11.7116596 ], [ 5.3914278, 11.7114882 ], [ 5.3907244, 11.711292 ], [ 5.3898311, 11.7113554 ], [ 5.389158, 11.7115329 ], [ 5.3886014, 11.7113807 ], [ 5.387514, 11.7115709 ], [ 5.3867761, 11.7118497 ], [ 5.3860739, 11.7120459 ], [ 5.3853771, 11.7121115 ], [ 5.3758794, 11.7095979 ], [ 5.3730299, 11.7124937 ], [ 5.3709869, 11.7136616 ], [ 5.3700362, 11.7137547 ], [ 5.3696369, 11.7141457 ], [ 5.3689334, 11.7143691 ], [ 5.3679636, 11.7140154 ], [ 5.3673383, 11.7137702 ], [ 5.3667467, 11.7138478 ], [ 5.3658721, 11.7138851 ], [ 5.3654728, 11.7136058 ], [ 5.3650734, 11.7127307 ], [ 5.3650421, 11.7126357 ], [ 5.3648643, 11.7120977 ], [ 5.3644929, 11.7113737 ], [ 5.3643417, 11.7112516 ], [ 5.3639136, 11.7109061 ], [ 5.3622783, 11.7101241 ], [ 5.3616318, 11.7101055 ], [ 5.3601253, 11.7101577 ], [ 5.3548247, 11.7097331 ], [ 5.3527902, 11.7093235 ], [ 5.3516112, 11.7093328 ], [ 5.3498677, 11.7093466 ], [ 5.3490443, 11.7100683 ], [ 5.3492605, 11.7111795 ], [ 5.3492725, 11.7112412 ], [ 5.3493125, 11.7113108 ], [ 5.3498619, 11.7122653 ], [ 5.3503563, 11.7135127 ], [ 5.3506121, 11.7145856 ], [ 5.3507303, 11.7153271 ], [ 5.3507556, 11.7154862 ], [ 5.3512975, 11.7163799 ], [ 5.351868, 11.7169803 ], [ 5.3521389, 11.7172177 ], [ 5.3526784, 11.7174018 ], [ 5.353294, 11.7177344 ], [ 5.3546149, 11.7192696 ], [ 5.3549842, 11.7196989 ], [ 5.3558752, 11.7222167 ], [ 5.3555187, 11.7227752 ], [ 5.3547068, 11.7234922 ], [ 5.3542063, 11.7244786 ], [ 5.3537549, 11.7263938 ], [ 5.3532798, 11.7273831 ], [ 5.3529492, 11.7280953 ], [ 5.352852, 11.7285141 ], [ 5.3528092, 11.7290726 ], [ 5.3527094, 11.7296311 ], [ 5.352253, 11.7298824 ], [ 5.3517254, 11.7302315 ], [ 5.3513831, 11.7305387 ], [ 5.3505275, 11.7305527 ], [ 5.3500263, 11.7310058 ], [ 5.3490803, 11.7315521 ], [ 5.3484169, 11.7316837 ], [ 5.3477904, 11.7319124 ], [ 5.3426118, 11.7334453 ], [ 5.340795, 11.7344617 ], [ 5.3399299, 11.7364947 ], [ 5.3386321, 11.7379347 ], [ 5.3365225, 11.7395831 ], [ 5.3358636, 11.7412382 ], [ 5.3362097, 11.7435253 ], [ 5.3363827, 11.7449652 ], [ 5.3357771, 11.7463205 ], [ 5.3364693, 11.7478452 ], [ 5.3366423, 11.7494545 ], [ 5.3360367, 11.751318 ], [ 5.3347389, 11.753012 ], [ 5.3347389, 11.7560613 ], [ 5.3332682, 11.7581788 ], [ 5.3331817, 11.7594493 ], [ 5.3318839, 11.7624137 ], [ 5.3308458, 11.7653782 ], [ 5.3302401, 11.768512 ], [ 5.3288559, 11.7702059 ], [ 5.3279907, 11.7721539 ], [ 5.3263469, 11.7730856 ], [ 5.3233189, 11.7731703 ], [ 5.3202044, 11.773509 ], [ 5.3192527, 11.7730856 ], [ 5.317955, 11.771307 ], [ 5.317917, 11.7709911 ], [ 5.3177819, 11.7698671 ], [ 5.3172524, 11.7693919 ], [ 5.3167437, 11.7689355 ], [ 5.3152074, 11.7680926 ], [ 5.3139752, 11.7672415 ], [ 5.3130236, 11.765717 ], [ 5.3115528, 11.7639383 ], [ 5.3102537, 11.7620667 ], [ 5.3090439, 11.7608892 ], [ 5.307054, 11.7582635 ], [ 5.3051507, 11.7571624 ], [ 5.3022957, 11.7562307 ], [ 5.3000463, 11.7554684 ], [ 5.2982294, 11.755299 ], [ 5.2972778, 11.7548754 ], [ 5.2961531, 11.755299 ], [ 5.2960666, 11.7564001 ], [ 5.2967587, 11.7588564 ], [ 5.2969811, 11.7600538 ], [ 5.2971047, 11.7607198 ], [ 5.2989216, 11.762329 ], [ 5.3007384, 11.7635995 ], [ 5.3034204, 11.765717 ], [ 5.3057563, 11.7678344 ], [ 5.3084383, 11.7695283 ], [ 5.3100748, 11.7707867 ], [ 5.3131752, 11.7722879 ], [ 5.3155117, 11.7750267 ], [ 5.316956, 11.7770714 ], [ 5.31751, 11.7778558 ], [ 5.3181556, 11.7818585 ], [ 5.3183401, 11.7848681 ], [ 5.3176945, 11.7875766 ], [ 5.3157576, 11.7908269 ], [ 5.3122529, 11.7929335 ], [ 5.3095475, 11.7936859 ], [ 5.307211, 11.7930539 ], [ 5.3044133, 11.792452 ], [ 5.3027224, 11.7920909 ], [ 5.3015282, 11.7908165 ], [ 5.3014249, 11.7902593 ], [ 5.3006089, 11.7858569 ], [ 5.3003058, 11.7824019 ], [ 5.3000052, 11.7809295 ], [ 5.2995932, 11.7807765 ], [ 5.2991811, 11.7806234 ], [ 5.2988153, 11.7796207 ], [ 5.2987485, 11.7794376 ], [ 5.2982513, 11.7786379 ], [ 5.2975373, 11.7774897 ], [ 5.2958935, 11.7759652 ], [ 5.2958597, 11.7754026 ], [ 5.295807, 11.7745254 ], [ 5.2952485, 11.7741837 ], [ 5.2951149, 11.7741019 ], [ 5.2928105, 11.7742219 ], [ 5.2914812, 11.7722386 ], [ 5.2895064, 11.7713809 ], [ 5.2880206, 11.7694436 ], [ 5.2865499, 11.7692742 ], [ 5.2856847, 11.7703753 ], [ 5.2849061, 11.7718998 ], [ 5.2836948, 11.7724927 ], [ 5.281878, 11.7729162 ], [ 5.2792826, 11.7742713 ], [ 5.2772062, 11.7751182 ], [ 5.2755624, 11.7752029 ], [ 5.2742647, 11.7758805 ], [ 5.2736591, 11.7773203 ], [ 5.2723613, 11.7788448 ], [ 5.2707967, 11.7800289 ], [ 5.2681212, 11.7790792 ], [ 5.2652671, 11.7766428 ], [ 5.2637963, 11.7751182 ], [ 5.2621525, 11.7748642 ], [ 5.2599896, 11.774356 ], [ 5.2579133, 11.773509 ], [ 5.256702, 11.7737631 ], [ 5.2546257, 11.7740172 ], [ 5.2516515, 11.7743253 ], [ 5.2547759, 11.7673022 ], [ 5.2538046, 11.7648127 ], [ 5.2379685, 11.7558871 ], [ 5.2288496, 11.7564081 ], [ 5.2244318, 11.7573318 ], [ 5.2231305, 11.7567349 ], [ 5.2206251, 11.7571624 ], [ 5.2193274, 11.7577553 ], [ 5.2192409, 11.7597034 ], [ 5.2198243, 11.7616388 ], [ 5.2207981, 11.7636842 ], [ 5.2207116, 11.7655476 ], [ 5.2194139, 11.7664792 ], [ 5.2173375, 11.7670721 ], [ 5.2152516, 11.7684211 ], [ 5.2138769, 11.77046 ], [ 5.2149151, 11.7719845 ], [ 5.2150016, 11.7741019 ], [ 5.2141364, 11.7751182 ], [ 5.211887, 11.7762193 ], [ 5.2085995, 11.777405 ], [ 5.206177, 11.7786754 ], [ 5.2022838, 11.7807927 ], [ 5.1997749, 11.781555 ], [ 5.1968334, 11.7824019 ], [ 5.1951896, 11.7835876 ], [ 5.1927671, 11.7834182 ], [ 5.1906439, 11.7841463 ], [ 5.1896526, 11.7854508 ], [ 5.1898256, 11.7865518 ], [ 5.1880088, 11.7882456 ], [ 5.1858459, 11.7886691 ], [ 5.1848942, 11.7902782 ], [ 5.1824718, 11.791972 ], [ 5.1800494, 11.7926495 ], [ 5.1778865, 11.7923954 ], [ 5.1773674, 11.7911251 ], [ 5.1772809, 11.7894313 ], [ 5.1772809, 11.7878222 ], [ 5.1765022, 11.7866365 ], [ 5.1755506, 11.7850274 ], [ 5.1741663, 11.7834182 ], [ 5.1717439, 11.7832488 ], [ 5.1703596, 11.7833335 ], [ 5.1690619, 11.7824019 ], [ 5.1673316, 11.7811315 ], [ 5.1662069, 11.7798611 ], [ 5.1666988, 11.778322 ], [ 5.1675046, 11.777405 ], [ 5.1680237, 11.7758805 ], [ 5.1694945, 11.7739325 ], [ 5.1707922, 11.7722386 ], [ 5.1717439, 11.77046 ], [ 5.1729551, 11.7690202 ], [ 5.1744259, 11.7680038 ], [ 5.1762427, 11.7680038 ], [ 5.1787516, 11.7681732 ], [ 5.180828, 11.7678344 ], [ 5.1829044, 11.7673262 ], [ 5.1835965, 11.7661405 ], [ 5.183337, 11.76487 ], [ 5.1831639, 11.7635995 ], [ 5.1839426, 11.7615667 ], [ 5.1840291, 11.7597034 ], [ 5.1829909, 11.7577553 ], [ 5.1823853, 11.7553837 ], [ 5.1817797, 11.7534355 ], [ 5.1818662, 11.7518262 ], [ 5.1814336, 11.7503016 ], [ 5.1803106, 11.7483795 ], [ 5.1788157, 11.7470303 ], [ 5.1774477, 11.7441326 ], [ 5.1757994, 11.7433682 ], [ 5.1728498, 11.7427736 ], [ 5.1702472, 11.7421791 ], [ 5.1688592, 11.7426887 ], [ 5.1681651, 11.743623 ], [ 5.1659096, 11.7437929 ], [ 5.1638275, 11.7432833 ], [ 5.1628732, 11.7417544 ], [ 5.1617454, 11.7420941 ], [ 5.1588826, 11.7407351 ], [ 5.158362, 11.7387815 ], [ 5.157668, 11.7371677 ], [ 5.1565402, 11.736743 ], [ 5.1554992, 11.7373376 ], [ 5.1538509, 11.7378472 ], [ 5.1511615, 11.7385267 ], [ 5.1489927, 11.7374225 ], [ 5.1478649, 11.7378472 ], [ 5.1458696, 11.7369129 ], [ 5.1450021, 11.732496 ], [ 5.1428332, 11.7314767 ], [ 5.1404042, 11.7304574 ], [ 5.1379751, 11.7302026 ], [ 5.1370208, 11.7307972 ], [ 5.134852, 11.7302875 ], [ 5.1341579, 11.7284188 ], [ 5.1333772, 11.7290134 ], [ 5.1322494, 11.7291833 ], [ 5.1308613, 11.7289285 ], [ 5.12956, 11.7289285 ], [ 5.1286925, 11.7301177 ], [ 5.1273044, 11.7309671 ], [ 5.1248754, 11.7297779 ], [ 5.1223595, 11.7306273 ], [ 5.1188026, 11.7324111 ], [ 5.1154193, 11.7333454 ], [ 5.1123829, 11.7346195 ], [ 5.108479, 11.7349593 ], [ 5.1073055, 11.7362402 ], [ 5.1030136, 11.7378472 ], [ 5.1005845, 11.7372526 ], [ 5.0973746, 11.736828 ], [ 5.0947861, 11.7364746 ], [ 5.093037, 11.7356388 ], [ 5.0908805, 11.7346741 ], [ 5.0846219, 11.7324111 ], [ 5.081412, 11.7323261 ], [ 5.078409, 11.7308715 ], [ 5.0760262, 11.7286988 ], [ 5.0742983, 11.7270598 ], [ 5.0731705, 11.7268899 ], [ 5.0718692, 11.7247663 ], [ 5.0714354, 11.722218 ], [ 5.0711752, 11.7199245 ], [ 5.0697004, 11.717631 ], [ 5.0669243, 11.7142332 ], [ 5.0651025, 11.7114299 ], [ 5.0655362, 11.7088815 ], [ 5.0628469, 11.708117 ], [ 5.0615456, 11.7087966 ], [ 5.0605913, 11.7094761 ], [ 5.0594635, 11.7110901 ], [ 5.0578152, 11.7116848 ], [ 5.0566007, 11.7127891 ], [ 5.0540848, 11.7155074 ], [ 5.0527835, 11.7172912 ], [ 5.051569, 11.7200944 ], [ 5.0497472, 11.7211137 ], [ 5.0470578, 11.7224728 ], [ 5.0440735, 11.7238319 ], [ 5.0417312, 11.7245115 ], [ 5.0380875, 11.7234072 ], [ 5.0371333, 11.7227277 ], [ 5.0360055, 11.7211987 ], [ 5.0345307, 11.7206041 ], [ 5.0341837, 11.7194998 ], [ 5.0324486, 11.7194148 ], [ 5.0302798, 11.7198396 ], [ 5.0288917, 11.7221331 ], [ 5.0271567, 11.7230674 ], [ 5.0271567, 11.7245964 ], [ 5.0272434, 11.7274845 ], [ 5.0281977, 11.7291833 ], [ 5.028458, 11.7309671 ], [ 5.0273302, 11.7336002 ], [ 5.0252481, 11.7342798 ], [ 5.022819, 11.7362334 ], [ 5.0202375, 11.7388991 ], [ 5.0145487, 11.7442413 ], [ 5.0100056, 11.7454413 ], [ 5.008765, 11.7493137 ], [ 5.0071167, 11.7497384 ], [ 5.0067697, 11.7484644 ], [ 5.0057005, 11.7465785 ], [ 5.0004871, 11.7479556 ], [ 4.997862, 11.7469154 ], [ 4.9952995, 11.7446512 ], [ 4.9933016, 11.745529 ], [ 4.9923176, 11.7465527 ], [ 4.9898619, 11.7464258 ], [ 4.9879868, 11.7450184 ], [ 4.9870734, 11.740674 ], [ 4.9840786, 11.7392778 ], [ 4.9795152, 11.7374626 ], [ 4.9773048, 11.7369739 ], [ 4.9737396, 11.7381608 ], [ 4.9722422, 11.7378815 ], [ 4.9694364, 11.7368653 ], [ 4.96611, 11.7359966 ], [ 4.9649692, 11.7368343 ], [ 4.9639229, 11.7385123 ], [ 4.9602908, 11.7397324 ], [ 4.9564613, 11.7391681 ], [ 4.9527049, 11.7392778 ], [ 4.9507089, 11.7379147 ], [ 4.9474983, 11.7360676 ], [ 4.9450041, 11.7350192 ], [ 4.9441157, 11.7322727 ], [ 4.9410111, 11.7308303 ], [ 4.9293, 11.7645616 ], [ 4.9196, 11.7899 ], [ 4.9230691, 11.794832 ], [ 4.9228, 11.7972 ], [ 4.9238, 11.8023 ], [ 4.9254, 11.8084 ], [ 4.9264, 11.8138 ], [ 4.9259, 11.8171 ], [ 4.9262148, 11.8202185 ], [ 4.9281573, 11.8263897 ], [ 4.9313, 11.8361 ], [ 4.935, 11.8451 ], [ 4.9371, 11.8487 ], [ 4.9446, 11.8551 ], [ 4.953, 11.8633 ], [ 4.9592, 11.8685 ], [ 4.9682171, 11.8756829 ], [ 4.9444, 11.8808 ], [ 4.8666996, 11.9327371 ], [ 4.8707133, 12.0286016 ], [ 4.8607454, 12.0476062 ], [ 4.863346, 12.0593772 ], [ 4.8645907, 12.0676508 ], [ 4.8645526, 12.0909124 ], [ 4.8745796, 12.1182438 ], [ 4.8685827, 12.1329011 ], [ 4.86635, 12.1364257 ], [ 4.8617305, 12.1596464 ], [ 4.8726761, 12.2081874 ], [ 4.8750303, 12.2297287 ], [ 4.9335837, 12.2306518 ], [ 4.9504, 12.2313 ], [ 4.9529495, 12.3144141 ], [ 4.9668485, 12.3078638 ], [ 4.9976, 12.3007 ], [ 5.038448, 12.298296 ], [ 5.0644, 12.2974 ], [ 5.0849441, 12.2939417 ], [ 5.1020978, 12.2849018 ], [ 5.1167, 12.2834 ], [ 5.1241005, 12.2857972 ], [ 5.1280069, 12.2856817 ], [ 5.1334707, 12.2887877 ], [ 5.1354225, 12.2906979 ], [ 5.1379466, 12.2931596 ], [ 5.1444064, 12.3016453 ], [ 5.1452553, 12.3026004 ], [ 5.1477153, 12.306466 ], [ 5.1525376, 12.3095266 ], [ 5.1541497, 12.3111964 ], [ 5.155737, 12.3128403 ], [ 5.1602441, 12.3161124 ], [ 5.1715664, 12.3202246 ], [ 5.1771638, 12.319319 ], [ 5.1803033, 12.3215643 ], [ 5.1803382, 12.3215893 ], [ 5.180358, 12.321602 ], [ 5.1803846, 12.3216176 ], [ 5.1818699, 12.3224886 ], [ 5.1886192, 12.322922 ], [ 5.1995155, 12.3229043 ], [ 5.2035971, 12.3224772 ], [ 5.2416283, 12.3312622 ], [ 5.2640178, 12.338019 ], [ 5.2761657, 12.3420412 ], [ 5.2928682, 12.3484394 ], [ 5.3115782, 12.3557736 ], [ 5.3173325, 12.3513063 ], [ 5.3216487, 12.3492431 ], [ 5.3335326, 12.3460506 ], [ 5.3418245, 12.3420846 ], [ 5.3480321, 12.3455508 ], [ 5.3528072, 12.343958 ], [ 5.3601028, 12.337522 ], [ 5.3756856, 12.3283171 ], [ 5.3798666, 12.3262351 ], [ 5.3845372, 12.3242611 ], [ 5.3926193, 12.3294874 ], [ 5.39647, 12.3448772 ], [ 5.4222779, 12.3532622 ], [ 5.4386735, 12.3430403 ], [ 5.4542373, 12.2967309 ], [ 5.4580484, 12.2872696 ], [ 5.4591005, 12.2843487 ], [ 5.4619959, 12.2779949 ], [ 5.4650524, 12.2712876 ], [ 5.467301, 12.2621584 ], [ 5.4691787, 12.2545347 ], [ 5.4696565, 12.2525949 ], [ 5.475761, 12.2524339 ], [ 5.5006701, 12.2571044 ], [ 5.5192759, 12.260593 ], [ 5.5411, 12.2728426 ], [ 5.5666702, 12.351512 ], [ 5.6526, 12.3483 ], [ 5.6915467, 12.3217009 ], [ 5.7505724, 12.3239248 ], [ 5.7505108, 12.3239667 ], [ 5.7551101, 12.3310087 ], [ 5.7538224, 12.3369169 ], [ 5.7567414, 12.338779 ], [ 5.7726238, 12.3834876 ], [ 5.7651533, 12.4095352 ], [ 5.7359066, 12.4485663 ], [ 5.723343, 12.4736934 ], [ 5.7172366, 12.4869257 ], [ 5.7283141, 12.5511398 ], [ 5.7254841, 12.5764864 ], [ 5.7230756, 12.6206349 ], [ 5.6899973, 12.6273553 ], [ 5.6774338, 12.6319239 ], [ 5.6941117, 12.6891366 ], [ 5.6863459, 12.7138646 ], [ 5.674533, 12.7348074 ], [ 5.6492779, 12.768876 ], [ 5.6203764, 12.7870688 ], [ 5.5882094, 12.8040811 ], [ 5.6234307, 12.8599116 ], [ 5.6267428, 12.8664742 ], [ 5.6299138, 12.8727571 ], [ 5.6326245, 12.8770974 ], [ 5.6346804, 12.8829284 ], [ 5.6748845, 12.8679358 ], [ 5.6817127, 12.8651736 ], [ 5.6888846, 12.8565504 ], [ 5.7339875, 12.8267818 ], [ 5.7613564, 12.8314749 ], [ 5.7713256, 12.833336 ], [ 5.80484, 12.837826 ], [ 5.8109755, 12.8391897 ], [ 5.8131328, 12.8396692 ], [ 5.832255, 12.8193699 ], [ 5.8360322, 12.8147703 ], [ 5.8478145, 12.8105461 ], [ 5.8520452, 12.8103144 ], [ 5.8553728, 12.8115195 ], [ 5.8606017, 12.8133273 ], [ 5.8657356, 12.8150423 ], [ 5.8695693, 12.8159194 ], [ 5.8770016, 12.8183796 ], [ 5.88332, 12.8203494 ], [ 5.8879517, 12.8170608 ], [ 5.9113604, 12.799689 ], [ 5.9288384, 12.7870865 ], [ 5.9408969, 12.7774904 ], [ 5.9475, 12.7725 ], [ 5.9507, 12.7653 ], [ 5.9532, 12.764 ], [ 5.9589, 12.7608 ], [ 5.9613, 12.7586 ], [ 5.9616735, 12.754693 ], [ 5.9861039, 12.7547336 ], [ 6.0244133, 12.7487933 ], [ 6.0340776, 12.7840663 ], [ 6.0301711, 12.7953465 ], [ 6.0092536, 12.8798317 ], [ 6.0057881, 12.9191018 ], [ 6.0212, 12.9261 ], [ 6.0348794, 12.9330611 ], [ 6.0438846, 12.937954 ], [ 6.0487294, 12.948325 ], [ 6.0554, 12.9667 ], [ 6.0558, 12.9711 ], [ 6.0557, 12.9722 ], [ 6.0562071, 12.9737892 ], [ 6.0572, 12.9779 ], [ 6.0571, 12.98 ], [ 6.0569, 12.9809 ], [ 6.0572, 12.9855 ], [ 6.057, 12.9863 ], [ 6.057, 12.9884 ], [ 6.0566, 12.9896 ], [ 6.0558, 12.9909 ], [ 6.0556, 12.9928 ], [ 6.0557, 12.994 ], [ 6.0561, 12.9955 ], [ 6.0558, 12.9982 ], [ 6.0549, 13.0003 ], [ 6.0547, 13.0033 ], [ 6.0538, 13.0057 ], [ 6.0533, 13.0086 ], [ 6.0521, 13.011 ], [ 6.0511, 13.0134 ], [ 6.0502, 13.0161 ], [ 6.0498, 13.0181 ], [ 6.0497, 13.0195 ], [ 6.0485532, 13.0235105 ], [ 6.0480705, 13.0265598 ], [ 6.0477, 13.0289 ], [ 6.0468891, 13.0311964 ], [ 6.102, 13.0598 ], [ 6.1136501, 13.0646804 ], [ 6.1443884, 13.0790482 ], [ 6.1908533, 13.1007653 ], [ 6.229355, 13.1354589 ], [ 6.2611057, 13.1357969 ], [ 6.2583093, 13.1603329 ], [ 6.3000373, 13.1824507 ], [ 6.3273211, 13.17955 ], [ 6.3337427, 13.1721369 ], [ 6.3369, 13.1686 ], [ 6.3479, 13.1573 ], [ 6.355913, 13.164135 ], [ 6.3693466, 13.149026 ], [ 6.3621324, 13.1439942 ], [ 6.359031, 13.1371303 ], [ 6.3917357, 13.1298257 ], [ 6.3947278, 13.1302791 ], [ 6.3983554, 13.1301085 ], [ 6.4026016, 13.1291355 ], [ 6.4126455, 13.1380482 ], [ 6.4371214, 13.1533634 ], [ 6.4487549, 13.1583701 ], [ 6.451821, 13.1580924 ], [ 6.4531983, 13.1571977 ], [ 6.4530569, 13.1542505 ], [ 6.4526589, 13.1535723 ], [ 6.4516308, 13.1518203 ], [ 6.450799, 13.1492744 ], [ 6.4502523, 13.1462193 ], [ 6.4503236, 13.1433724 ], [ 6.450799, 13.1409421 ], [ 6.4510903, 13.1406625 ], [ 6.4517883, 13.1399926 ], [ 6.4529823, 13.1388467 ], [ 6.4550442, 13.1392806 ], [ 6.4557902, 13.1394377 ], [ 6.4592366, 13.138859 ], [ 6.4613757, 13.1373545 ], [ 6.463396, 13.136313 ], [ 6.4643616, 13.1340373 ], [ 6.4662481, 13.1306421 ], [ 6.4642279, 13.1282117 ], [ 6.4609104, 13.1245679 ], [ 6.4586424, 13.1243925 ], [ 6.4555803, 13.1237363 ], [ 6.4538888, 13.1261517 ], [ 6.4523201, 13.1256656 ], [ 6.4511079, 13.1237907 ], [ 6.4503949, 13.1220546 ], [ 6.4504662, 13.1194158 ], [ 6.4523654, 13.1169346 ], [ 6.4628, 13.1169 ], [ 6.4756249, 13.1195624 ], [ 6.4818046, 13.1208355 ], [ 6.4891132, 13.1229188 ], [ 6.4925002, 13.1241919 ], [ 6.494461, 13.1254071 ], [ 6.5014132, 13.1285319 ], [ 6.5087129, 13.13152 ], [ 6.5116928, 13.1293999 ], [ 6.5137131, 13.1267959 ], [ 6.5151392, 13.1250599 ], [ 6.5160305, 13.124134 ], [ 6.5174565, 13.1233239 ], [ 6.5194174, 13.1230345 ], [ 6.520487, 13.1218193 ], [ 6.5206058, 13.1195045 ], [ 6.5205464, 13.1171898 ], [ 6.5199522, 13.1150486 ], [ 6.5196551, 13.1138333 ], [ 6.5192962, 13.1129483 ], [ 6.5205796, 13.1111427 ], [ 6.5220057, 13.108226 ], [ 6.5226475, 13.1061426 ], [ 6.5227901, 13.1036425 ], [ 6.523004, 13.1019063 ], [ 6.5225049, 13.0999618 ], [ 6.5205796, 13.0972533 ], [ 6.5191536, 13.0949615 ], [ 6.5187257, 13.0934336 ], [ 6.5191536, 13.0915584 ], [ 6.5200092, 13.0896832 ], [ 6.5223622, 13.0882247 ], [ 6.5252144, 13.0870441 ], [ 6.5267831, 13.0852383 ], [ 6.5264979, 13.0829464 ], [ 6.5251431, 13.0810711 ], [ 6.5232892, 13.079821 ], [ 6.5210788, 13.0787097 ], [ 6.519447, 13.0769468 ], [ 6.5200958, 13.0741762 ], [ 6.5218676, 13.0666089 ], [ 6.5254328, 13.0580423 ], [ 6.5289431, 13.0529129 ], [ 6.5361898, 13.0490484 ], [ 6.5428997, 13.0442456 ], [ 6.5460192, 13.0406277 ], [ 6.5512965, 13.0325345 ], [ 6.56028, 13.0277474 ], [ 6.5740383, 13.0253939 ], [ 6.581263, 13.0225356 ], [ 6.6067906, 13.0466043 ], [ 6.6571772, 13.0927583 ], [ 6.6832, 13.1072 ], [ 6.6842, 13.1183 ], [ 6.6856, 13.1277 ], [ 6.6876957, 13.132894 ], [ 6.7434586, 13.118467 ], [ 6.792772, 13.13226 ], [ 6.8063889, 13.1080551 ], [ 6.8281785, 13.0890342 ], [ 6.8416804, 13.0776154 ], [ 6.8549694, 13.0656454 ], [ 6.8824172, 13.0416809 ], [ 6.9333324, 12.997221 ], [ 6.9717364, 12.9962201 ], [ 7.0323308, 12.9957323 ], [ 7.0417168, 12.995659 ], [ 7.0512667, 12.9954745 ], [ 7.0517462, 12.9896469 ], [ 7.0489511, 12.9868121 ], [ 7.050321, 12.9840259 ], [ 7.0505241, 12.9813644 ], [ 7.0501082, 12.9778324 ], [ 7.0499299, 12.9733739 ], [ 7.050208, 12.9702982 ], [ 7.0487415, 12.9687416 ], [ 7.0486227, 12.9657305 ], [ 7.0497516, 12.9646303 ], [ 7.0492763, 12.9612139 ], [ 7.0545052, 12.9569288 ], [ 7.0565849, 12.9554811 ], [ 7.0590211, 12.9528753 ], [ 7.0597342, 12.9520067 ], [ 7.0597936, 12.951138 ], [ 7.0587835, 12.950501 ], [ 7.0578922, 12.949864 ], [ 7.0583081, 12.948011 ], [ 7.0578176, 12.9463696 ], [ 7.0562284, 12.9438994 ], [ 7.0545647, 12.9433203 ], [ 7.0521879, 12.9432624 ], [ 7.0508806, 12.9416988 ], [ 7.0520096, 12.9393823 ], [ 7.0520096, 12.9382241 ], [ 7.0501676, 12.9374134 ], [ 7.0492169, 12.9347494 ], [ 7.0499299, 12.9333016 ], [ 7.0509995, 12.9326067 ], [ 7.0530792, 12.9327804 ], [ 7.0551116, 12.9303809 ], [ 7.0559704, 12.927909 ], [ 7.0570603, 12.9248462 ], [ 7.0586646, 12.9224717 ], [ 7.0596748, 12.9191126 ], [ 7.0603284, 12.9183018 ], [ 7.0612197, 12.9192864 ], [ 7.0620516, 12.9191126 ], [ 7.0624081, 12.9161589 ], [ 7.0614574, 12.9144793 ], [ 7.0613504, 12.9128052 ], [ 7.0654, 12.9126 ], [ 7.0644878, 12.9101934 ], [ 7.0653791, 12.9092668 ], [ 7.0655616, 12.9075178 ], [ 7.0652602, 12.9056758 ], [ 7.0638936, 12.9031274 ], [ 7.0653791, 12.8975091 ], [ 7.0662169, 12.8925102 ], [ 7.0661804, 12.8895737 ], [ 7.065061, 12.8856535 ], [ 7.0664301, 12.8817332 ], [ 7.0649525, 12.8772413 ], [ 7.0649099, 12.8595388 ], [ 7.0628576, 12.8436 ], [ 7.0632826, 12.8381459 ], [ 7.0685692, 12.8321821 ], [ 7.0560767, 12.8232551 ], [ 7.0664722, 12.8105732 ], [ 7.0664128, 12.7996345 ], [ 7.0604389, 12.7617068 ], [ 7.0607142, 12.7398416 ], [ 7.0430146, 12.7195856 ], [ 7.0196935, 12.7003166 ], [ 6.9889918, 12.6734419 ], [ 7.0003243, 12.6704392 ], [ 7.0165781, 12.666257 ], [ 7.0202245, 12.6653187 ], [ 7.0203182, 12.6652679 ], [ 7.0204582, 12.6651921 ], [ 7.0206298, 12.665147 ], [ 7.0350046, 12.6613703 ], [ 7.0392878, 12.6587401 ], [ 7.0444745, 12.658857 ], [ 7.045636, 12.6532218 ], [ 7.0463, 12.65 ], [ 7.0472, 12.6377 ], [ 7.047, 12.634 ], [ 7.046, 12.6196 ], [ 7.0462992, 12.6176555 ], [ 7.0474407, 12.6110543 ], [ 7.0516, 12.587 ], [ 7.0502198, 12.5750781 ], [ 7.051317, 12.563684 ], [ 7.0521, 12.5534 ], [ 7.0512, 12.5399 ], [ 7.0537, 12.5293 ], [ 7.0537, 12.5163 ], [ 7.0541256, 12.5141333 ], [ 7.0556033, 12.5068173 ], [ 7.0577, 12.497 ], [ 7.0588, 12.4912 ], [ 7.0594, 12.4886 ], [ 7.0599, 12.4808 ], [ 7.0659, 12.4317 ], [ 7.0669, 12.4232 ], [ 7.0683, 12.4113 ], [ 7.0747269, 12.3749824 ], [ 7.0847095, 12.3474703 ], [ 7.0832834, 12.3377185 ], [ 7.0828081, 12.3293595 ], [ 7.0866109, 12.31624 ], [ 7.093266, 12.2825675 ], [ 7.0990891, 12.2771098 ], [ 7.1066949, 12.2714197 ], [ 7.1188165, 12.2602715 ], [ 7.1246397, 12.2552779 ], [ 7.1285188, 12.2519096 ], [ 7.1284634, 12.2518963 ], [ 7.1283457, 12.2518682 ], [ 7.1394947, 12.2432 ], [ 7.1482803, 12.2345447 ], [ 7.1504279, 12.231586 ], [ 7.1499526, 12.2069627 ], [ 7.1568453, 12.1851251 ], [ 7.154825, 12.1774582 ], [ 7.1506, 12.1651 ], [ 7.1456, 12.1472 ], [ 7.1350738, 12.1318244 ], [ 7.1278899, 12.124471 ], [ 7.1261, 12.1135 ], [ 7.1254189, 12.1116555 ], [ 7.1237, 12.107 ], [ 7.1216, 12.1014 ], [ 7.1191, 12.0972 ], [ 7.1172354, 12.0939644 ], [ 7.1332611, 12.0902566 ], [ 7.1363985, 12.0855713 ], [ 7.1362844, 12.0815551 ], [ 7.1366267, 12.0779294 ], [ 7.1339457, 12.0730765 ], [ 7.1302716, 12.068389 ], [ 7.1316996, 12.0648905 ], [ 7.1346944, 12.0634959 ], [ 7.1375542, 12.0619341 ], [ 7.1397569, 12.0638445 ], [ 7.1413969, 12.0650996 ], [ 7.1434647, 12.063984 ], [ 7.1456752, 12.0568018 ], [ 7.1465308, 12.0521995 ], [ 7.1473151, 12.0474577 ], [ 7.1486791, 12.0433504 ], [ 7.1503099, 12.0418092 ], [ 7.150262, 12.0390302 ], [ 7.1496682, 12.0369277 ], [ 7.149169, 12.0350448 ], [ 7.1486699, 12.0330224 ], [ 7.1503099, 12.0314882 ], [ 7.1522123, 12.03106 ], [ 7.1532961, 12.0296095 ], [ 7.1535813, 12.0277684 ], [ 7.1538665, 12.0255925 ], [ 7.1566046, 12.0234167 ], [ 7.1600272, 12.0219661 ], [ 7.1633341, 12.0220179 ], [ 7.1651569, 12.0213297 ], [ 7.1685837, 12.0212408 ], [ 7.1705231, 12.0203481 ], [ 7.1712077, 12.0172795 ], [ 7.171607, 12.0142667 ], [ 7.172976, 12.0121465 ], [ 7.1747443, 12.0101379 ], [ 7.1765127, 12.0083525 ], [ 7.1804486, 12.0079061 ], [ 7.1828445, 12.0061207 ], [ 7.1843846, 12.0037215 ], [ 7.1859818, 12.0019918 ], [ 7.1884917, 12.0015454 ], [ 7.190146, 12.0016012 ], [ 7.1919714, 12.0015454 ], [ 7.1936691, 12.00041 ], [ 7.195394, 11.9994251 ], [ 7.1969046, 11.9983858 ], [ 7.1974475, 11.9957425 ], [ 7.1968155, 11.9953342 ], [ 7.1970056, 11.9945438 ], [ 7.1972961, 11.9937842 ], [ 7.1972908, 11.9926373 ], [ 7.1976236, 11.9912889 ], [ 7.198812, 11.9901729 ], [ 7.2017592, 11.9894754 ], [ 7.2055043, 11.9890306 ], [ 7.2082167, 11.9880183 ], [ 7.2108007, 11.9854619 ], [ 7.2119245, 11.979718 ], [ 7.2095406, 11.9759337 ], [ 7.2097141, 11.9741379 ], [ 7.2109667, 11.9699071 ], [ 7.2110633, 11.9641716 ], [ 7.2139444, 11.962405 ], [ 7.2204666, 11.9609208 ], [ 7.2204666, 11.9568489 ], [ 7.2197514, 11.9514357 ], [ 7.2203218, 11.9497615 ], [ 7.2223183, 11.9495941 ], [ 7.2235111, 11.9517745 ], [ 7.2255436, 11.9522347 ], [ 7.2311766, 11.9494444 ], [ 7.2378792, 11.9455379 ], [ 7.2408502, 11.9420266 ], [ 7.2437974, 11.9388641 ], [ 7.2465682, 11.932563 ], [ 7.2359347, 11.9213634 ], [ 7.2264168, 11.9135112 ], [ 7.2170837, 11.9128735 ], [ 7.2052952, 11.9085444 ], [ 7.2059781, 11.9069105 ], [ 7.1997649, 11.9005145 ], [ 7.1930643, 11.9006516 ], [ 7.1909628, 11.9036973 ], [ 7.191575, 11.9067698 ], [ 7.1907, 11.907 ], [ 7.1825, 11.9095 ], [ 7.1714, 11.9106 ], [ 7.1649571, 11.9090462 ], [ 7.145808, 11.9123701 ], [ 7.1408178, 11.9113405 ], [ 7.1446682, 11.8872693 ], [ 7.1470553, 11.8810319 ], [ 7.1462369, 11.8729651 ], [ 7.1462369, 11.8659173 ], [ 7.1450498, 11.8589688 ], [ 7.1425681, 11.8532865 ], [ 7.141816, 11.8493091 ], [ 7.1007635, 11.820451 ], [ 7.0748, 11.8175 ], [ 7.0744305, 11.8161297 ], [ 7.0724, 11.8086 ], [ 7.0699, 11.8076 ], [ 7.0671, 11.8064 ], [ 7.0626, 11.8045 ], [ 7.0600183, 11.7898754 ], [ 7.0565449, 11.789476 ], [ 7.0550696, 11.7887621 ], [ 7.0497159, 11.7885242 ], [ 7.0443685, 11.7895865 ], [ 7.04261, 11.7903792 ], [ 7.0396365, 11.7961175 ], [ 7.0388084, 11.798259 ], [ 7.0373236, 11.8009145 ], [ 7.0337544, 11.8031131 ], [ 7.0319315, 11.8049827 ], [ 7.0214261, 11.8110781 ], [ 7.0173376, 11.8155849 ], [ 6.9987515, 11.8106128 ], [ 6.9937126, 11.8110316 ], [ 6.9928108, 11.8120207 ], [ 6.9921931, 11.8126981 ], [ 6.9918069, 11.8123201 ], [ 6.9913315, 11.8116512 ], [ 6.9909491, 11.8108421 ], [ 6.989915, 11.8107712 ], [ 6.987796, 11.8101972 ], [ 6.9876404, 11.8113828 ], [ 6.9868453, 11.8122037 ], [ 6.9856569, 11.8124364 ], [ 6.9848718, 11.8121273 ], [ 6.984112, 11.8112731 ], [ 6.9842015, 11.8106595 ], [ 6.9838149, 11.8101681 ], [ 6.9826265, 11.8100517 ], [ 6.9821214, 11.809412 ], [ 6.980428, 11.8090921 ], [ 6.9776649, 11.8081033 ], [ 6.9775682, 11.8084778 ], [ 6.9771302, 11.8091212 ], [ 6.9767736, 11.8085977 ], [ 6.9758823, 11.8060967 ], [ 6.9734402, 11.8031575 ], [ 6.9722993, 11.8032273 ], [ 6.9717645, 11.8039602 ], [ 6.9708019, 11.8038555 ], [ 6.9675576, 11.8042045 ], [ 6.9636359, 11.8044138 ], [ 6.9625663, 11.8037159 ], [ 6.9597794, 11.803503 ], [ 6.9564698, 11.8025642 ], [ 6.9556358, 11.8016397 ], [ 6.9527301, 11.8003331 ], [ 6.9506586, 11.8024247 ], [ 6.9486621, 11.8025991 ], [ 6.948056, 11.8039253 ], [ 6.9469508, 11.8036112 ], [ 6.9468082, 11.8023898 ], [ 6.9457386, 11.8013079 ], [ 6.9453464, 11.7994234 ], [ 6.9435282, 11.7977133 ], [ 6.9414349, 11.7973209 ], [ 6.9404621, 11.7960033 ], [ 6.939143, 11.7959684 ], [ 6.9370098, 11.7955612 ], [ 6.9343953, 11.7948923 ], [ 6.9333159, 11.7933843 ], [ 6.9306222, 11.793351 ], [ 6.9286368, 11.792921 ], [ 6.9277958, 11.792204 ], [ 6.9253283, 11.7909852 ], [ 6.9250051, 11.7895148 ], [ 6.9224572, 11.7874301 ], [ 6.9199473, 11.7872812 ], [ 6.9173993, 11.7858666 ], [ 6.9151542, 11.7859636 ], [ 6.9141669, 11.785606 ], [ 6.9123883, 11.7852855 ], [ 6.9098629, 11.7857799 ], [ 6.9082883, 11.7883102 ], [ 6.9067434, 11.7905496 ], [ 6.9056441, 11.7924981 ], [ 6.9043963, 11.7946212 ], [ 6.9032673, 11.7970932 ], [ 6.9022102, 11.7988504 ], [ 6.9012471, 11.7975585 ], [ 6.9008123, 11.7965072 ], [ 6.9003855, 11.7938941 ], [ 6.90095, 11.7930798 ], [ 6.901871, 11.7918583 ], [ 6.9013956, 11.7906368 ], [ 6.9020524, 11.7899103 ], [ 6.9022275, 11.7889791 ], [ 6.9012173, 11.7880775 ], [ 6.9006231, 11.7883392 ], [ 6.8991971, 11.7880484 ], [ 6.8973848, 11.7877576 ], [ 6.8960811, 11.7874766 ], [ 6.895721, 11.786856 ], [ 6.896373, 11.7856226 ], [ 6.8961769, 11.7851781 ], [ 6.8953842, 11.7833816 ], [ 6.8938766, 11.7812583 ], [ 6.8926312, 11.7796723 ], [ 6.8913222, 11.779119 ], [ 6.8914725, 11.7779854 ], [ 6.8919545, 11.776196 ], [ 6.8897383, 11.7716015 ], [ 6.8877774, 11.7659007 ], [ 6.8862325, 11.7613052 ], [ 6.8825485, 11.7583965 ], [ 6.8830832, 11.7553715 ], [ 6.8858166, 11.7523465 ], [ 6.8855789, 11.7481579 ], [ 6.8839745, 11.7447255 ], [ 6.8854957, 11.7354172 ], [ 6.8844261, 11.7256432 ], [ 6.8844261, 11.7200578 ], [ 6.8839555, 11.7168101 ], [ 6.8807611, 11.7108895 ], [ 6.8811504, 11.7055994 ], [ 6.8779061, 11.6984227 ], [ 6.8742955, 11.6903756 ], [ 6.869, 11.6785 ], [ 6.8658, 11.663 ], [ 6.8608879, 11.6532222 ], [ 6.8552, 11.6419 ], [ 6.852, 11.6207 ], [ 6.8524246, 11.6161891 ], [ 6.854398, 11.5952212 ], [ 6.8544, 11.5952 ], [ 6.8568, 11.589 ], [ 6.8674, 11.5776 ], [ 6.8761, 11.5744 ], [ 6.8861, 11.567 ], [ 6.8994053, 11.5567336 ], [ 6.9023395, 11.5544825 ], [ 6.9040127, 11.5531893 ], [ 6.904489, 11.5496178 ], [ 6.9056396, 11.540988 ], [ 6.9061537, 11.5373907 ], [ 6.9066377, 11.5340014 ], [ 6.9072666, 11.5296001 ], [ 6.9047608, 11.5235863 ], [ 6.9031992, 11.5198393 ], [ 6.9006214, 11.5146837 ], [ 6.8958788, 11.5051985 ], [ 6.9011289, 11.4918055 ], [ 6.9031992, 11.4864903 ], [ 6.9072666, 11.4751024 ], [ 6.9007592, 11.4588337 ], [ 6.8975376, 11.4531069 ], [ 6.8934383, 11.4458199 ], [ 6.8914819, 11.4414177 ], [ 6.8869314, 11.4311781 ], [ 6.886878, 11.4302692 ], [ 6.8866512, 11.4264133 ], [ 6.8865037, 11.4239045 ], [ 6.8864603, 11.4231663 ], [ 6.8861179, 11.4173498 ], [ 6.8869264, 11.3963336 ], [ 6.8869314, 11.3962021 ], [ 6.8876207, 11.3896516 ], [ 6.8894423, 11.3836414 ], [ 6.8878379, 11.3823482 ], [ 6.8874101, 11.3815793 ], [ 6.8854849, 11.3787133 ], [ 6.882864, 11.3742399 ], [ 6.8815275, 11.3729812 ], [ 6.8798519, 11.3690316 ], [ 6.8791745, 11.367319 ], [ 6.877891, 11.3662005 ], [ 6.8766432, 11.3657461 ], [ 6.8746024, 11.3656881 ], [ 6.873185, 11.3646975 ], [ 6.8680389, 11.3641032 ], [ 6.8628636, 11.3633894 ], [ 6.8589375, 11.3631515 ], [ 6.8445418, 11.3603556 ], [ 6.8375818, 11.356251 ], [ 6.8346075, 11.3536336 ], [ 6.8328824, 11.351968 ], [ 6.8322875, 11.3472686 ], [ 6.8333583, 11.3373938 ], [ 6.8353213, 11.3288277 ], [ 6.839857, 11.3188645 ], [ 6.8389401, 11.3181143 ], [ 6.8369733, 11.3169729 ], [ 6.8362008, 11.316128 ], [ 6.836839, 11.3134659 ], [ 6.8364385, 11.3109133 ], [ 6.8356768, 11.3100185 ], [ 6.8294864, 11.3071842 ], [ 6.8284, 11.3075 ], [ 6.8275849, 11.307563 ], [ 6.8251487, 11.3080291 ], [ 6.8246139, 11.3096606 ], [ 6.8238712, 11.3101558 ], [ 6.8225045, 11.3106511 ], [ 6.8210487, 11.3104472 ], [ 6.8207814, 11.3099228 ], [ 6.8195456, 11.3084089 ], [ 6.8153295, 11.3081261 ], [ 6.7871329, 11.3198331 ], [ 6.777265, 11.3222336 ], [ 6.7739983, 11.3224029 ], [ 6.7706432, 11.3201186 ], [ 6.7678935, 11.3082135 ], [ 6.7665366, 11.2969063 ], [ 6.7667735, 11.2721623 ], [ 6.7642958, 11.2672645 ], [ 6.7606355, 11.267078 ], [ 6.7601601, 11.2666118 ], [ 6.7595422, 11.2640477 ], [ 6.7584013, 11.2634416 ], [ 6.7555492, 11.2630221 ], [ 6.7536953, 11.2622295 ], [ 6.7304792, 11.2581537 ], [ 6.7112056, 11.2491593 ], [ 6.7033534, 11.2390228 ], [ 6.6976427, 11.2280297 ], [ 6.6927886, 11.2163228 ], [ 6.6890766, 11.2036165 ], [ 6.6860504, 11.1794326 ], [ 6.684984, 11.1515443 ], [ 6.68822, 11.1279401 ], [ 6.6908754, 11.1208907 ], [ 6.6955488, 11.1159476 ], [ 6.6985945, 11.114044 ], [ 6.7020209, 11.1128067 ], [ 6.7063991, 11.1130923 ], [ 6.7104918, 11.1125212 ], [ 6.7142037, 11.1109983 ], [ 6.716, 11.1062218 ], [ 6.7155239, 11.1046556 ], [ 6.7137175, 11.1028364 ], [ 6.7120062, 11.1014837 ], [ 6.7096294, 11.0966324 ], [ 6.707015, 11.0942534 ], [ 6.7049971, 11.095137 ], [ 6.7036115, 11.0948945 ], [ 6.7009304, 11.0965858 ], [ 6.6986962, 11.0953263 ], [ 6.6962054, 11.0937595 ], [ 6.6959842, 11.0935956 ], [ 6.6942278, 11.0933671 ], [ 6.6874185, 11.091663 ], [ 6.6869, 11.0906 ], [ 6.6847517, 11.0882259 ], [ 6.6825817, 11.0852564 ], [ 6.6810969, 11.0811447 ], [ 6.6806971, 11.0779467 ], [ 6.6816818, 11.0708025 ], [ 6.6830385, 11.0676103 ], [ 6.6829814, 11.0650405 ], [ 6.6821, 11.0628 ], [ 6.6803473, 11.0621581 ], [ 6.6791589, 11.0613184 ], [ 6.6782627, 11.0594031 ], [ 6.6767821, 11.0573062 ], [ 6.6753085, 11.0563731 ], [ 6.6733356, 11.0579607 ], [ 6.672587, 11.0593596 ], [ 6.6716482, 11.0602453 ], [ 6.6706975, 11.0608518 ], [ 6.6686059, 11.0628112 ], [ 6.666911, 11.0625219 ], [ 6.6638, 11.0615 ], [ 6.6638048, 11.0556267 ], [ 6.6632344, 11.0553934 ], [ 6.662046, 11.0546936 ], [ 6.6607813, 11.0558412 ], [ 6.6596673, 11.0554286 ], [ 6.6583382, 11.0539938 ], [ 6.6577202, 11.0536205 ], [ 6.6565318, 11.0519876 ], [ 6.6490686, 11.0504947 ], [ 6.6464221, 11.0492944 ], [ 6.6450281, 11.049375 ], [ 6.64425, 11.0488167 ], [ 6.6438397, 11.0497482 ], [ 6.6430316, 11.0506347 ], [ 6.6308148, 11.0492817 ], [ 6.6271546, 11.0480687 ], [ 6.6253482, 11.0491417 ], [ 6.6241598, 11.0490951 ], [ 6.6226862, 11.0470422 ], [ 6.6184555, 11.0470889 ], [ 6.6144655, 11.0473396 ], [ 6.6067617, 11.0465757 ], [ 6.6054542, 11.0464861 ], [ 6.6031965, 11.0459692 ], [ 6.5998214, 11.0446628 ], [ 6.5987756, 11.041257 ], [ 6.5875571, 11.0308525 ], [ 6.5858934, 11.0249735 ], [ 6.5845624, 11.0239004 ], [ 6.5780776, 11.0252735 ], [ 6.5772894, 11.0215674 ], [ 6.5740569, 11.0215674 ], [ 6.5720413, 11.0221455 ], [ 6.5723704, 11.0227557 ], [ 6.5724893, 11.0233743 ], [ 6.5721594, 11.0245038 ], [ 6.5697799, 11.0264073 ], [ 6.5681143, 11.028073 ], [ 6.5646641, 11.0303334 ], [ 6.5595482, 11.0361631 ], [ 6.5515771, 11.0417549 ], [ 6.5411074, 11.0450861 ], [ 6.5333742, 11.0479415 ], [ 6.5107693, 11.0436584 ], [ 6.5002997, 11.0384236 ], [ 6.4886403, 11.0327129 ], [ 6.4791225, 11.0295006 ], [ 6.4685339, 11.0226002 ], [ 6.4581832, 11.0159377 ], [ 6.4527104, 11.014629 ], [ 6.4474756, 11.0121306 ], [ 6.4435495, 11.0098701 ], [ 6.437006, 11.0076096 ], [ 6.4317646, 11.0074686 ], [ 6.4290238, 11.0083883 ], [ 6.4271306, 11.0095286 ], [ 6.4262561, 11.0126589 ], [ 6.4242953, 11.0142337 ], [ 6.4215501, 11.0177682 ], [ 6.4204805, 11.0209178 ], [ 6.4200884, 11.0257469 ], [ 6.4189831, 11.0277416 ], [ 6.4178066, 11.0282315 ], [ 6.4149188, 11.0289314 ], [ 6.4132075, 11.0304711 ], [ 6.4112823, 11.031066 ], [ 6.4101587, 11.0302782 ], [ 6.408038, 11.0287914 ], [ 6.4069328, 11.0288964 ], [ 6.405831, 11.0302782 ], [ 6.4037241, 11.0329206 ], [ 6.4025119, 11.0327456 ], [ 6.3990305, 11.0320428 ], [ 6.397485, 11.0317308 ], [ 6.3955955, 11.0318358 ], [ 6.3933494, 11.0326407 ], [ 6.3918655, 11.0336695 ], [ 6.3916111, 11.0338458 ], [ 6.3906457, 11.0336695 ], [ 6.3895374, 11.033467 ], [ 6.3874218, 11.0322805 ], [ 6.3864686, 11.0321508 ], [ 6.3840799, 11.0329906 ], [ 6.3824755, 11.0326057 ], [ 6.3782686, 11.0305061 ], [ 6.3763434, 11.030856 ], [ 6.3748536, 11.0309563 ], [ 6.3740471, 11.0302507 ], [ 6.37178, 11.0246971 ], [ 6.3708742, 11.0235722 ], [ 6.3679974, 11.0209666 ], [ 6.3660786, 11.0181499 ], [ 6.3656953, 11.0178162 ], [ 6.3648047, 11.0176634 ], [ 6.3641188, 11.0178827 ], [ 6.3588976, 11.019552 ], [ 6.3579826, 11.0198329 ], [ 6.3563024, 11.0204652 ], [ 6.3547027, 11.0215476 ], [ 6.3538101, 11.0223126 ], [ 6.3521357, 11.0227375 ], [ 6.349961, 11.0229474 ], [ 6.3480973, 11.0223013 ], [ 6.3467523, 11.0222125 ], [ 6.3457, 11.0235 ], [ 6.3452905, 11.0239623 ], [ 6.344197, 11.0241834 ], [ 6.3435436, 11.0239972 ], [ 6.3424688, 11.0226785 ], [ 6.3419749, 11.0220726 ], [ 6.3409054, 11.0210927 ], [ 6.3396575, 11.0209178 ], [ 6.3383028, 11.0209527 ], [ 6.3370347, 11.0214892 ], [ 6.336021, 11.0234723 ], [ 6.3347019, 11.0246621 ], [ 6.3326341, 11.0258519 ], [ 6.3301385, 11.0269717 ], [ 6.3297106, 11.0271817 ], [ 6.3286054, 11.0271467 ], [ 6.3248658, 11.0257283 ], [ 6.3241912, 11.0254725 ], [ 6.3233, 11.0249104 ], [ 6.3224257, 11.0240655 ], [ 6.3220631, 11.0227964 ], [ 6.3219725, 11.0213914 ], [ 6.322879, 11.0211195 ], [ 6.323935, 11.0215476 ], [ 6.3247993, 11.0227348 ], [ 6.3262167, 11.0227025 ], [ 6.3273576, 11.0208828 ], [ 6.3274289, 11.019588 ], [ 6.3267872, 11.0188181 ], [ 6.3250402, 11.0183281 ], [ 6.3242559, 11.0176632 ], [ 6.3236855, 11.0146187 ], [ 6.3221881, 11.0116791 ], [ 6.3201203, 11.0102093 ], [ 6.3177672, 11.0100693 ], [ 6.3157441, 11.0108915 ], [ 6.3130968, 11.0103842 ], [ 6.3120273, 11.0093694 ], [ 6.3108602, 11.0071401 ], [ 6.3093015, 11.0062877 ], [ 6.3080655, 11.0046545 ], [ 6.3041676, 11.003068 ], [ 6.3008603, 10.9990748 ], [ 6.3003164, 10.9977707 ], [ 6.3016905, 10.9949684 ], [ 6.3013971, 10.9941456 ], [ 6.3003703, 10.9931787 ], [ 6.2963888, 10.9926233 ], [ 6.2951734, 10.9906897 ], [ 6.2927216, 10.9853206 ], [ 6.2898927, 10.9817823 ], [ 6.2874601, 10.9793871 ], [ 6.2871056, 10.9773388 ], [ 6.2870218, 10.9758576 ], [ 6.2869799, 10.9752405 ], [ 6.2840042, 10.9752816 ], [ 6.2832079, 10.9745616 ], [ 6.2824535, 10.972093 ], [ 6.2830612, 10.9684311 ], [ 6.282705, 10.967135 ], [ 6.28128, 10.9646869 ], [ 6.2802323, 10.9636377 ], [ 6.2786397, 10.9634525 ], [ 6.2747112, 10.9645556 ], [ 6.2731704, 10.9641314 ], [ 6.2719549, 10.9646251 ], [ 6.2688745, 10.9666001 ], [ 6.2671771, 10.9666824 ], [ 6.2665485, 10.9661064 ] ] ] } }
]
}
