{
"type": "FeatureCollection",
"name": "Nasarawa_interventions",
"crs": { "type": "name", "properties": { "name": "urn:ogc:def:crs:OGC:1.3:CRS84" } },
"features": [
{ "type": "Feature", "properties": { "OBJECTID": 243, "ActivityID": "NAS0002", "Stra_Catch": "Okwa-Mada", "Micr_Catch": "Doma", "State": "Nasarawa", "LGA": "Doma", "Site_Name": "Ohina mada 2", "Interv_Typ": "Afforestation (Tree Planting)", "Component": "A - Dryland Management", "Comments": "Completed", "Implemnter": "Nasarawa_ACReSAL", "Start_Date": "2024-08-19T00:00:00", "End_Date": "2025/05/20", "No_Trees_P": 374559, "Sub_compon": "A2-1", "Lon": 8.285, "Lat": 8.284, "Female_pop": 12781, "Buffer_Mtr": 0, "Area_Impac": 3041.579, "Male_pop": 23368, "Area_Intev": 3041.579, "Netsize_Ha": 3041.579, "Indicator": "Area under improved catchment management", "Benefi_pop": 36149.0, "Perct_NDVI": 0.0, "parent_micro_name": "Doma" }, "geometry": { "type": "Polygon", "coordinates": [ [ [ 8.339371355059852, 8.312820692959656, 0.0 ], [ 8.347867585124494, 8.316462262146633, 0.0 ], [ 8.35120228300983, 8.314281456610981, 0.0 ], [ 8.355714251215122, 8.314936522414913, 0.0 ], [ 8.357271128722751, 8.314376046240408, 0.0 ], [ 8.359199946301793, 8.314701117365496, 0.0 ], [ 8.361921934021193, 8.315734318374787, 0.0 ], [ 8.3452912257717, 8.307368785174255, 0.0 ], [ 8.351818350311868, 8.302040561527029, 0.0 ], [ 8.340610366858533, 8.302085109439139, 0.0 ], [ 8.334917864661389, 8.29929578305077, 0.0 ], [ 8.323073959253083, 8.294528981585763, 0.0 ], [ 8.31119541620383, 8.283458925519884, 0.0 ], [ 8.307152980065668, 8.278110472153839, 0.0 ], [ 8.302675204196174, 8.273508313650527, 0.0 ], [ 8.298981615645777, 8.267763117595457, 0.0 ], [ 8.297985213952469, 8.262781108234153, 0.0 ], [ 8.272950615058894, 8.261784706477451, 0.0 ], [ 8.256385432544644, 8.296939012119703, 0.0 ], [ 8.29302266538655, 8.315851187818165, 0.0 ], [ 8.304212725888011, 8.307619195380092, 0.0 ], [ 8.30162052402885, 8.300916835679745, 0.0 ], [ 8.300030850148579, 8.289432225008211, 0.0 ], [ 8.306748332682885, 8.288059762892495, 0.0 ], [ 8.312822261696903, 8.301080307708929, 0.0 ], [ 8.316882395567944, 8.316379936924585, 0.0 ], [ 8.321605575253312, 8.319067015901719, 0.0 ], [ 8.325934760376237, 8.315300885124241, 0.0 ], [ 8.330910066760113, 8.309579282822416, 0.0 ], [ 8.334454972286766, 8.306594099799335, 0.0 ], [ 8.340059842170117, 8.306723990744798, 0.0 ], [ 8.339371355059852, 8.312820692959656, 0.0 ] ] ] } },
{ "type": "Feature", "properties": { "OBJECTID": 243, "ActivityID": "NAS0002", "Stra_Catch": "Okwa-Mada", "Micr_Catch": "Doma", "State": "Nasarawa", "LGA": "Doma", "Site_Name": "Ohina mada 2", "Interv_Typ": "Afforestation (Tree Planting)", "Component": "A - Dryland Management", "Comments": "Completed", "Implemnter": "Nasarawa_ACReSAL", "Start_Date": "2024-08-19T00:00:00", "End_Date": "2025/05/20", "No_Trees_P": 374559, "Sub_compon": "A2-1", "Lon": 8.285, "Lat": 8.284, "Female_pop": 12781, "Buffer_Mtr": 0, "Area_Impac": 3041.579, "Male_pop": 23368, "Area_Intev": 3041.579, "Netsize_Ha": 3041.579, "Indicator": "Area under improved catchment management", "Benefi_pop": 36149.0, "Perct_NDVI": 0.0, "parent_micro_name": "Igbabo" }, "geometry": { "type": "Polygon", "coordinates": [ [ [ 8.339371355059852, 8.312820692959656, 0.0 ], [ 8.347867585124494, 8.316462262146633, 0.0 ], [ 8.35120228300983, 8.314281456610981, 0.0 ], [ 8.355714251215122, 8.314936522414913, 0.0 ], [ 8.357271128722751, 8.314376046240408, 0.0 ], [ 8.359199946301793, 8.314701117365496, 0.0 ], [ 8.361921934021193, 8.315734318374787, 0.0 ], [ 8.3452912257717, 8.307368785174255, 0.0 ], [ 8.351818350311868, 8.302040561527029, 0.0 ], [ 8.340610366858533, 8.302085109439139, 0.0 ], [ 8.334917864661389, 8.29929578305077, 0.0 ], [ 8.323073959253083, 8.294528981585763, 0.0 ], [ 8.31119541620383, 8.283458925519884, 0.0 ], [ 8.307152980065668, 8.278110472153839, 0.0 ], [ 8.302675204196174, 8.273508313650527, 0.0 ], [ 8.298981615645777, 8.267763117595457, 0.0 ], [ 8.297985213952469, 8.262781108234153, 0.0 ], [ 8.272950615058894, 8.261784706477451, 0.0 ], [ 8.256385432544644, 8.296939012119703, 0.0 ], [ 8.29302266538655, 8.315851187818165, 0.0 ], [ 8.304212725888011, 8.307619195380092, 0.0 ], [ 8.30162052402885, 8.300916835679745, 0.0 ], [ 8.300030850148579, 8.289432225008211, 0.0 ], [ 8.306748332682885, 8.288059762892495, 0.0 ], [ 8.312822261696903, 8.301080307708929, 0.0 ], [ 8.316882395567944, 8.316379936924585, 0.0 ], [ 8.321605575253312, 8.319067015901719, 0.0 ], [ 8.325934760376237, 8.315300885124241, 0.0 ], [ 8.330910066760113, 8.309579282822416, 0.0 ], [ 8.334454972286766, 8.306594099799335, 0.0 ], [ 8.340059842170117, 8.306723990744798, 0.0 ], [ 8.339371355059852, 8.312820692959656, 0.0 ] ] ] } },
{ "type": "Feature", "properties": { "OBJECTID": 243, "ActivityID": "NAS0002", "Stra_Catch": "Okwa-Mada", "Micr_Catch": "Doma", "State": "Nasarawa", "LGA": "Doma", "Site_Name": "Ohina mada 2", "Interv_Typ": "Afforestation (Tree Planting)", "Component": "A - Dryland Management", "Comments": "Completed", "Implemnter": "Nasarawa_ACReSAL", "Start_Date": "2024-08-19T00:00:00", "End_Date": "2025/05/20", "No_Trees_P": 374559, "Sub_compon": "A2-1", "Lon": 8.285, "Lat": 8.284, "Female_pop": 12781, "Buffer_Mtr": 0, "Area_Impac": 3041.579, "Male_pop": 23368, "Area_Intev": 3041.579, "Netsize_Ha": 3041.579, "Indicator": "Area under improved catchment management", "Benefi_pop": 36149.0, "Perct_NDVI": 0.0, "parent_micro_name": "Doma" }, "geometry": { "type": "Polygon", "coordinates": [ [ [ 8.339371355059852, 8.312820692959656, 0.0 ], [ 8.347867585124494, 8.316462262146633, 0.0 ], [ 8.35120228300983, 8.314281456610981, 0.0 ], [ 8.355714251215122, 8.314936522414913, 0.0 ], [ 8.357271128722751, 8.314376046240408, 0.0 ], [ 8.359199946301793, 8.314701117365496, 0.0 ], [ 8.361921934021193, 8.315734318374787, 0.0 ], [ 8.3452912257717, 8.307368785174255, 0.0 ], [ 8.351818350311868, 8.302040561527029, 0.0 ], [ 8.340610366858533, 8.302085109439139, 0.0 ], [ 8.334917864661389, 8.29929578305077, 0.0 ], [ 8.323073959253083, 8.294528981585763, 0.0 ], [ 8.31119541620383, 8.283458925519884, 0.0 ], [ 8.307152980065668, 8.278110472153839, 0.0 ], [ 8.302675204196174, 8.273508313650527, 0.0 ], [ 8.298981615645777, 8.267763117595457, 0.0 ], [ 8.297985213952469, 8.262781108234153, 0.0 ], [ 8.272950615058894, 8.261784706477451, 0.0 ], [ 8.256385432544644, 8.296939012119703, 0.0 ], [ 8.29302266538655, 8.315851187818165, 0.0 ], [ 8.304212725888011, 8.307619195380092, 0.0 ], [ 8.30162052402885, 8.300916835679745, 0.0 ], [ 8.300030850148579, 8.289432225008211, 0.0 ], [ 8.306748332682885, 8.288059762892495, 0.0 ], [ 8.312822261696903, 8.301080307708929, 0.0 ], [ 8.316882395567944, 8.316379936924585, 0.0 ], [ 8.321605575253312, 8.319067015901719, 0.0 ], [ 8.325934760376237, 8.315300885124241, 0.0 ], [ 8.330910066760113, 8.309579282822416, 0.0 ], [ 8.334454972286766, 8.306594099799335, 0.0 ], [ 8.340059842170117, 8.306723990744798, 0.0 ], [ 8.339371355059852, 8.312820692959656, 0.0 ] ] ] } },
{ "type": "Feature", "properties": { "OBJECTID": 244, "ActivityID": "NAS0003", "Stra_Catch": "Okwa-Mada", "Micr_Catch": "Sherigia", "State": "Nasarawa", "LGA": "Wamba", "Site_Name": "Sherigia", "Interv_Typ": "Afforestation (Tree Planting)", "Component": "A - Dryland Management", "Comments": "Completed", "Implemnter": "Nasarawa_ACReSAL", "Start_Date": "2024-08-22T00:00:00", "End_Date": "2025/05/21", "No_Trees_P": 346801, "Sub_compon": "A2-1", "Lon": 8.527, "Lat": 8.954, "Female_pop": 75361, "Buffer_Mtr": 0, "Area_Impac": 2816.172, "Male_pop": 57796, "Area_Intev": 2816.172, "Netsize_Ha": 2816.172, "Indicator": "Area under improved catchment management", "Benefi_pop": 133157.0, "Perct_NDVI": 0.0, "parent_micro_name": "Akwanga_Wamba_Rapid" }, "geometry": { "type": "Polygon", "coordinates": [ [ [ 8.497118332253191, 8.924309622235462, 0.0 ], [ 8.487957722350819, 8.947328106384923, 0.0 ], [ 8.52595385193125, 8.96213925392596, 0.0 ], [ 8.519060012750694, 8.973431311949287, 0.0 ], [ 8.530327362099126, 8.987564917426454, 0.0 ], [ 8.566106138329308, 8.966216255021727, 0.0 ], [ 8.559879445606509, 8.955146578462205, 0.0 ], [ 8.543910924727927, 8.949391394890919, 0.0 ], [ 8.5471011955277, 8.937863505257143, 0.0 ], [ 8.497118332253191, 8.924309622235462, 0.0 ] ] ] } },
{ "type": "Feature", "properties": { "OBJECTID": 244, "ActivityID": "NAS0003", "Stra_Catch": "Okwa-Mada", "Micr_Catch": "Sherigia", "State": "Nasarawa", "LGA": "Wamba", "Site_Name": "Sherigia", "Interv_Typ": "Afforestation (Tree Planting)", "Component": "A - Dryland Management", "Comments": "Completed", "Implemnter": "Nasarawa_ACReSAL", "Start_Date": "2024-08-22T00:00:00", "End_Date": "2025/05/21", "No_Trees_P": 346801, "Sub_compon": "A2-1", "Lon": 8.527, "Lat": 8.954, "Female_pop": 75361, "Buffer_Mtr": 0, "Area_Impac": 2816.172, "Male_pop": 57796, "Area_Intev": 2816.172, "Netsize_Ha": 2816.172, "Indicator": "Area under improved catchment management", "Benefi_pop": 133157.0, "Perct_NDVI": 0.0, "parent_micro_name": "Akwanga_Wamba_Rapid" }, "geometry": { "type": "Polygon", "coordinates": [ [ [ 8.497118332253191, 8.924309622235462, 0.0 ], [ 8.487957722350819, 8.947328106384923, 0.0 ], [ 8.52595385193125, 8.96213925392596, 0.0 ], [ 8.519060012750694, 8.973431311949287, 0.0 ], [ 8.530327362099126, 8.987564917426454, 0.0 ], [ 8.566106138329308, 8.966216255021727, 0.0 ], [ 8.559879445606509, 8.955146578462205, 0.0 ], [ 8.543910924727927, 8.949391394890919, 0.0 ], [ 8.5471011955277, 8.937863505257143, 0.0 ], [ 8.497118332253191, 8.924309622235462, 0.0 ] ] ] } }
]
}
