{
"type": "FeatureCollection",
"name": "Nasarawa_state_boundary",
"crs": { "type": "name", "properties": { "name": "urn:ogc:def:crs:OGC:1.3:CRS84" } },
"features": [
{ "type": "Feature", "properties": { "state_code": "NA", "state_name": "Nasarawa", "cap_city": "Lafia", "geo_zone": "NCZ" }, "geometry": { "type": "Polygon", "coordinates": [ [ [ 6.9808149, 8.4437277 ], [ 6.985625, 8.4434207 ], [ 7.0058274, 8.4419302 ], [ 7.0358854, 8.4397127 ], [ 7.0693983, 8.4418286 ], [ 7.0798582, 8.4430811 ], [ 7.0863488, 8.4326647 ], [ 7.0835435, 8.4193362 ], [ 7.1241942, 8.4227889 ], [ 7.1409542, 8.4353364 ], [ 7.1396693, 8.4431886 ], [ 7.133419, 8.4494944 ], [ 7.1493607, 8.4514032 ], [ 7.2048757, 8.4580505 ], [ 7.2490148, 8.4623215 ], [ 7.2704753, 8.464398 ], [ 7.3008519, 8.4709078 ], [ 7.3132577, 8.4735664 ], [ 7.3653095, 8.4876713 ], [ 7.3802833, 8.5215208 ], [ 7.3959702, 8.5384445 ], [ 7.4181271, 8.5699024 ], [ 7.435716, 8.5864147 ], [ 7.4430308, 8.5932817 ], [ 7.4776235, 8.6313334 ], [ 7.4792585, 8.6327763 ], [ 7.4849373, 8.6400773 ], [ 7.4932284, 8.6507368 ], [ 7.4960008, 8.6543016 ], [ 7.5019798, 8.6686516 ], [ 7.5414429, 8.7404032 ], [ 7.5530788, 8.7622894 ], [ 7.5653014, 8.7852793 ], [ 7.5916691, 8.8348751 ], [ 7.5928738, 8.8435486 ], [ 7.5936126, 8.8488678 ], [ 7.5946589, 8.8564005 ], [ 7.592267, 8.9245644 ], [ 7.5921838, 8.9293081 ], [ 7.5917799, 8.9523379 ], [ 7.5915916, 8.9630501 ], [ 7.5907078, 9.013443 ], [ 7.5901872, 9.0304391 ], [ 7.589917, 9.0585222 ], [ 7.5897953, 9.0654622 ], [ 7.5891726, 9.1009444 ], [ 7.5886793, 9.129056 ], [ 7.6033192, 9.1614408 ], [ 7.6400901, 9.2427897 ], [ 7.6676059, 9.3036509 ], [ 7.7240805, 9.3292549 ], [ 7.7311889, 9.3261374 ], [ 7.7515343, 9.3069986 ], [ 7.7638578, 9.2958584 ], [ 7.7700248, 9.2923346 ], [ 7.7929296, 9.2755966 ], [ 7.8083873, 9.2728463 ], [ 7.8267984, 9.276433 ], [ 7.8725014, 9.2899697 ], [ 7.8974102, 9.3059196 ], [ 7.9190866, 9.3173656 ], [ 7.9405719, 9.3141752 ], [ 7.9839257, 9.297851 ], [ 7.9966653, 9.294661 ], [ 7.9976883, 9.2941141 ], [ 8.0000049, 9.2928757 ], [ 8.0149191, 9.2849032 ], [ 8.0442012, 9.2732685 ], [ 8.0609339, 9.2657621 ], [ 8.0728487, 9.252256 ], [ 8.0780792, 9.2463271 ], [ 8.0782251, 9.2452002 ], [ 8.083456, 9.2368116 ], [ 8.087243, 9.2307391 ], [ 8.0785413, 9.1904774 ], [ 8.0707976, 9.1546482 ], [ 8.0700791, 9.1470379 ], [ 8.0673512, 9.1181462 ], [ 8.0616469, 9.0520552 ], [ 8.0669788, 9.0502911 ], [ 8.0990671, 9.0396747 ], [ 8.1375713, 9.0361538 ], [ 8.1553212, 9.0414721 ], [ 8.1740123, 9.0470725 ], [ 8.1918954, 9.0524308 ], [ 8.2327763, 9.1048163 ], [ 8.253502, 9.1472448 ], [ 8.2559739, 9.1601977 ], [ 8.2584078, 9.1828919 ], [ 8.2711807, 9.1831482 ], [ 8.2850629, 9.1849105 ], [ 8.2897166, 9.186421 ], [ 8.3008631, 9.1885081 ], [ 8.308826, 9.1863723 ], [ 8.3185349, 9.1803617 ], [ 8.3282639, 9.1811256 ], [ 8.3339766, 9.1851019 ], [ 8.3360268, 9.188175 ], [ 8.3380695, 9.1924025 ], [ 8.3432942, 9.1944873 ], [ 8.3456375, 9.1939082 ], [ 8.3469046, 9.1920813 ], [ 8.350369, 9.1893518 ], [ 8.3552795, 9.1867783 ], [ 8.358681, 9.1842949 ], [ 8.3645684, 9.1813915 ], [ 8.3814964, 9.1774216 ], [ 8.3873119, 9.1757174 ], [ 8.3893986, 9.1721936 ], [ 8.3896917, 9.1716986 ], [ 8.3917818, 9.168169 ], [ 8.3955126, 9.1619511 ], [ 8.4017649, 9.1559391 ], [ 8.4129553, 9.1451788 ], [ 8.4184179, 9.1399269 ], [ 8.4194355, 9.138764 ], [ 8.4241829, 9.1333389 ], [ 8.4243948, 9.1330968 ], [ 8.4293178, 9.1274704 ], [ 8.4307518, 9.1258316 ], [ 8.4369679, 9.1206512 ], [ 8.4419746, 9.1164789 ], [ 8.4466085, 9.1126175 ], [ 8.4522396, 9.1044267 ], [ 8.4543247, 9.1013937 ], [ 8.4562998, 9.0985212 ], [ 8.4623337, 9.0897722 ], [ 8.4627592, 9.0891553 ], [ 8.4655712, 9.0850778 ], [ 8.4667015, 9.0834389 ], [ 8.4693617, 9.0795812 ], [ 8.4714193, 9.0765972 ], [ 8.4739189, 9.0729733 ], [ 8.474369, 9.069973 ], [ 8.4765615, 9.0553541 ], [ 8.4790831, 9.0522022 ], [ 8.481605, 9.0490501 ], [ 8.4866161, 9.0427866 ], [ 8.4906578, 9.037735 ], [ 8.4937489, 9.0253705 ], [ 8.4941816, 9.0236397 ], [ 8.4985867, 9.0113058 ], [ 8.500904, 9.0073327 ], [ 8.5043459, 9.0014315 ], [ 8.5089426, 9.0006409 ], [ 8.514039, 9.0006533 ], [ 8.5175002, 9.0012141 ], [ 8.5217199, 9.0018978 ], [ 8.5332613, 9.0043774 ], [ 8.5370164, 9.0073248 ], [ 8.5410919, 9.0105238 ], [ 8.547574, 9.0142164 ], [ 8.5541315, 9.020359 ], [ 8.5576041, 9.0259267 ], [ 8.5620707, 9.0266829 ], [ 8.5622421, 9.0301664 ], [ 8.5640124, 9.0326791 ], [ 8.5681812, 9.0341068 ], [ 8.5715595, 9.0342155 ], [ 8.5763475, 9.0343924 ], [ 8.5758336, 9.0419876 ], [ 8.5696089, 9.0439863 ], [ 8.5677243, 9.0494686 ], [ 8.566468, 9.050725 ], [ 8.564023, 9.0522461 ], [ 8.5668335, 9.0608311 ], [ 8.5707302, 9.0632916 ], [ 8.5734908, 9.0667054 ], [ 8.5789665, 9.0734768 ], [ 8.5866175, 9.0829382 ], [ 8.5936316, 9.0905665 ], [ 8.605247, 9.1003929 ], [ 8.6099182, 9.1053277 ], [ 8.616389, 9.1108318 ], [ 8.6207151, 9.1148844 ], [ 8.6242445, 9.1230096 ], [ 8.6303072, 9.1369667 ], [ 8.6357031, 9.1467838 ], [ 8.6411362, 9.1578264 ], [ 8.6471516, 9.1676145 ], [ 8.649805, 9.1731188 ], [ 8.6547747, 9.1872711 ], [ 8.6563482, 9.1970797 ], [ 8.6578074, 9.2076893 ], [ 8.6614847, 9.1953936 ], [ 8.663497, 9.193553 ], [ 8.6675215, 9.1898699 ], [ 8.6732893, 9.1901264 ], [ 8.6773129, 9.1864443 ], [ 8.681159, 9.186615 ], [ 8.6870155, 9.1849442 ], [ 8.690773, 9.1870422 ], [ 8.6963329, 9.1870966 ], [ 8.7080784, 9.1878099 ], [ 8.7120132, 9.1860542 ], [ 8.7217169, 9.1845551 ], [ 8.7334318, 9.1812143 ], [ 8.7393961, 9.1801252 ], [ 8.7462244, 9.1786442 ], [ 8.748992, 9.1780434 ], [ 8.7550278, 9.1725206 ], [ 8.7610645, 9.166997 ], [ 8.7649984, 9.1652412 ], [ 8.7655054, 9.1636892 ], [ 8.7675533, 9.1574202 ], [ 8.7677107, 9.1499157 ], [ 8.7679014, 9.1441355 ], [ 8.7675228, 9.1362858 ], [ 8.7647686, 9.1285505 ], [ 8.7612791, 9.1206741 ], [ 8.7613673, 9.1187691 ], [ 8.7616252, 9.1131962 ], [ 8.7600689, 9.1051769 ], [ 8.7636806, 9.1018725 ], [ 8.7640934, 9.1014948 ], [ 8.7685061, 9.0978632 ], [ 8.7688465, 9.0953054 ], [ 8.7741528, 9.092288 ], [ 8.7781763, 9.0886059 ], [ 8.7801886, 9.0867653 ], [ 8.7841234, 9.0850096 ], [ 8.7919025, 9.0834236 ], [ 8.7936402, 9.079828 ], [ 8.7956648, 9.0756388 ], [ 8.7994385, 9.0711565 ], [ 8.7965508, 9.0662556 ], [ 8.7948055, 9.0623178 ], [ 8.7930613, 9.0583792 ], [ 8.7894831, 9.0524282 ], [ 8.7897501, 9.046649 ], [ 8.7899284, 9.0427961 ], [ 8.7940416, 9.0371866 ], [ 8.7981548, 9.0315781 ], [ 8.8060303, 9.0327415 ], [ 8.8117256, 9.030302 ], [ 8.8232412, 9.0307617 ], [ 8.8245478, 9.0306567 ], [ 8.8387127, 9.0295181 ], [ 8.8444815, 9.0297737 ], [ 8.8502493, 9.0300303 ], [ 8.8619642, 9.0266895 ], [ 8.8658104, 9.0268602 ], [ 8.8755131, 9.0253601 ], [ 8.885355, 9.0216093 ], [ 8.8883924, 9.0220718 ], [ 8.8949203, 9.0223608 ], [ 8.8981647, 9.0210485 ], [ 8.9073925, 9.0193234 ], [ 8.9084779, 9.0191047 ], [ 8.9163389, 9.0175209 ], [ 8.9181768, 9.0171465 ], [ 8.924119, 9.0159359 ], [ 8.9298878, 9.0161905 ], [ 8.9430208, 9.0155811 ], [ 8.951128, 9.0152044 ], [ 8.9548845, 9.0173016 ], [ 8.960742, 9.0156307 ], [ 8.9637499, 9.0157642 ], [ 8.9668159, 9.0150423 ], [ 8.9695272, 9.0160208 ], [ 8.9742012, 9.0162287 ], [ 8.977663, 9.0165367 ], [ 8.983613, 9.0176945 ], [ 8.9894953, 9.0188389 ], [ 8.9926491, 9.018939 ], [ 8.9952927, 9.0190229 ], [ 8.9986687, 9.0203695 ], [ 9.0009432, 9.0212774 ], [ 9.0043364, 9.021059 ], [ 9.0088921, 9.0207663 ], [ 9.0122776, 9.0217886 ], [ 9.016325, 9.0219774 ], [ 9.0201712, 9.022131 ], [ 9.0239277, 9.0242281 ], [ 9.0277739, 9.0243988 ], [ 9.0392218, 9.0268373 ], [ 9.0449905, 9.0270939 ], [ 9.0495567, 9.0261641 ], [ 9.0527706, 9.0255089 ], [ 9.054117, 9.0249081 ], [ 9.0567055, 9.0237532 ], [ 9.060154, 9.0205975 ], [ 9.0627413, 9.0182285 ], [ 9.0669632, 9.0079269 ], [ 9.0690813, 8.9977522 ], [ 9.0697536, 8.9954176 ], [ 9.0698366, 8.991869 ], [ 9.0707378, 8.9878407 ], [ 9.068368, 8.9798698 ], [ 9.0670691, 8.9662981 ], [ 9.0690813, 8.9644585 ], [ 9.0711823, 8.9606895 ], [ 9.0734615, 8.9530687 ], [ 9.0718946, 8.9452772 ], [ 9.0682278, 8.9412527 ], [ 9.0625477, 8.9390707 ], [ 9.0532904, 8.9309368 ], [ 9.0459926, 8.9229302 ], [ 9.0459557, 8.9228897 ], [ 9.0443001, 8.9170246 ], [ 9.0444775, 8.9131718 ], [ 9.0408106, 8.9091482 ], [ 9.0390654, 8.9052095 ], [ 9.0318203, 8.8952351 ], [ 9.0285082, 8.8835049 ], [ 9.0267639, 8.8795662 ], [ 9.025197, 8.8717747 ], [ 9.0235415, 8.8659096 ], [ 9.0180407, 8.8598738 ], [ 9.0162067, 8.8578625 ], [ 9.0106163, 8.8537531 ], [ 9.0030146, 8.8514853 ], [ 8.9990797, 8.853241 ], [ 8.9959004, 8.8524554 ], [ 8.9895544, 8.8508873 ], [ 8.9856195, 8.852643 ], [ 8.9739943, 8.8540573 ], [ 8.9663916, 8.8517895 ], [ 8.9587898, 8.8495216 ], [ 8.9570446, 8.845583 ], [ 8.9553003, 8.8416443 ], [ 8.9497986, 8.8356075 ], [ 8.9500656, 8.8298292 ], [ 8.9510994, 8.8271427 ], [ 8.9509687, 8.824192 ], [ 8.9505968, 8.8157768 ], [ 8.9490337, 8.8104782 ], [ 8.9451466, 8.7995596 ], [ 8.9383268, 8.7936726 ], [ 8.9327097, 8.7855082 ], [ 8.9290409, 8.7844934 ], [ 8.9239664, 8.782485 ], [ 8.9191513, 8.7832956 ], [ 8.9155808, 8.7838964 ], [ 8.9078894, 8.783555 ], [ 8.903883, 8.7791595 ], [ 8.9005547, 8.775507 ], [ 8.9010887, 8.7639465 ], [ 8.9046898, 8.7581253 ], [ 8.9044104, 8.7550344 ], [ 8.9007753, 8.7521031 ], [ 8.8993711, 8.7509708 ], [ 8.8960333, 8.7482796 ], [ 8.8919334, 8.7403536 ], [ 8.8921366, 8.7329302 ], [ 8.8968868, 8.7272692 ], [ 8.9028368, 8.7193308 ], [ 8.9076567, 8.7102194 ], [ 8.910738, 8.7029934 ], [ 8.9118061, 8.6987715 ], [ 8.9139471, 8.6861763 ], [ 8.9195142, 8.6819267 ], [ 8.9198265, 8.6816883 ], [ 8.9215488, 8.6803738 ], [ 8.9257069, 8.6772003 ], [ 8.9292183, 8.6731777 ], [ 8.9322195, 8.6714039 ], [ 8.9347992, 8.667881 ], [ 8.9402437, 8.6672306 ], [ 8.9404593, 8.6625748 ], [ 8.9410238, 8.659605 ], [ 8.9417887, 8.6555834 ], [ 8.942276, 8.6521893 ], [ 8.9444981, 8.6466675 ], [ 8.9473238, 8.6396484 ], [ 8.9497566, 8.6339426 ], [ 8.9511766, 8.6213121 ], [ 8.9583101, 8.6122456 ], [ 8.9641666, 8.6089077 ], [ 8.9700232, 8.6055708 ], [ 8.9777946, 8.6051912 ], [ 8.9805298, 8.6011734 ], [ 8.9834318, 8.5965805 ], [ 8.98318, 8.5851135 ], [ 8.9810219, 8.5782032 ], [ 8.9824123, 8.5743046 ], [ 8.983222, 8.5720348 ], [ 8.9863052, 8.5664682 ], [ 8.9873829, 8.5645227 ], [ 8.9860687, 8.5619802 ], [ 8.9840946, 8.5581608 ], [ 8.9840202, 8.5532312 ], [ 8.9784555, 8.5492363 ], [ 8.974966, 8.5413589 ], [ 8.9751444, 8.5375061 ], [ 8.9790039, 8.5305843 ], [ 8.98246, 8.5272541 ], [ 8.9882574, 8.5228853 ], [ 8.9906187, 8.5211058 ], [ 8.9947386, 8.5195742 ], [ 8.9960029, 8.5184173 ], [ 8.9972754, 8.5172529 ], [ 9.0051451, 8.5137405 ], [ 9.0102768, 8.5152721 ], [ 9.0136366, 8.512063 ], [ 9.0194702, 8.5098753 ], [ 9.0245354, 8.5119842 ], [ 9.0263853, 8.5127544 ], [ 9.0321541, 8.513011 ], [ 9.0367765, 8.5125151 ], [ 9.0402002, 8.514884 ], [ 9.0433807, 8.5183554 ], [ 9.0493603, 8.5196657 ], [ 9.0541306, 8.5160713 ], [ 9.0591621, 8.5122805 ], [ 9.0595188, 8.5045729 ], [ 9.0598745, 8.4968672 ], [ 9.0637932, 8.4934807 ], [ 9.0663528, 8.4925203 ], [ 9.0699348, 8.4876614 ], [ 9.0757923, 8.4859905 ], [ 9.0801096, 8.4880466 ], [ 9.0832872, 8.4863234 ], [ 9.0883036, 8.4836025 ], [ 9.0953665, 8.4779882 ], [ 9.1014128, 8.4736147 ], [ 9.1021233, 8.4698629 ], [ 9.1031885, 8.4642334 ], [ 9.1002026, 8.4581165 ], [ 9.0984583, 8.4541788 ], [ 9.0968027, 8.4483137 ], [ 9.0971584, 8.4406071 ], [ 9.1010933, 8.4388514 ], [ 9.1112432, 8.4380226 ], [ 9.1184282, 8.4381638 ], [ 9.1215267, 8.4382248 ], [ 9.1244345, 8.4340963 ], [ 9.1275368, 8.4337387 ], [ 9.128459, 8.4304142 ], [ 9.1323938, 8.4286575 ], [ 9.1367559, 8.4354458 ], [ 9.1385984, 8.4383135 ], [ 9.1458197, 8.4433889 ], [ 9.1488972, 8.4467659 ], [ 9.1524754, 8.4527159 ], [ 9.1562319, 8.454813 ], [ 9.1580658, 8.4568253 ], [ 9.1653466, 8.4613167 ], [ 9.1749258, 8.467226 ], [ 9.1770267, 8.463459 ], [ 9.1773574, 8.463702 ], [ 9.1826172, 8.4675674 ], [ 9.1846294, 8.4657269 ], [ 9.2022905, 8.4587889 ], [ 9.2119942, 8.4572887 ], [ 9.2158403, 8.4574595 ], [ 9.2331457, 8.4582281 ], [ 9.2446823, 8.4587402 ], [ 9.2542973, 8.4591665 ], [ 9.261899, 8.4614353 ], [ 9.2639103, 8.4595947 ], [ 9.2663309, 8.4606916 ], [ 9.2679291, 8.4614159 ], [ 9.2733469, 8.463871 ], [ 9.2778608, 8.4629523 ], [ 9.288908, 8.4607039 ], [ 9.290741, 8.4627161 ], [ 9.2983437, 8.4649839 ], [ 9.3049498, 8.4666166 ], [ 9.307869, 8.4673376 ], [ 9.3116245, 8.4694347 ], [ 9.3212337, 8.4697475 ], [ 9.3287535, 8.4740562 ], [ 9.3351345, 8.4776198 ], [ 9.3362656, 8.4782515 ], [ 9.3375009, 8.4786199 ], [ 9.3438683, 8.4805193 ], [ 9.3515596, 8.4808607 ], [ 9.3553162, 8.4829578 ], [ 9.3669424, 8.4815435 ], [ 9.3727999, 8.4798727 ], [ 9.3805799, 8.4782877 ], [ 9.3885384, 8.4728498 ], [ 9.3964081, 8.4693384 ], [ 9.4082127, 8.4640713 ], [ 9.4161711, 8.4586325 ], [ 9.426897, 8.4534035 ], [ 9.436223, 8.4501343 ], [ 9.4421034, 8.4456463 ], [ 9.4512941, 8.4413021 ], [ 9.45613, 8.4390163 ], [ 9.4631701, 8.4345503 ], [ 9.4701834, 8.4312353 ], [ 9.4841604, 8.4269056 ], [ 9.4888363, 8.424696 ], [ 9.4920666, 8.4235996 ], [ 9.5016603, 8.4203434 ], [ 9.5109634, 8.4182243 ], [ 9.5202904, 8.4149551 ], [ 9.5279999, 8.4153357 ], [ 9.5322609, 8.4141207 ], [ 9.5395498, 8.4110661 ], [ 9.5415564, 8.4098682 ], [ 9.5452299, 8.4076748 ], [ 9.5494928, 8.4052792 ], [ 9.5538635, 8.4035892 ], [ 9.5571508, 8.402318 ], [ 9.5592337, 8.4015121 ], [ 9.5691814, 8.3997898 ], [ 9.573288, 8.3986597 ], [ 9.5809956, 8.3977184 ], [ 9.5885878, 8.3967915 ], [ 9.5945339, 8.3931932 ], [ 9.5983801, 8.393364 ], [ 9.601554, 8.3927173 ], [ 9.6050148, 8.385843 ], [ 9.6109568, 8.3786712 ], [ 9.6155354, 8.3743868 ], [ 9.616836, 8.3718477 ], [ 9.6140203, 8.3604021 ], [ 9.6119204, 8.3500042 ], [ 9.612113, 8.3408022 ], [ 9.6123304, 8.3304491 ], [ 9.6137505, 8.3178186 ], [ 9.6175299, 8.3029327 ], [ 9.615387, 8.294836 ], [ 9.6096735, 8.2912722 ], [ 9.6003704, 8.2933912 ], [ 9.5922003, 8.2966843 ], [ 9.5840769, 8.2976761 ], [ 9.5666504, 8.300787 ], [ 9.5619736, 8.3029966 ], [ 9.5537477, 8.3040906 ], [ 9.5536286, 8.3041065 ], [ 9.5468864, 8.3050032 ], [ 9.5434399, 8.3037853 ], [ 9.5353403, 8.303627 ], [ 9.52493, 8.3034229 ], [ 9.5180101, 8.3021374 ], [ 9.5122032, 8.303174 ], [ 9.5040569, 8.305316 ], [ 9.4982967, 8.3040524 ], [ 9.4925098, 8.3039398 ], [ 9.4832067, 8.3060589 ], [ 9.4750366, 8.3093519 ], [ 9.4668665, 8.312644 ], [ 9.4528399, 8.3192739 ], [ 9.4435129, 8.3225441 ], [ 9.4318237, 8.3280687 ], [ 9.4201565, 8.3324432 ], [ 9.4084435, 8.339119 ], [ 9.4014063, 8.3435841 ], [ 9.3897171, 8.3491097 ], [ 9.3827534, 8.3501234 ], [ 9.3769665, 8.3500109 ], [ 9.3678303, 8.3440781 ], [ 9.3632765, 8.3405371 ], [ 9.3599501, 8.3335676 ], [ 9.3566237, 8.3265972 ], [ 9.3545465, 8.3150492 ], [ 9.3501835, 8.3023062 ], [ 9.3468571, 8.2953367 ], [ 9.3424664, 8.2837429 ], [ 9.3356934, 8.2755556 ], [ 9.3300304, 8.2696915 ], [ 9.3255196, 8.2638493 ], [ 9.3234234, 8.2534513 ], [ 9.3249378, 8.2485611 ], [ 9.3259029, 8.2454443 ], [ 9.329567, 8.23631 ], [ 9.3361654, 8.2325611 ], [ 9.3414574, 8.2293386 ], [ 9.3467484, 8.2261162 ], [ 9.3537493, 8.222971 ], [ 9.3589582, 8.2214756 ], [ 9.3642502, 8.2182531 ], [ 9.3712492, 8.2151079 ], [ 9.3748331, 8.2118092 ], [ 9.3801241, 8.2085867 ], [ 9.3806033, 8.2079296 ], [ 9.3821392, 8.2058239 ], [ 9.3843632, 8.2047577 ], [ 9.3904696, 8.201828 ], [ 9.3975334, 8.1962128 ], [ 9.4058237, 8.1871691 ], [ 9.4118233, 8.1769295 ], [ 9.4062767, 8.1653137 ], [ 9.4006138, 8.1594496 ], [ 9.3914299, 8.155817 ], [ 9.3869467, 8.1488256 ], [ 9.3919096, 8.1328115 ], [ 9.3921706, 8.1202184 ], [ 9.3922195, 8.1178579 ], [ 9.3925562, 8.1017542 ], [ 9.3950367, 8.0937481 ], [ 9.398653, 8.0869141 ], [ 9.4034233, 8.0801029 ], [ 9.4140263, 8.0711041 ], [ 9.4153767, 8.0619249 ], [ 9.4041433, 8.0455942 ], [ 9.396163, 8.0396843 ], [ 9.3870535, 8.0326023 ], [ 9.3790503, 8.0278435 ], [ 9.3688297, 8.0184364 ], [ 9.3596935, 8.0125036 ], [ 9.3517132, 8.0065937 ], [ 9.3460264, 8.0018797 ], [ 9.339323, 7.990242 ], [ 9.3355179, 7.985508 ], [ 9.3286988, 7.9817769 ], [ 9.3191156, 7.9765334 ], [ 9.3145857, 7.9740548 ], [ 9.3053627, 7.969008 ], [ 9.2810802, 7.9558549 ], [ 9.2507267, 7.944725 ], [ 9.2203732, 7.9265132 ], [ 9.209754, 7.9217687 ], [ 9.1867914, 7.9115086 ], [ 9.1852787, 7.9108327 ], [ 9.1852256, 7.9108089 ], [ 9.1791258, 7.9080834 ], [ 9.1761339, 7.9150649 ], [ 9.1755257, 7.9164844 ], [ 9.1638021, 7.9367752 ], [ 9.1457663, 7.9701419 ], [ 9.1343528, 7.9886397 ], [ 9.1326904, 7.991334 ], [ 9.1146545, 8.0080175 ], [ 9.0984221, 8.0278568 ], [ 9.0934286, 8.0340614 ], [ 9.0835419, 8.0463438 ], [ 9.0676756, 8.0675201 ], [ 9.0624666, 8.0744734 ], [ 9.0570202, 8.0776415 ], [ 9.0501757, 8.075202 ], [ 9.0253754, 8.0625763 ], [ 8.9640841, 8.0612742 ], [ 8.9108467, 8.0562639 ], [ 8.900515, 8.0583488 ], [ 8.8418589, 8.0670853 ], [ 8.8197651, 8.0702419 ], [ 8.7821865, 8.0749934 ], [ 8.7805367, 8.075202 ], [ 8.7046428, 8.0943796 ], [ 8.6966686, 8.0963945 ], [ 8.6910353, 8.0982723 ], [ 8.6371498, 8.1162338 ], [ 8.6011434, 8.1254828 ], [ 8.5898698, 8.1283786 ], [ 8.5880013, 8.1288586 ], [ 8.5604963, 8.140132 ], [ 8.5244246, 8.1572657 ], [ 8.5126801, 8.1577768 ], [ 8.5036831, 8.1581678 ], [ 8.5013182, 8.1569551 ], [ 8.4860983, 8.1491499 ], [ 8.466258, 8.1392298 ], [ 8.4265785, 8.1121759 ], [ 8.4136798, 8.0999221 ], [ 8.4035014, 8.0902525 ], [ 8.3909133, 8.0782938 ], [ 8.3711176, 8.0463438 ], [ 8.3634529, 8.0165844 ], [ 8.3602962, 7.9872761 ], [ 8.3602962, 7.9622836 ], [ 8.3444067, 7.9734157 ], [ 8.3397162, 7.9609895 ], [ 8.3479161, 7.9281514 ], [ 8.3708443, 7.9022282 ], [ 8.3739935, 7.8992266 ], [ 8.3757167, 7.8978729 ], [ 8.3792819, 7.8963426 ], [ 8.3818964, 7.8949301 ], [ 8.3849862, 7.8942238 ], [ 8.3890268, 7.8926346 ], [ 8.3911065, 7.8904569 ], [ 8.3919978, 7.8865723 ], [ 8.3918195, 7.8836883 ], [ 8.3915818, 7.8806865 ], [ 8.3918789, 7.878803 ], [ 8.3934239, 7.8752714 ], [ 8.3941789, 7.8728684 ], [ 8.396644, 7.8647237 ], [ 8.3984746, 7.8573778 ], [ 8.3985015, 7.8556583 ], [ 8.3988789, 7.8525446 ], [ 8.3993659, 7.8502554 ], [ 8.4000307, 7.8484158 ], [ 8.4006137, 7.8471945 ], [ 8.4009022, 7.8448564 ], [ 8.4010341, 7.841721 ], [ 8.4011695, 7.8403729 ], [ 8.401507, 7.8382082 ], [ 8.4037777, 7.8344708 ], [ 8.4059918, 7.8296354 ], [ 8.4063548, 7.8274939 ], [ 8.4063456, 7.8252058 ], [ 8.4062546, 7.819724 ], [ 8.4067041, 7.8176745 ], [ 8.4086644, 7.8118881 ], [ 8.4102703, 7.8080944 ], [ 8.4123846, 7.8048548 ], [ 8.4149976, 7.8013946 ], [ 8.4157593, 7.7999577 ], [ 8.4157901, 7.7995026 ], [ 8.415693, 7.7984647 ], [ 8.4155909, 7.797591 ], [ 8.415362, 7.7972408 ], [ 8.4154247, 7.7961614 ], [ 8.4155705, 7.7946494 ], [ 8.415719, 7.7938842 ], [ 8.4153078, 7.7930733 ], [ 8.4154697, 7.7920482 ], [ 8.4161835, 7.790454 ], [ 8.4169449, 7.7898829 ], [ 8.4174465, 7.7881392 ], [ 8.418543, 7.7856417 ], [ 8.4192073, 7.7847623 ], [ 8.4200601, 7.7826455 ], [ 8.4197099, 7.7816195 ], [ 8.4193558, 7.7806829 ], [ 8.4190817, 7.7795294 ], [ 8.4189789, 7.7781931 ], [ 8.4205906, 7.7742447 ], [ 8.420536, 7.7742327 ], [ 8.411994, 7.7685089 ], [ 8.4031553, 7.7661829 ], [ 8.385478, 7.7680435 ], [ 8.372159, 7.7700024 ], [ 8.3622189, 7.7745562 ], [ 8.3454723, 7.7843251 ], [ 8.3287249, 7.7917681 ], [ 8.3182337, 7.7959284 ], [ 8.3017445, 7.8024673 ], [ 8.2747631, 7.8145623 ], [ 8.2515039, 7.8224702 ], [ 8.2381163, 7.8269328 ], [ 8.2152195, 7.8345652 ], [ 8.1910295, 7.8489861 ], [ 8.1854477, 7.8522425 ], [ 8.1831217, 7.8531728 ], [ 8.1803579, 7.8525805 ], [ 8.1756783, 7.8550334 ], [ 8.1598625, 7.8596854 ], [ 8.1393938, 7.861546 ], [ 8.1138086, 7.8638721 ], [ 8.0952015, 7.868989 ], [ 8.0724068, 7.8773623 ], [ 8.0708244, 7.8783166 ], [ 8.0641376, 7.8823485 ], [ 8.0641167, 7.882361 ], [ 8.0407743, 7.8964353 ], [ 7.9947209, 7.9229507 ], [ 7.9803173, 7.9336768 ], [ 7.972857, 7.9392323 ], [ 7.931921, 7.9573746 ], [ 7.903079, 7.9690042 ], [ 7.8929157, 7.9746304 ], [ 7.8770289, 7.9834251 ], [ 7.86726, 7.9862161 ], [ 7.838418, 7.9852858 ], [ 7.8109722, 7.991333 ], [ 7.7825956, 7.9987764 ], [ 7.7607322, 8.0034285 ], [ 7.7384028, 8.0062189 ], [ 7.7277783, 8.0081508 ], [ 7.6974669, 8.0136623 ], [ 7.6768379, 8.0144711 ], [ 7.6772256, 8.0166264 ], [ 7.67515, 8.0171146 ], [ 7.6656761, 8.0193434 ], [ 7.6249142, 8.0295343 ], [ 7.5834727, 8.0376863 ], [ 7.5427103, 8.0431213 ], [ 7.5053449, 8.0471983 ], [ 7.5001475, 8.0471333 ], [ 7.458526, 8.0466125 ], [ 7.4509954, 8.0486065 ], [ 7.445787, 8.046949 ], [ 7.4324422, 8.0477806 ], [ 7.4044852, 8.0450531 ], [ 7.3931785, 8.0439497 ], [ 7.3055539, 8.0276695 ], [ 7.289005, 8.0222102 ], [ 7.2538409, 8.0150471 ], [ 7.1959033, 7.9930215 ], [ 7.1178551, 7.9590249 ], [ 7.0728455, 7.9427447 ], [ 7.0693778, 7.940922 ], [ 7.0564861, 7.9341458 ], [ 7.0354972, 7.9231133 ], [ 7.006289, 7.9025235 ], [ 6.9794745, 7.8876801 ], [ 6.9665465, 7.8790612 ], [ 6.9635878, 7.8792949 ], [ 6.9626684, 7.887568 ], [ 6.9599104, 7.8967605 ], [ 6.9543953, 7.9050336 ], [ 6.9525566, 7.9179034 ], [ 6.9571528, 7.9298534 ], [ 6.9608297, 7.9427228 ], [ 6.9635878, 7.9601884 ], [ 6.9684822, 7.968754 ], [ 6.9782953, 7.9859276 ], [ 6.9792147, 8.0006351 ], [ 6.9727802, 8.0199394 ], [ 6.9722073, 8.0241636 ], [ 6.9709415, 8.0300512 ], [ 6.9773765, 8.0502748 ], [ 6.9870286, 8.0778522 ], [ 6.9870286, 8.0925598 ], [ 6.9833512, 8.1155415 ], [ 6.9971399, 8.1532307 ], [ 7.0026555, 8.1670189 ], [ 7.0008173, 8.1817274 ], [ 6.9925437, 8.1955156 ], [ 6.9796743, 8.2111435 ], [ 6.9723206, 8.2249317 ], [ 6.9704819, 8.2451553 ], [ 6.9649663, 8.265379 ], [ 6.9594507, 8.2754908 ], [ 6.9530163, 8.2837639 ], [ 6.9410658, 8.2929564 ], [ 6.9402273, 8.2940345 ], [ 6.9346313, 8.3012295 ], [ 6.9346313, 8.3104219 ], [ 6.9419851, 8.3223724 ], [ 6.9511776, 8.3462725 ], [ 6.9557738, 8.3591423 ], [ 6.9560239, 8.3612674 ], [ 6.9576125, 8.3747692 ], [ 6.9695625, 8.3913155 ], [ 6.9808149, 8.4437277 ] ] ] } }
]
}
