{
"type": "FeatureCollection",
"name": "Sokoto_state_boundary",
"crs": { "type": "name", "properties": { "name": "urn:ogc:def:crs:OGC:1.3:CRS84" } },
"features": [
{ "type": "Feature", "properties": { "state_code": "SO", "state_name": "Sokoto", "cap_city": "Sokoto", "geo_zone": "NWZ" }, "geometry": { "type": "Polygon", "coordinates": [ [ [ 4.1264047, 13.2496741 ], [ 4.1257764, 13.2865237 ], [ 4.1273667, 13.3007566 ], [ 4.1281532, 13.3663152 ], [ 4.1281532, 13.3897272 ], [ 4.1266677, 13.410536 ], [ 4.1248851, 13.4512814 ], [ 4.1264729, 13.4681591 ], [ 4.1424999, 13.476944 ], [ 4.2324084, 13.4994225 ], [ 4.2876957, 13.5411278 ], [ 4.3132463, 13.5648116 ], [ 4.333449, 13.588493 ], [ 4.348835, 13.6066977 ], [ 4.3690948, 13.6209745 ], [ 4.3747465, 13.635488 ], [ 4.3777863, 13.6408522 ], [ 4.3943545, 13.6534603 ], [ 4.4282238, 13.6673177 ], [ 4.4447925, 13.6746463 ], [ 4.4650803, 13.6812694 ], [ 4.503109, 13.6914303 ], [ 4.5423262, 13.7020527 ], [ 4.5973345, 13.7139391 ], [ 4.636685, 13.723065 ], [ 4.643848, 13.726055 ], [ 4.667108, 13.7357639 ], [ 4.7083888, 13.7585251 ], [ 4.7285916, 13.7622766 ], [ 4.744635, 13.7657394 ], [ 4.8013561, 13.7687256 ], [ 4.8042461, 13.7691295 ], [ 4.8395051, 13.7752778 ], [ 4.8735276, 13.781422 ], [ 4.9088824, 13.7459281 ], [ 4.9501793, 13.7343842 ], [ 5.0057106, 13.7360812 ], [ 5.0779321, 13.7516998 ], [ 5.1584199, 13.7432473 ], [ 5.1785948, 13.7419977 ], [ 5.2047396, 13.7359948 ], [ 5.2249424, 13.7392271 ], [ 5.2475219, 13.7429212 ], [ 5.2524728, 13.7448565 ], [ 5.2670117, 13.7505399 ], [ 5.2812725, 13.7560807 ], [ 5.2871797, 13.7617355 ], [ 5.2986231, 13.7745489 ], [ 5.3052781, 13.7807817 ], [ 5.3169244, 13.7930157 ], [ 5.3329548, 13.8101958 ], [ 5.3503977, 13.8341355 ], [ 5.3831386, 13.8462551 ], [ 5.4001089, 13.8524859 ], [ 5.4191077, 13.8594102 ], [ 5.4198923, 13.8596962 ], [ 5.4219992, 13.8603779 ], [ 5.4517413, 13.8711053 ], [ 5.4854506, 13.8774921 ], [ 5.5300009, 13.885714 ], [ 5.5444043, 13.8800379 ], [ 5.5571677, 13.8752615 ], [ 5.591037, 13.8574012 ], [ 5.6028022, 13.8512398 ], [ 5.6082213, 13.8485398 ], [ 5.6099627, 13.8478305 ], [ 5.6155418, 13.8445474 ], [ 5.631609, 13.8363317 ], [ 5.6503381, 13.829962 ], [ 5.657374, 13.827628 ], [ 5.6770533, 13.8205456 ], [ 5.6929747, 13.8151939 ], [ 5.6944992, 13.8169806 ], [ 5.7041681, 13.8146127 ], [ 5.7051831, 13.8134865 ], [ 5.7053673, 13.8113214 ], [ 5.7071309, 13.8100896 ], [ 5.7120398, 13.8079898 ], [ 5.7167685, 13.806165 ], [ 5.7434135, 13.7954334 ], [ 5.7675618, 13.7854616 ], [ 5.7955129, 13.774566 ], [ 5.8090131, 13.7697644 ], [ 5.8249783, 13.7638003 ], [ 5.8383487, 13.7608747 ], [ 5.8539821, 13.7592374 ], [ 5.8594963, 13.7586834 ], [ 5.8618229, 13.7576346 ], [ 5.8761339, 13.7507417 ], [ 5.9103598, 13.7395674 ], [ 5.9234813, 13.73622 ], [ 5.9442054, 13.7248831 ], [ 5.9504866, 13.7227329 ], [ 5.9506497, 13.7226886 ], [ 5.9510428, 13.7225666 ], [ 5.9740579, 13.7152777 ], [ 5.9762592, 13.7145382 ], [ 5.9818098, 13.7126736 ], [ 5.987842, 13.7106471 ], [ 5.9990225, 13.7071004 ], [ 6.0084916, 13.7039969 ], [ 6.0199573, 13.7002838 ], [ 6.0315371, 13.6965152 ], [ 6.0443147, 13.692414 ], [ 6.0594882, 13.6874814 ], [ 6.0692996, 13.6842668 ], [ 6.0759737, 13.6821053 ], [ 6.0891785, 13.6775981 ], [ 6.0961099, 13.6746783 ], [ 6.1034114, 13.6709093 ], [ 6.1090031, 13.6680961 ], [ 6.1164173, 13.6644242 ], [ 6.138607, 13.6563869 ], [ 6.1556629, 13.6447462 ], [ 6.1624511, 13.6474625 ], [ 6.1678702, 13.6492917 ], [ 6.1718061, 13.6506221 ], [ 6.1729277, 13.6510796 ], [ 6.1760844, 13.6519525 ], [ 6.1890332, 13.6566641 ], [ 6.2092835, 13.6645351 ], [ 6.223145, 13.6699116 ], [ 6.2267871, 13.6712516 ], [ 6.2328073, 13.6735222 ], [ 6.2769709, 13.6766256 ], [ 6.2963613, 13.679041 ], [ 6.3425276, 13.651501 ], [ 6.3572643, 13.6432042 ], [ 6.3637111, 13.6395745 ], [ 6.3849845, 13.6275968 ], [ 6.403001, 13.6113338 ], [ 6.4230849, 13.604057 ], [ 6.4413268, 13.5983972 ], [ 6.4620267, 13.5900171 ], [ 6.4755203, 13.5806132 ], [ 6.4788003, 13.5785339 ], [ 6.4953428, 13.5684142 ], [ 6.5297113, 13.5191963 ], [ 6.5536694, 13.4846684 ], [ 6.5586444, 13.4778235 ], [ 6.5823336, 13.454435 ], [ 6.6231194, 13.413378 ], [ 6.6530531, 13.3709234 ], [ 6.6613258, 13.3624286 ], [ 6.6791658, 13.3438873 ], [ 6.7125535, 13.3114567 ], [ 6.7353708, 13.2818493 ], [ 6.7441965, 13.2643881 ], [ 6.7482625, 13.2492903 ], [ 6.7530697, 13.2070413 ], [ 6.7642129, 13.1864057 ], [ 6.7799716, 13.1564435 ], [ 6.788174, 13.1409302 ], [ 6.792772, 13.13226 ], [ 6.7434586, 13.118467 ], [ 6.6876957, 13.132894 ], [ 6.6856, 13.1277 ], [ 6.6842, 13.1183 ], [ 6.6832, 13.1072 ], [ 6.6571772, 13.0927583 ], [ 6.6067906, 13.0466043 ], [ 6.581263, 13.0225356 ], [ 6.5740383, 13.0253939 ], [ 6.56028, 13.0277474 ], [ 6.5512965, 13.0325345 ], [ 6.5460192, 13.0406277 ], [ 6.5428997, 13.0442456 ], [ 6.5361898, 13.0490484 ], [ 6.5289431, 13.0529129 ], [ 6.5254328, 13.0580423 ], [ 6.5218676, 13.0666089 ], [ 6.5200958, 13.0741762 ], [ 6.519447, 13.0769468 ], [ 6.5210788, 13.0787097 ], [ 6.5232892, 13.079821 ], [ 6.5251431, 13.0810711 ], [ 6.5264979, 13.0829464 ], [ 6.5267831, 13.0852383 ], [ 6.5252144, 13.0870441 ], [ 6.5223622, 13.0882247 ], [ 6.5200092, 13.0896832 ], [ 6.5191536, 13.0915584 ], [ 6.5187257, 13.0934336 ], [ 6.5191536, 13.0949615 ], [ 6.5205796, 13.0972533 ], [ 6.5225049, 13.0999618 ], [ 6.523004, 13.1019063 ], [ 6.5227901, 13.1036425 ], [ 6.5226475, 13.1061426 ], [ 6.5220057, 13.108226 ], [ 6.5205796, 13.1111427 ], [ 6.5192962, 13.1129483 ], [ 6.5196551, 13.1138333 ], [ 6.5199522, 13.1150486 ], [ 6.5205464, 13.1171898 ], [ 6.5206058, 13.1195045 ], [ 6.520487, 13.1218193 ], [ 6.5194174, 13.1230345 ], [ 6.5174565, 13.1233239 ], [ 6.5160305, 13.124134 ], [ 6.5151392, 13.1250599 ], [ 6.5137131, 13.1267959 ], [ 6.5116928, 13.1293999 ], [ 6.5087129, 13.13152 ], [ 6.5014132, 13.1285319 ], [ 6.494461, 13.1254071 ], [ 6.4925002, 13.1241919 ], [ 6.4891132, 13.1229188 ], [ 6.4818046, 13.1208355 ], [ 6.4756249, 13.1195624 ], [ 6.4628, 13.1169 ], [ 6.4523654, 13.1169346 ], [ 6.4504662, 13.1194158 ], [ 6.4503949, 13.1220546 ], [ 6.4511079, 13.1237907 ], [ 6.4523201, 13.1256656 ], [ 6.4538888, 13.1261517 ], [ 6.4555803, 13.1237363 ], [ 6.4586424, 13.1243925 ], [ 6.4609104, 13.1245679 ], [ 6.4642279, 13.1282117 ], [ 6.4662481, 13.1306421 ], [ 6.4643616, 13.1340373 ], [ 6.463396, 13.136313 ], [ 6.4613757, 13.1373545 ], [ 6.4592366, 13.138859 ], [ 6.4557902, 13.1394377 ], [ 6.4550442, 13.1392806 ], [ 6.4529823, 13.1388467 ], [ 6.4517883, 13.1399926 ], [ 6.4510903, 13.1406625 ], [ 6.450799, 13.1409421 ], [ 6.4503236, 13.1433724 ], [ 6.4502523, 13.1462193 ], [ 6.450799, 13.1492744 ], [ 6.4516308, 13.1518203 ], [ 6.4526589, 13.1535723 ], [ 6.4530569, 13.1542505 ], [ 6.4531983, 13.1571977 ], [ 6.451821, 13.1580924 ], [ 6.4487549, 13.1583701 ], [ 6.4371214, 13.1533634 ], [ 6.4126455, 13.1380482 ], [ 6.4026016, 13.1291355 ], [ 6.3983554, 13.1301085 ], [ 6.3947278, 13.1302791 ], [ 6.3917357, 13.1298257 ], [ 6.359031, 13.1371303 ], [ 6.3621324, 13.1439942 ], [ 6.3693466, 13.149026 ], [ 6.355913, 13.164135 ], [ 6.3479, 13.1573 ], [ 6.3369, 13.1686 ], [ 6.3337427, 13.1721369 ], [ 6.3273211, 13.17955 ], [ 6.3000373, 13.1824507 ], [ 6.2583093, 13.1603329 ], [ 6.2611057, 13.1357969 ], [ 6.229355, 13.1354589 ], [ 6.1908533, 13.1007653 ], [ 6.1443884, 13.0790482 ], [ 6.1136501, 13.0646804 ], [ 6.102, 13.0598 ], [ 6.0468891, 13.0311964 ], [ 6.0477, 13.0289 ], [ 6.0480705, 13.0265598 ], [ 6.0485532, 13.0235105 ], [ 6.0497, 13.0195 ], [ 6.0498, 13.0181 ], [ 6.0502, 13.0161 ], [ 6.0511, 13.0134 ], [ 6.0521, 13.011 ], [ 6.0533, 13.0086 ], [ 6.0538, 13.0057 ], [ 6.0547, 13.0033 ], [ 6.0549, 13.0003 ], [ 6.0558, 12.9982 ], [ 6.0561, 12.9955 ], [ 6.0557, 12.994 ], [ 6.0556, 12.9928 ], [ 6.0558, 12.9909 ], [ 6.0566, 12.9896 ], [ 6.057, 12.9884 ], [ 6.057, 12.9863 ], [ 6.0572, 12.9855 ], [ 6.0569, 12.9809 ], [ 6.0571, 12.98 ], [ 6.0572, 12.9779 ], [ 6.0562071, 12.9737892 ], [ 6.0557, 12.9722 ], [ 6.0558, 12.9711 ], [ 6.0554, 12.9667 ], [ 6.0487294, 12.948325 ], [ 6.0438846, 12.937954 ], [ 6.0348794, 12.9330611 ], [ 6.0212, 12.9261 ], [ 6.0057881, 12.9191018 ], [ 6.0092536, 12.8798317 ], [ 6.0301711, 12.7953465 ], [ 6.0340776, 12.7840663 ], [ 6.0244133, 12.7487933 ], [ 5.9861039, 12.7547336 ], [ 5.9616735, 12.754693 ], [ 5.9613, 12.7586 ], [ 5.9589, 12.7608 ], [ 5.9532, 12.764 ], [ 5.9507, 12.7653 ], [ 5.9475, 12.7725 ], [ 5.9408969, 12.7774904 ], [ 5.9288384, 12.7870865 ], [ 5.9113604, 12.799689 ], [ 5.8879517, 12.8170608 ], [ 5.88332, 12.8203494 ], [ 5.8770016, 12.8183796 ], [ 5.8695693, 12.8159194 ], [ 5.8657356, 12.8150423 ], [ 5.8606017, 12.8133273 ], [ 5.8553728, 12.8115195 ], [ 5.8520452, 12.8103144 ], [ 5.8478145, 12.8105461 ], [ 5.8360322, 12.8147703 ], [ 5.832255, 12.8193699 ], [ 5.8131328, 12.8396692 ], [ 5.8109755, 12.8391897 ], [ 5.80484, 12.837826 ], [ 5.7713256, 12.833336 ], [ 5.7613564, 12.8314749 ], [ 5.7339875, 12.8267818 ], [ 5.6888846, 12.8565504 ], [ 5.6817127, 12.8651736 ], [ 5.6748845, 12.8679358 ], [ 5.6346804, 12.8829284 ], [ 5.6326245, 12.8770974 ], [ 5.6299138, 12.8727571 ], [ 5.6267428, 12.8664742 ], [ 5.6234307, 12.8599116 ], [ 5.5882094, 12.8040811 ], [ 5.6203764, 12.7870688 ], [ 5.6492779, 12.768876 ], [ 5.674533, 12.7348074 ], [ 5.6863459, 12.7138646 ], [ 5.6941117, 12.6891366 ], [ 5.6774338, 12.6319239 ], [ 5.6899973, 12.6273553 ], [ 5.7230756, 12.6206349 ], [ 5.7254841, 12.5764864 ], [ 5.7283141, 12.5511398 ], [ 5.7172366, 12.4869257 ], [ 5.723343, 12.4736934 ], [ 5.7359066, 12.4485663 ], [ 5.7651533, 12.4095352 ], [ 5.7726238, 12.3834876 ], [ 5.7567414, 12.338779 ], [ 5.7538224, 12.3369169 ], [ 5.7551101, 12.3310087 ], [ 5.7505108, 12.3239667 ], [ 5.7505724, 12.3239248 ], [ 5.6915467, 12.3217009 ], [ 5.6526, 12.3483 ], [ 5.5666702, 12.351512 ], [ 5.5411, 12.2728426 ], [ 5.5192759, 12.260593 ], [ 5.5006701, 12.2571044 ], [ 5.475761, 12.2524339 ], [ 5.4696565, 12.2525949 ], [ 5.4691787, 12.2545347 ], [ 5.467301, 12.2621584 ], [ 5.4650524, 12.2712876 ], [ 5.4619959, 12.2779949 ], [ 5.4591005, 12.2843487 ], [ 5.4580484, 12.2872696 ], [ 5.4542373, 12.2967309 ], [ 5.4386735, 12.3430403 ], [ 5.4222779, 12.3532622 ], [ 5.39647, 12.3448772 ], [ 5.3926193, 12.3294874 ], [ 5.3845372, 12.3242611 ], [ 5.3798666, 12.3262351 ], [ 5.3756856, 12.3283171 ], [ 5.3601028, 12.337522 ], [ 5.3528072, 12.343958 ], [ 5.3480321, 12.3455508 ], [ 5.3418245, 12.3420846 ], [ 5.3335326, 12.3460506 ], [ 5.3216487, 12.3492431 ], [ 5.3173325, 12.3513063 ], [ 5.3115782, 12.3557736 ], [ 5.2928682, 12.3484394 ], [ 5.2761657, 12.3420412 ], [ 5.2640178, 12.338019 ], [ 5.2416283, 12.3312622 ], [ 5.2035971, 12.3224772 ], [ 5.1995155, 12.3229043 ], [ 5.1886192, 12.322922 ], [ 5.1818699, 12.3224886 ], [ 5.1803846, 12.3216176 ], [ 5.180358, 12.321602 ], [ 5.1803382, 12.3215893 ], [ 5.1803033, 12.3215643 ], [ 5.1771638, 12.319319 ], [ 5.1715664, 12.3202246 ], [ 5.1602441, 12.3161124 ], [ 5.155737, 12.3128403 ], [ 5.1541497, 12.3111964 ], [ 5.1525376, 12.3095266 ], [ 5.1477153, 12.306466 ], [ 5.1452553, 12.3026004 ], [ 5.1444064, 12.3016453 ], [ 5.1379466, 12.2931596 ], [ 5.1354225, 12.2906979 ], [ 5.1334707, 12.2887877 ], [ 5.1280069, 12.2856817 ], [ 5.1241005, 12.2857972 ], [ 5.1167, 12.2834 ], [ 5.1020978, 12.2849018 ], [ 5.0849441, 12.2939417 ], [ 5.0644, 12.2974 ], [ 5.038448, 12.298296 ], [ 4.9976, 12.3007 ], [ 4.9668485, 12.3078638 ], [ 4.9529495, 12.3144141 ], [ 4.9504, 12.2313 ], [ 4.9335837, 12.2306518 ], [ 4.8750303, 12.2297287 ], [ 4.8726761, 12.2081874 ], [ 4.8617305, 12.1596464 ], [ 4.86635, 12.1364257 ], [ 4.8685827, 12.1329011 ], [ 4.8745796, 12.1182438 ], [ 4.8645526, 12.0909124 ], [ 4.8645907, 12.0676508 ], [ 4.863346, 12.0593772 ], [ 4.8607454, 12.0476062 ], [ 4.8707133, 12.0286016 ], [ 4.8666996, 11.9327371 ], [ 4.9444, 11.8808 ], [ 4.9682171, 11.8756829 ], [ 4.9592, 11.8685 ], [ 4.953, 11.8633 ], [ 4.9446, 11.8551 ], [ 4.9371, 11.8487 ], [ 4.935, 11.8451 ], [ 4.9313, 11.8361 ], [ 4.9281573, 11.8263897 ], [ 4.9262148, 11.8202185 ], [ 4.9259, 11.8171 ], [ 4.9264, 11.8138 ], [ 4.9254, 11.8084 ], [ 4.9238, 11.8023 ], [ 4.9228, 11.7972 ], [ 4.9230691, 11.794832 ], [ 4.9196, 11.7899 ], [ 4.9293, 11.7645616 ], [ 4.9410111, 11.7308303 ], [ 4.9430731, 11.726842 ], [ 4.9387948, 11.7223738 ], [ 4.934374, 11.7220945 ], [ 4.9337057, 11.7230256 ], [ 4.9324936, 11.7233746 ], [ 4.9317805, 11.7239332 ], [ 4.9304258, 11.7236539 ], [ 4.9280727, 11.7233746 ], [ 4.9259336, 11.723235 ], [ 4.9192576, 11.7227927 ], [ 4.9151219, 11.7218153 ], [ 4.9139811, 11.7166488 ], [ 4.9038559, 11.7120407 ], [ 4.8991499, 11.7086894 ], [ 4.8938734, 11.7092479 ], [ 4.8937399, 11.7112728 ], [ 4.8910118, 11.7124364 ], [ 4.8897377, 11.713856 ], [ 4.8894525, 11.7193018 ], [ 4.8911638, 11.7267024 ], [ 4.8924473, 11.7318687 ], [ 4.891196, 11.7375126 ], [ 4.8924473, 11.7452727 ], [ 4.8927, 11.7468 ], [ 4.8894525, 11.7501595 ], [ 4.8838908, 11.7511368 ], [ 4.8786143, 11.7501595 ], [ 4.8770458, 11.7449349 ], [ 4.874804, 11.7400568 ], [ 4.8726248, 11.7381519 ], [ 4.8730526, 11.7345216 ], [ 4.8697726, 11.7338235 ], [ 4.8615014, 11.7357783 ], [ 4.8498297, 11.7351075 ], [ 4.8485327, 11.744409 ], [ 4.8439693, 11.7520881 ], [ 4.8368389, 11.7533447 ], [ 4.8326684, 11.7520378 ], [ 4.8315624, 11.7566955 ], [ 4.8282824, 11.7592086 ], [ 4.8235763, 11.7600463 ], [ 4.8207785, 11.7628907 ], [ 4.8198, 11.7669 ], [ 4.81521, 11.7660869 ], [ 4.8093156, 11.7596274 ], [ 4.802613, 11.7576728 ], [ 4.8004472, 11.7520649 ], [ 4.7994281, 11.7494261 ], [ 4.7947696, 11.7473411 ], [ 4.7937238, 11.7430035 ], [ 4.7912044, 11.7409184 ], [ 4.7849296, 11.7384052 ], [ 4.7804583, 11.7396308 ], [ 4.7772288, 11.7372882 ], [ 4.7726653, 11.7374278 ], [ 4.7683396, 11.7390009 ], [ 4.7657891, 11.7367818 ], [ 4.7615419, 11.734356 ], [ 4.762659, 11.7300973 ], [ 4.7657489, 11.7253266 ], [ 4.7672983, 11.720413 ], [ 4.7648219, 11.7180563 ], [ 4.7630155, 11.7189872 ], [ 4.7611057, 11.7212098 ], [ 4.759549, 11.7219052 ], [ 4.7587009, 11.7225696 ], [ 4.7570765, 11.7230178 ], [ 4.7557035, 11.7226137 ], [ 4.7558172, 11.7219606 ], [ 4.7552518, 11.7210748 ], [ 4.7543471, 11.7210194 ], [ 4.753499, 11.7205765 ], [ 4.7524812, 11.7202443 ], [ 4.7516896, 11.7202997 ], [ 4.7503891, 11.7195246 ], [ 4.7493148, 11.7196907 ], [ 4.7477316, 11.719746 ], [ 4.7469401, 11.7202443 ], [ 4.746205, 11.7210748 ], [ 4.7450742, 11.7214069 ], [ 4.7440564, 11.7207426 ], [ 4.7435258, 11.7195458 ], [ 4.7425609, 11.7152206 ], [ 4.738487, 11.7101435 ], [ 4.7382077, 11.7073775 ], [ 4.7356348, 11.7051165 ], [ 4.7334482, 11.7042786 ], [ 4.7322123, 11.7023236 ], [ 4.7311665, 11.69981 ], [ 4.730036, 11.6992038 ], [ 4.7271734, 11.6976688 ], [ 4.7210836, 11.6947501 ], [ 4.7125324, 11.6911519 ], [ 4.7080272, 11.692098 ], [ 4.702565, 11.6911407 ], [ 4.7010463, 11.6906009 ], [ 4.6988799, 11.6926824 ], [ 4.6968834, 11.6919842 ], [ 4.6959564, 11.6903782 ], [ 4.6946558, 11.6883298 ], [ 4.6918921, 11.6859094 ], [ 4.6897596, 11.6865898 ], [ 4.6860452, 11.6861887 ], [ 4.6820978, 11.6838668 ], [ 4.6765142, 11.6818824 ], [ 4.67428, 11.6827672 ], [ 4.6727351, 11.6834771 ], [ 4.6718795, 11.6851529 ], [ 4.6716355, 11.6863119 ], [ 4.671758, 11.6873956 ], [ 4.6718005, 11.6881874 ], [ 4.6715452, 11.6897293 ], [ 4.6710345, 11.6907294 ], [ 4.6702685, 11.6911878 ], [ 4.6695025, 11.6914795 ], [ 4.669077, 11.6918129 ], [ 4.668311, 11.6923129 ], [ 4.6673322, 11.692438 ], [ 4.6665237, 11.6926463 ], [ 4.6659279, 11.693063 ], [ 4.6649492, 11.6938131 ], [ 4.6643534, 11.6943965 ], [ 4.6632895, 11.6945632 ], [ 4.6623533, 11.6942715 ], [ 4.6615022, 11.6938965 ], [ 4.6610767, 11.6933547 ], [ 4.6606937, 11.6928547 ], [ 4.6606086, 11.6922713 ], [ 4.6606937, 11.6916879 ], [ 4.6608639, 11.6909378 ], [ 4.6608213, 11.6898543 ], [ 4.6607788, 11.6893125 ], [ 4.6608213, 11.6883124 ], [ 4.6603279, 11.6874594 ], [ 4.659786, 11.6866773 ], [ 4.6596291, 11.6857696 ], [ 4.6594726, 11.680684 ], [ 4.6591988, 11.6785562 ], [ 4.6693102, 11.6748193 ], [ 4.6668106, 11.6675621 ], [ 4.6410524, 11.6709662 ], [ 4.6349916, 11.672293 ], [ 4.6326546, 11.6714253 ], [ 4.6288594, 11.6681032 ], [ 4.6267406, 11.6635679 ], [ 4.6253133, 11.6616714 ], [ 4.6231406, 11.656688 ], [ 4.6192694, 11.6556253 ], [ 4.6152972, 11.6577355 ], [ 4.6020722, 11.6564198 ], [ 4.5936921, 11.6553611 ], [ 4.5859913, 11.6548723 ], [ 4.5698789, 11.6328577 ], [ 4.5461637, 11.6343979 ], [ 4.547162, 11.6282241 ], [ 4.5483456, 11.6230978 ], [ 4.5508894, 11.6184819 ], [ 4.5510203, 11.6166799 ], [ 4.5498794, 11.6140259 ], [ 4.5487386, 11.610813 ], [ 4.548596, 11.6071811 ], [ 4.5479542, 11.6045968 ], [ 4.5482394, 11.6009647 ], [ 4.5474551, 11.5974025 ], [ 4.5495229, 11.5960754 ], [ 4.5514481, 11.593002 ], [ 4.554229, 11.5902779 ], [ 4.5561542, 11.5866277 ], [ 4.5699354, 11.5736547 ], [ 4.5541297, 11.5645735 ], [ 4.5419858, 11.5602793 ], [ 4.5227613, 11.5303145 ], [ 4.5155348, 11.5311551 ], [ 4.4947078, 11.5325874 ], [ 4.4827859, 11.5319983 ], [ 4.496796, 11.552431 ], [ 4.4693569, 11.5765158 ], [ 4.4341824, 11.6035839 ], [ 4.4192309, 11.614178 ], [ 4.4272804, 11.6705613 ], [ 4.3968251, 11.6922476 ], [ 4.3751016, 11.7146202 ], [ 4.3715578, 11.7246606 ], [ 4.3687738, 11.7469842 ], [ 4.3702744, 11.7466518 ], [ 4.37277, 11.7466518 ], [ 4.3737683, 11.7445575 ], [ 4.3749091, 11.7432311 ], [ 4.3766917, 11.7416254 ], [ 4.3790447, 11.7405782 ], [ 4.3810412, 11.740299 ], [ 4.382578, 11.7414347 ], [ 4.3838221, 11.7433707 ], [ 4.3853908, 11.7459537 ], [ 4.3861038, 11.748048 ], [ 4.3863177, 11.749514 ], [ 4.3854735, 11.7516379 ], [ 4.385405, 11.7525414 ], [ 4.3848917, 11.7532116 ], [ 4.3830403, 11.7531306 ], [ 4.381355, 11.7535467 ], [ 4.3810698, 11.7547195 ], [ 4.3806705, 11.7560598 ], [ 4.3786169, 11.7571209 ], [ 4.3777042, 11.7580702 ], [ 4.3775901, 11.7592989 ], [ 4.3775522, 11.7606051 ], [ 4.3776472, 11.7615885 ], [ 4.3778754, 11.7625379 ], [ 4.3793585, 11.7616444 ], [ 4.3803589, 11.7607271 ], [ 4.3816402, 11.7603041 ], [ 4.3831233, 11.7608067 ], [ 4.3848346, 11.7602482 ], [ 4.3865459, 11.7595781 ], [ 4.3878009, 11.7596339 ], [ 4.3891699, 11.7597456 ], [ 4.3902537, 11.7587962 ], [ 4.3909382, 11.7568416 ], [ 4.3917852, 11.7558478 ], [ 4.3929918, 11.757065 ], [ 4.3939045, 11.7574559 ], [ 4.3949313, 11.7567299 ], [ 4.4136115, 11.730237 ], [ 4.4172084, 11.7085409 ], [ 4.4364345, 11.7108252 ], [ 4.4490948, 11.7203948 ], [ 4.4868791, 11.7405209 ], [ 4.4986812, 11.7500387 ], [ 4.5097, 11.7558 ], [ 4.5354, 11.785 ], [ 4.5489735, 11.7955035 ], [ 4.5440242, 11.8034985 ], [ 4.5497349, 11.8109224 ], [ 4.5512499, 11.8920928 ], [ 4.5507524, 11.8919085 ], [ 4.5671351, 11.9196024 ], [ 4.5740373, 11.9600574 ], [ 4.5820233, 11.9965141 ], [ 4.5881818, 12.0388275 ], [ 4.5789036, 12.065787 ], [ 4.5767075, 12.0699483 ], [ 4.5758043, 12.0724585 ], [ 4.5748418, 12.0747081 ], [ 4.5523197, 12.0977261 ], [ 4.5509072, 12.1318055 ], [ 4.5525851, 12.1543131 ], [ 4.5559406, 12.2128923 ], [ 4.5621492, 12.229987 ], [ 4.5302505, 12.2396216 ], [ 4.52498, 12.2458259 ], [ 4.5250656, 12.2462719 ], [ 4.5250941, 12.2467039 ], [ 4.5253508, 12.2469826 ], [ 4.5254468, 12.2472402 ], [ 4.5249082, 12.2480946 ], [ 4.5244816, 12.2482028 ], [ 4.5241084, 12.248783 ], [ 4.524268, 12.2491099 ], [ 4.5243459, 12.2495954 ], [ 4.5239388, 12.2501093 ], [ 4.5232942, 12.2504077 ], [ 4.5227683, 12.2502585 ], [ 4.5220558, 12.2503911 ], [ 4.5214451, 12.25059 ], [ 4.5211906, 12.2508387 ], [ 4.5211228, 12.2514023 ], [ 4.5236633, 12.2558041 ], [ 4.5436722, 12.2517597 ], [ 4.5486764, 12.2508515 ], [ 4.5492037, 12.2507558 ], [ 4.550389, 12.2692112 ], [ 4.5512582, 12.2780137 ], [ 4.5519757, 12.2836761 ], [ 4.5520365, 12.2841563 ], [ 4.5563266, 12.2889846 ], [ 4.5570937, 12.289848 ], [ 4.5518903, 12.2970817 ], [ 4.5490801, 12.3007838 ], [ 4.5485458, 12.3014877 ], [ 4.5565845, 12.3042225 ], [ 4.5599189, 12.3047622 ], [ 4.5764902, 12.3330162 ], [ 4.5925193, 12.3468017 ], [ 4.59019, 12.3638434 ], [ 4.5864169, 12.3806814 ], [ 4.5857707, 12.3889179 ], [ 4.5878339, 12.3959355 ], [ 4.5912565, 12.3984426 ], [ 4.59582, 12.4019943 ], [ 4.5970932, 12.4031324 ], [ 4.5993412, 12.4006523 ], [ 4.6040025, 12.4064554 ], [ 4.6064099, 12.4087566 ], [ 4.6074856, 12.4099823 ], [ 4.6079698, 12.410886 ], [ 4.612006, 12.4137632 ], [ 4.6298105, 12.4329395 ], [ 4.643427, 12.4255671 ], [ 4.6539787, 12.4187754 ], [ 4.6564394, 12.4169476 ], [ 4.6582517, 12.4160481 ], [ 4.6599155, 12.4149745 ], [ 4.6607726, 12.4142909 ], [ 4.6622923, 12.4134367 ], [ 4.6643423, 12.4122761 ], [ 4.6657089, 12.4112896 ], [ 4.6685, 12.4087 ], [ 4.6706357, 12.4073135 ], [ 4.6721037, 12.4066261 ], [ 4.6812444, 12.396559 ], [ 4.6847905, 12.397782 ], [ 4.6911444, 12.3999581 ], [ 4.6997663, 12.3885328 ], [ 4.7013653, 12.3864137 ], [ 4.703, 12.3839 ], [ 4.7033, 12.3822 ], [ 4.7032571, 12.3818429 ], [ 4.703, 12.3797 ], [ 4.7066, 12.3708 ], [ 4.7073812, 12.3690274 ], [ 4.7092, 12.3649 ], [ 4.7111448, 12.3640024 ], [ 4.7118, 12.3637 ], [ 4.7119889, 12.3636903 ], [ 4.7220791, 12.3631712 ], [ 4.73275, 12.3634202 ], [ 4.7359906, 12.3638277 ], [ 4.7397594, 12.3656087 ], [ 4.7538771, 12.3637266 ], [ 4.7538248, 12.3695246 ], [ 4.7529106, 12.3753314 ], [ 4.7508734, 12.3894162 ], [ 4.7517861, 12.3927123 ], [ 4.7498193, 12.4209839 ], [ 4.7539971, 12.4366431 ], [ 4.7574535, 12.4495976 ], [ 4.7585141, 12.4513793 ], [ 4.7693695, 12.4696151 ], [ 4.7816086, 12.4752772 ], [ 4.8031327, 12.4852348 ], [ 4.8119367, 12.5035566 ], [ 4.7958895, 12.5123992 ], [ 4.7949114, 12.5637933 ], [ 4.7946897, 12.5754416 ], [ 4.7932891, 12.5777564 ], [ 4.7574567, 12.6369705 ], [ 4.731932, 12.672115 ], [ 4.7308471, 12.6911016 ], [ 4.7304447, 12.6998058 ], [ 4.7303482, 12.7018414 ], [ 4.7304167, 12.7020973 ], [ 4.7316121, 12.7065585 ], [ 4.734702, 12.7138619 ], [ 4.7399872, 12.7270308 ], [ 4.7435524, 12.7373475 ], [ 4.7503263, 12.7509092 ], [ 4.7528585, 12.7566995 ], [ 4.7571962, 12.764581 ], [ 4.760286, 12.7724623 ], [ 4.7646831, 12.7798797 ], [ 4.7702504, 12.7892761 ], [ 4.7737985, 12.7901715 ], [ 4.775795, 12.7903384 ], [ 4.7783049, 12.7913953 ], [ 4.7803014, 12.7923966 ], [ 4.7884015, 12.7969024 ], [ 4.7951896, 12.7996837 ], [ 4.8063054, 12.8041855 ], [ 4.8068353, 12.8194766 ], [ 4.7751876, 12.8546858 ], [ 4.7742537, 12.8557247 ], [ 4.7592464, 12.8744439 ], [ 4.7404911, 12.8932812 ], [ 4.7126388, 12.9075384 ], [ 4.7117241, 12.9075339 ], [ 4.7110416, 12.9078721 ], [ 4.7104521, 12.9087246 ], [ 4.7100909, 12.9097254 ], [ 4.7091244, 12.9108478 ], [ 4.7078852, 12.9115417 ], [ 4.7074918, 12.9121962 ], [ 4.7063034, 12.9124279 ], [ 4.7048298, 12.9141886 ], [ 4.7034988, 12.9156712 ], [ 4.7014072, 12.9180342 ], [ 4.6998861, 12.9205825 ], [ 4.6982223, 12.9224358 ], [ 4.6979015, 12.9233624 ], [ 4.6979, 12.9241 ], [ 4.6981154, 12.9252389 ], [ 4.6979728, 12.9266983 ], [ 4.6973667, 12.9287485 ], [ 4.696618, 12.9304511 ], [ 4.6953296, 12.931837 ], [ 4.6943, 12.9333 ], [ 4.690985, 12.935142 ], [ 4.6898592, 12.9361768 ], [ 4.6892737, 12.9372269 ], [ 4.6881685, 12.938165 ], [ 4.6874763, 12.938452 ], [ 4.6869206, 12.9387557 ], [ 4.6579165, 12.9442452 ], [ 4.6462153, 12.9486152 ], [ 4.6462305, 12.9487395 ], [ 4.6463718, 12.9498961 ], [ 4.6473782, 12.9497531 ], [ 4.647878, 12.9501794 ], [ 4.6483289, 12.9505639 ], [ 4.6485666, 12.9516641 ], [ 4.6480318, 12.9525907 ], [ 4.6484478, 12.9531118 ], [ 4.6489231, 12.9532276 ], [ 4.6495173, 12.9540963 ], [ 4.6503492, 12.95427 ], [ 4.6512405, 12.9543279 ], [ 4.6523695, 12.9543279 ], [ 4.6529042, 12.9550807 ], [ 4.653855, 12.9559493 ], [ 4.6545086, 12.9567021 ], [ 4.6553405, 12.9562388 ], [ 4.656826, 12.9568179 ], [ 4.6577767, 12.957976 ], [ 4.658668, 12.958034 ], [ 4.659797, 12.9585551 ], [ 4.660174, 12.958947 ], [ 4.6606883, 12.9594816 ], [ 4.6609854, 12.9613346 ], [ 4.6611042, 12.9633613 ], [ 4.6611636, 12.964809 ], [ 4.661639, 12.9658512 ], [ 4.6604506, 12.9659671 ], [ 4.6594999, 12.9662566 ], [ 4.6589651, 12.9671252 ], [ 4.6593216, 12.9681095 ], [ 4.6594404, 12.9689202 ], [ 4.6605694, 12.9694413 ], [ 4.6620549, 12.9701941 ], [ 4.6634216, 12.9704836 ], [ 4.6641346, 12.9694413 ], [ 4.6649665, 12.9695571 ], [ 4.6650707, 12.9695649 ], [ 4.665739, 12.969615 ], [ 4.6656201, 12.9715259 ], [ 4.6661549, 12.9734946 ], [ 4.6678781, 12.975058 ], [ 4.6694824, 12.9754633 ], [ 4.6704331, 12.9755212 ], [ 4.6709085, 12.9763897 ], [ 4.6717998, 12.9766213 ], [ 4.6723346, 12.9776057 ], [ 4.673107, 12.97859 ], [ 4.6736418, 12.9793427 ], [ 4.6736073, 12.9794886 ], [ 4.6734635, 12.9800955 ], [ 4.673523, 12.9806166 ], [ 4.6740577, 12.9806745 ], [ 4.6747114, 12.9802692 ], [ 4.6758403, 12.9805008 ], [ 4.6766128, 12.9805587 ], [ 4.6773853, 12.9806745 ], [ 4.6780389, 12.9809061 ], [ 4.6782766, 12.9802113 ], [ 4.6784548, 12.9794585 ], [ 4.6791679, 12.9794585 ], [ 4.6806098, 12.9802885 ], [ 4.6794125, 12.9839614 ], [ 4.6780428, 12.988163 ], [ 4.6777733, 12.9984921 ], [ 4.6777576, 12.9990942 ], [ 4.6866694, 13.0061299 ], [ 4.7025906, 13.025758 ], [ 4.7152571, 13.0383671 ], [ 4.7165779, 13.0408818 ], [ 4.7212126, 13.0451886 ], [ 4.7247065, 13.0494953 ], [ 4.7300175, 13.052009 ], [ 4.7316277, 13.0527711 ], [ 4.7263465, 13.0544966 ], [ 4.7172211, 13.0618347 ], [ 4.702156, 13.0732034 ], [ 4.6829859, 13.0789115 ], [ 4.6231642, 13.070269 ], [ 4.6230468, 13.0701123 ], [ 4.5547152, 13.1114445 ], [ 4.5129507, 13.1367035 ], [ 4.4975303, 13.1599619 ], [ 4.4966031, 13.1603268 ], [ 4.4957118, 13.1603268 ], [ 4.4941075, 13.1615418 ], [ 4.4930379, 13.162294 ], [ 4.4925626, 13.1629304 ], [ 4.4921466, 13.1640876 ], [ 4.4917307, 13.1651291 ], [ 4.4910771, 13.1659969 ], [ 4.4903046, 13.1665755 ], [ 4.4895321, 13.1667491 ], [ 4.4888191, 13.1673277 ], [ 4.4883437, 13.1677905 ], [ 4.4870365, 13.1681377 ], [ 4.4861452, 13.168832 ], [ 4.4851945, 13.1690055 ], [ 4.4843032, 13.1695841 ], [ 4.4828771, 13.1702205 ], [ 4.4819858, 13.1709148 ], [ 4.4806786, 13.1717248 ], [ 4.4800249, 13.1725348 ], [ 4.4789554, 13.1734605 ], [ 4.4779453, 13.1742705 ], [ 4.4761627, 13.1750226 ], [ 4.4743206, 13.1763533 ], [ 4.4725975, 13.1775104 ], [ 4.4708743, 13.1788411 ], [ 4.4695076, 13.1794775 ], [ 4.4675468, 13.1805189 ], [ 4.4654229, 13.1808727 ], [ 4.4630314, 13.1813058 ], [ 4.4617864, 13.1823167 ], [ 4.4604744, 13.182775 ], [ 4.459519, 13.1827055 ], [ 4.4580929, 13.1826083 ], [ 4.4574226, 13.1826222 ], [ 4.4567918, 13.1827173 ], [ 4.4561381, 13.1827752 ], [ 4.455128, 13.1830066 ], [ 4.4537019, 13.1835851 ], [ 4.4522164, 13.1843372 ], [ 4.4504932, 13.1852629 ], [ 4.4485324, 13.186015 ], [ 4.4468686, 13.1867092 ], [ 4.4395006, 13.1887919 ], [ 4.4377774, 13.1898333 ], [ 4.4349252, 13.1909325 ], [ 4.4324296, 13.1918003 ], [ 4.4311223, 13.1920895 ], [ 4.4297557, 13.192668 ], [ 4.407076, 13.1955419 ], [ 4.3918455, 13.1971346 ], [ 4.3744473, 13.2010902 ], [ 4.3002389, 13.2596146 ], [ 4.258027, 13.2644265 ], [ 4.2139136, 13.2636862 ], [ 4.1785704, 13.2540686 ], [ 4.1264047, 13.2496741 ] ] ] } }
]
}
