{
"type": "FeatureCollection",
"name": "Gombe_state_boundary",
"crs": { "type": "name", "properties": { "name": "urn:ogc:def:crs:OGC:1.3:CRS84" } },
"features": [
{ "type": "Feature", "properties": { "state_code": "GO", "state_name": "Gombe", "cap_city": "Gombe", "geo_zone": "NEZ" }, "geometry": { "type": "Polygon", "coordinates": [ [ [ 10.9691343, 9.6153535 ], [ 10.9693164, 9.6154984 ], [ 10.9780078, 9.622412 ], [ 10.9822213, 9.6257636 ], [ 10.98817, 9.6302251 ], [ 10.9898945, 9.6405537 ], [ 10.9850205, 9.6418285 ], [ 10.9640515, 9.6625001 ], [ 10.9569131, 9.6685974 ], [ 10.9564899, 9.6709254 ], [ 10.9563183, 9.6718692 ], [ 10.9605414, 9.6754384 ], [ 10.9600655, 9.6792456 ], [ 10.9603035, 9.6847183 ], [ 10.9607793, 9.6957828 ], [ 10.957805, 9.7032781 ], [ 10.9567045, 9.711389 ], [ 10.9618201, 9.7167954 ], [ 10.96439, 9.723791 ], [ 10.9663887, 9.7310722 ], [ 10.9662459, 9.7382106 ], [ 10.9646755, 9.7454917 ], [ 10.9655321, 9.7523446 ], [ 10.971669, 9.7608803 ], [ 10.9726208, 9.762822 ], [ 10.9746766, 9.7669337 ], [ 10.9785218, 9.769751 ], [ 10.9786741, 9.7721875 ], [ 10.9816294, 9.7747791 ], [ 10.9776008, 9.8101824 ], [ 10.9773173, 9.8126734 ], [ 10.9702402, 9.8117111 ], [ 10.9657279, 9.8140516 ], [ 10.9612307, 9.8234029 ], [ 10.9592319, 9.8281142 ], [ 10.9577329, 9.8344674 ], [ 10.9580898, 9.839036 ], [ 10.9586609, 9.8426052 ], [ 10.9578756, 9.8453177 ], [ 10.9583039, 9.84853 ], [ 10.9590892, 9.8521706 ], [ 10.957947, 9.8540979 ], [ 10.9550203, 9.8561681 ], [ 10.9525932, 9.8608794 ], [ 10.9448838, 9.8704448 ], [ 10.9455262, 9.8726577 ], [ 10.9454549, 9.8759414 ], [ 10.9451693, 9.8785112 ], [ 10.9452509, 9.8791403 ], [ 10.9454198, 9.880443 ], [ 10.9439239, 9.8817771 ], [ 10.9184558, 9.8996999 ], [ 10.9053688, 9.9144525 ], [ 10.8944637, 9.9264842 ], [ 10.89062, 9.930725 ], [ 10.8835479, 9.935212 ], [ 10.8774072, 9.9391081 ], [ 10.8751783, 9.9405222 ], [ 10.8658819, 9.9498568 ], [ 10.8635125, 9.9515595 ], [ 10.8577232, 9.9557199 ], [ 10.8413572, 9.9628401 ], [ 10.8249903, 9.9699602 ], [ 10.8121719, 9.9793386 ], [ 10.8028994, 9.9909773 ], [ 10.7947769, 10.0002966 ], [ 10.7884455, 10.0061255 ], [ 10.787178, 10.0067364 ], [ 10.7752619, 10.0124798 ], [ 10.7635088, 10.0197477 ], [ 10.7629173, 10.0201231 ], [ 10.7511644, 10.0275812 ], [ 10.7400036, 10.0342827 ], [ 10.7276716, 10.0415373 ], [ 10.7244273, 10.0441835 ], [ 10.7174759, 10.0498533 ], [ 10.7169402, 10.063492 ], [ 10.7157292, 10.0646508 ], [ 10.7156077, 10.0648562 ], [ 10.7115442, 10.0762105 ], [ 10.7127728, 10.0786206 ], [ 10.7134044, 10.0888332 ], [ 10.7159028, 10.0945439 ], [ 10.7211979, 10.0951475 ], [ 10.7250922, 10.102786 ], [ 10.7260569, 10.1046783 ], [ 10.7264771, 10.1055024 ], [ 10.7334711, 10.114576 ], [ 10.7383888, 10.1209559 ], [ 10.7492146, 10.119913 ], [ 10.7746061, 10.1376069 ], [ 10.7867414, 10.1347515 ], [ 10.8003043, 10.1347515 ], [ 10.8074427, 10.1379638 ], [ 10.8186407, 10.1573362 ], [ 10.8172264, 10.1694851 ], [ 10.8180076, 10.1729142 ], [ 10.8198833, 10.1811476 ], [ 10.8237963, 10.188199 ], [ 10.8302908, 10.1969223 ], [ 10.8356295, 10.2040939 ], [ 10.8356875, 10.2042678 ], [ 10.8393269, 10.2151699 ], [ 10.8511667, 10.2242355 ], [ 10.8571596, 10.2356815 ], [ 10.8569492, 10.2362577 ], [ 10.855281, 10.2408248 ], [ 10.8628708, 10.26827 ], [ 10.8558752, 10.2765506 ], [ 10.8473092, 10.2864015 ], [ 10.8301195, 10.3034157 ], [ 10.8220889, 10.3097807 ], [ 10.8191896, 10.3129517 ], [ 10.82225, 10.3207636 ], [ 10.8234397, 10.3311143 ], [ 10.8221905, 10.3430116 ], [ 10.8282581, 10.3509828 ], [ 10.8338642, 10.3650084 ], [ 10.8340298, 10.3807373 ], [ 10.834034, 10.3811359 ], [ 10.8348421, 10.3920043 ], [ 10.8350725, 10.3951025 ], [ 10.8354034, 10.3995514 ], [ 10.8041358, 10.4244696 ], [ 10.8135115, 10.4377343 ], [ 10.8102564, 10.4477737 ], [ 10.800434, 10.4506633 ], [ 10.7926048, 10.4406563 ], [ 10.7907392, 10.4351458 ], [ 10.7424915, 10.4735961 ], [ 10.7301849, 10.4874063 ], [ 10.7215617, 10.4900903 ], [ 10.7054472, 10.4803828 ], [ 10.701444, 10.4874064 ], [ 10.6894301, 10.4930529 ], [ 10.681792, 10.4932314 ], [ 10.6748321, 10.4933028 ], [ 10.6696183, 10.4930553 ], [ 10.6655237, 10.49089 ], [ 10.661893, 10.4913927 ], [ 10.6123916, 10.5566208 ], [ 10.5933559, 10.5713735 ], [ 10.569973, 10.5867537 ], [ 10.5581912, 10.6006147 ], [ 10.566147, 10.6181085 ], [ 10.5694783, 10.6278642 ], [ 10.5625778, 10.64226 ], [ 10.5379504, 10.6493984 ], [ 10.5285718, 10.6496711 ], [ 10.5253033, 10.6627448 ], [ 10.4972257, 10.6870153 ], [ 10.4942811, 10.688328 ], [ 10.4968352, 10.6909138 ], [ 10.4999548, 10.6976285 ], [ 10.5001033, 10.7068243 ], [ 10.4996646, 10.7120264 ], [ 10.5026287, 10.7132466 ], [ 10.5053689, 10.7144785 ], [ 10.5069376, 10.7165103 ], [ 10.506491, 10.7177714 ], [ 10.5089341, 10.7192426 ], [ 10.5109306, 10.7198732 ], [ 10.5119541, 10.7213061 ], [ 10.5122141, 10.7234462 ], [ 10.5142819, 10.7255479 ], [ 10.5164923, 10.7252677 ], [ 10.5185602, 10.7254779 ], [ 10.5202715, 10.7269491 ], [ 10.5211271, 10.7296113 ], [ 10.5214123, 10.7325537 ], [ 10.522981, 10.7336746 ], [ 10.5266768, 10.7369667 ], [ 10.5267155, 10.737043 ], [ 10.5325949, 10.7487031 ], [ 10.5358624, 10.7547782 ], [ 10.5687404, 10.8107894 ], [ 10.5764996, 10.8071265 ], [ 10.586874, 10.8181672 ], [ 10.5955353, 10.8269236 ], [ 10.6098121, 10.8487956 ], [ 10.6199548, 10.851306 ], [ 10.6247137, 10.8587418 ], [ 10.6364623, 10.8675161 ], [ 10.6426599, 10.8759927 ], [ 10.6520051, 10.881438 ], [ 10.6466594, 10.893217 ], [ 10.6634995, 10.913358 ], [ 10.6772225, 10.9308715 ], [ 10.6746011, 10.9386146 ], [ 10.6627038, 10.9463479 ], [ 10.6571121, 10.9517017 ], [ 10.6410887, 10.9608162 ], [ 10.6426709, 10.9770346 ], [ 10.6596952, 10.9848838 ], [ 10.6647396, 10.9944017 ], [ 10.6624553, 11.0106962 ], [ 10.6646714, 11.028261 ], [ 10.6694507, 11.0398203 ], [ 10.6790123, 11.0457755 ], [ 10.6898719, 11.047219 ], [ 10.7079121, 11.0847983 ], [ 10.7383692, 11.1009787 ], [ 10.7669227, 11.0681421 ], [ 10.7724045, 11.0603407 ], [ 10.786754, 11.0638194 ], [ 10.7871063, 11.0640792 ], [ 10.7890436, 11.0728356 ], [ 10.7991325, 11.084257 ], [ 10.8204525, 11.0840667 ], [ 10.8533842, 11.0850185 ], [ 10.8642345, 11.0884449 ], [ 10.8821281, 11.0859702 ], [ 10.9103009, 11.0882545 ], [ 10.9219127, 11.0920617 ], [ 10.9295657, 11.0907351 ], [ 10.9292672, 11.09448 ], [ 10.9373806, 11.0961528 ], [ 10.9589047, 11.1128004 ], [ 10.9893331, 11.1363348 ], [ 11.0085317, 11.1490932 ], [ 10.981716, 11.17882 ], [ 11.0774435, 11.2867177 ], [ 11.0918664, 11.2260974 ], [ 11.1337863, 11.2077738 ], [ 11.1651277, 11.2011534 ], [ 11.1818959, 11.1990211 ], [ 11.198166, 11.1799281 ], [ 11.2008758, 11.1750904 ], [ 11.2237558, 11.1648305 ], [ 11.2485632, 11.1835739 ], [ 11.2754502, 11.1723213 ], [ 11.3097457, 11.1690764 ], [ 11.3114452, 11.1689156 ], [ 11.3193819, 11.1862312 ], [ 11.3415572, 11.1637591 ], [ 11.347949, 11.1527213 ], [ 11.3548763, 11.1441517 ], [ 11.3571352, 11.134843 ], [ 11.3599965, 11.127455 ], [ 11.3650214, 11.1223827 ], [ 11.3686801, 11.1185228 ], [ 11.3732114, 11.1139513 ], [ 11.3734685, 11.1117402 ], [ 11.3744051, 11.110678 ], [ 11.3749533, 11.1101412 ], [ 11.3746449, 11.1094559 ], [ 11.3727004, 11.1061087 ], [ 11.3741626, 11.1050346 ], [ 11.3743375, 11.104306 ], [ 11.3745469, 11.1037692 ], [ 11.3742328, 11.1027794 ], [ 11.3743184, 11.1017229 ], [ 11.3738235, 11.1015197 ], [ 11.3730621, 11.1008249 ], [ 11.3725862, 11.0998826 ], [ 11.3715012, 11.0989917 ], [ 11.3711963, 11.0984317 ], [ 11.3750146, 11.0967712 ], [ 11.3781049, 11.0943743 ], [ 11.3830364, 11.0924051 ], [ 11.3867292, 11.0908432 ], [ 11.3907535, 11.0902717 ], [ 11.3911402, 11.0901644 ], [ 11.3943548, 11.0919743 ], [ 11.4001389, 11.0890875 ], [ 11.4024563, 11.0879307 ], [ 11.4071913, 11.0833998 ], [ 11.4121199, 11.0802097 ], [ 11.4172525, 11.0737724 ], [ 11.4207973, 11.0708084 ], [ 11.4274654, 11.0640841 ], [ 11.4348536, 11.0559082 ], [ 11.4432592, 11.0505943 ], [ 11.4485617, 11.0466566 ], [ 11.4521828, 11.0422049 ], [ 11.4568968, 11.0364094 ], [ 11.4705458, 11.0216455 ], [ 11.4734156, 11.0175359 ], [ 11.4793563, 11.0080872 ], [ 11.4825411, 11.0027819 ], [ 11.4884834, 10.9959593 ], [ 11.4949703, 10.9908895 ], [ 11.5045739, 10.9790063 ], [ 11.5084942, 10.9741716 ], [ 11.5085267, 10.974134 ], [ 11.5092602, 10.9732399 ], [ 11.5109836, 10.9710982 ], [ 11.5131205, 10.9683379 ], [ 11.5149925, 10.9659198 ], [ 11.5170269, 10.9623985 ], [ 11.519599, 10.9568434 ], [ 11.5213421, 10.9532841 ], [ 11.5273066, 10.9423361 ], [ 11.5303621, 10.9348669 ], [ 11.5304526, 10.9341847 ], [ 11.5310516, 10.9296618 ], [ 11.5315056, 10.9232721 ], [ 11.5318737, 10.9180803 ], [ 11.531004, 10.9041405 ], [ 11.529788, 10.8979206 ], [ 11.5289049, 10.8934011 ], [ 11.5273771, 10.8915854 ], [ 11.5277872, 10.8869133 ], [ 11.5281286, 10.8830299 ], [ 11.5284176, 10.8797379 ], [ 11.5286741, 10.8768234 ], [ 11.5313902, 10.8710699 ], [ 11.5364885, 10.8636637 ], [ 11.5390749, 10.8509626 ], [ 11.538146, 10.83992 ], [ 11.5365885, 10.8372397 ], [ 11.5362962, 10.8367432 ], [ 11.5344105, 10.83354 ], [ 11.5364399, 10.8287745 ], [ 11.5361776, 10.8230534 ], [ 11.534791, 10.8161316 ], [ 11.5340767, 10.8125639 ], [ 11.5321782, 10.807074 ], [ 11.5321127, 10.8068846 ], [ 11.5326777, 10.8041353 ], [ 11.5302963, 10.7991352 ], [ 11.528739, 10.7903976 ], [ 11.5285091, 10.7825022 ], [ 11.5284798, 10.781492 ], [ 11.5284014, 10.7787905 ], [ 11.5269623, 10.7734833 ], [ 11.5265179, 10.757864 ], [ 11.5198269, 10.7449484 ], [ 11.5185642, 10.7399015 ], [ 11.5166149, 10.7321129 ], [ 11.5168571, 10.7205172 ], [ 11.5154686, 10.7036638 ], [ 11.5150709, 10.6949539 ], [ 11.5164604, 10.6839657 ], [ 11.5180923, 10.678103 ], [ 11.5227194, 10.66148 ], [ 11.5241852, 10.6600065 ], [ 11.5226609, 10.6485285 ], [ 11.521451, 10.6394176 ], [ 11.5170294, 10.6214369 ], [ 11.5134201, 10.6073294 ], [ 11.5123978, 10.5998373 ], [ 11.5133734, 10.5949774 ], [ 11.5127211, 10.5852709 ], [ 11.5165138, 10.5702782 ], [ 11.52185, 10.5690049 ], [ 11.5218735, 10.5689993 ], [ 11.5275898, 10.5676346 ], [ 11.5327358, 10.5712347 ], [ 11.5372763, 10.5759802 ], [ 11.5449944, 10.5824413 ], [ 11.5515289, 10.5879116 ], [ 11.5613117, 10.5916185 ], [ 11.5728951, 10.5924673 ], [ 11.5833073, 10.5938692 ], [ 11.5756423, 10.5798083 ], [ 11.572779, 10.5725882 ], [ 11.5998363, 10.5342096 ], [ 11.6323665, 10.5208149 ], [ 11.6376777, 10.5186279 ], [ 11.6551556, 10.5034297 ], [ 11.662757, 10.4968198 ], [ 11.6621227, 10.4958501 ], [ 11.6595053, 10.4933755 ], [ 11.6568403, 10.4897111 ], [ 11.6610834, 10.4862921 ], [ 11.6569272, 10.4732069 ], [ 11.6566781, 10.4681943 ], [ 11.6564729, 10.4606077 ], [ 11.6552082, 10.4564426 ], [ 11.6494845, 10.4543502 ], [ 11.6364318, 10.4493591 ], [ 11.619695, 10.4422439 ], [ 11.6025106, 10.4272551 ], [ 11.6007481, 10.4222114 ], [ 11.5981541, 10.4176202 ], [ 11.5990713, 10.4127726 ], [ 11.5989255, 10.4063804 ], [ 11.597733, 10.4011621 ], [ 11.5970039, 10.3950116 ], [ 11.5924621, 10.3914312 ], [ 11.5898247, 10.3906171 ], [ 11.5869134, 10.3897185 ], [ 11.5854217, 10.3892581 ], [ 11.5830522, 10.3883639 ], [ 11.5786181, 10.3866906 ], [ 11.5740639, 10.3853075 ], [ 11.5699378, 10.385135 ], [ 11.5687019, 10.3846488 ], [ 11.5685555, 10.3835223 ], [ 11.5674487, 10.3820707 ], [ 11.5657184, 10.3812197 ], [ 11.5629028, 10.3756532 ], [ 11.5608803, 10.3705373 ], [ 11.5524332, 10.3685148 ], [ 11.5491019, 10.3597108 ], [ 11.5479122, 10.3528104 ], [ 11.5446086, 10.3434334 ], [ 11.5434839, 10.3420716 ], [ 11.5442626, 10.3385821 ], [ 11.5439165, 10.3343265 ], [ 11.5447194, 10.3323215 ], [ 11.5453809, 10.3306696 ], [ 11.5461659, 10.3287091 ], [ 11.5463236, 10.3274059 ], [ 11.5407749, 10.3272817 ], [ 11.5407064, 10.3272797 ], [ 11.5396898, 10.3272569 ], [ 11.535726, 10.3271035 ], [ 11.5346158, 10.3260883 ], [ 11.5345349, 10.3254017 ], [ 11.5341189, 10.323911 ], [ 11.533202, 10.3222518 ], [ 11.5325591, 10.321274 ], [ 11.5318907, 10.3202574 ], [ 11.5313559, 10.3193513 ], [ 11.5307023, 10.3187959 ], [ 11.5303458, 10.318036 ], [ 11.5302885, 10.3177061 ], [ 11.530278, 10.3176455 ], [ 11.5301571, 10.3169487 ], [ 11.5301378, 10.3168375 ], [ 11.5299892, 10.315493 ], [ 11.5296535, 10.3146979 ], [ 11.5293356, 10.3136223 ], [ 11.529811, 10.3140315 ], [ 11.5307023, 10.314353 ], [ 11.5333168, 10.3149961 ], [ 11.5333571, 10.3150078 ], [ 11.5351699, 10.3155373 ], [ 11.5352182, 10.3155514 ], [ 11.5370899, 10.3161653 ], [ 11.5389845, 10.3165674 ], [ 11.5423783, 10.3174806 ], [ 11.5447768, 10.3181249 ], [ 11.5442626, 10.3149204 ], [ 11.5459767, 10.3078372 ], [ 11.5463346, 10.3028275 ], [ 11.5464763, 10.3007767 ], [ 11.5496265, 10.2964494 ], [ 11.5514759, 10.2901107 ], [ 11.5565477, 10.2962792 ], [ 11.5612196, 10.2973858 ], [ 11.5642476, 10.2967048 ], [ 11.5678813, 10.2932999 ], [ 11.5699576, 10.2886181 ], [ 11.571861, 10.2899801 ], [ 11.5751486, 10.2921082 ], [ 11.5785227, 10.2897247 ], [ 11.5814642, 10.2866602 ], [ 11.5866551, 10.2858941 ], [ 11.5897697, 10.2825742 ], [ 11.5926247, 10.2753384 ], [ 11.594528, 10.2704861 ], [ 11.5950471, 10.2639311 ], [ 11.5954797, 10.2604407 ], [ 11.59721, 10.2570354 ], [ 11.5994594, 10.2549071 ], [ 11.6039582, 10.2525233 ], [ 11.6085435, 10.2509058 ], [ 11.6123763, 10.2490909 ], [ 11.6141066, 10.2448341 ], [ 11.6131549, 10.2410029 ], [ 11.6139335, 10.2370866 ], [ 11.6157504, 10.2341919 ], [ 11.6179133, 10.2316377 ], [ 11.6179133, 10.2300201 ], [ 11.616702, 10.2285727 ], [ 11.6140201, 10.2284875 ], [ 11.6117707, 10.2279767 ], [ 11.6099538, 10.2241453 ], [ 11.6119437, 10.2199734 ], [ 11.6164425, 10.2167379 ], [ 11.6212008, 10.2127362 ], [ 11.6231042, 10.2096709 ], [ 11.6285547, 10.2084789 ], [ 11.6308041, 10.2080532 ], [ 11.6337456, 10.2081383 ], [ 11.6366006, 10.2062651 ], [ 11.6384174, 10.2041364 ], [ 11.6395421, 10.2031147 ], [ 11.6423106, 10.2037958 ], [ 11.6462903, 10.2033701 ], [ 11.6481071, 10.2011563 ], [ 11.650874, 10.2006369 ], [ 11.6546823, 10.2002197 ], [ 11.6564991, 10.2009008 ], [ 11.6585315, 10.20011 ], [ 11.6602193, 10.1994533 ], [ 11.6672702, 10.1980489 ], [ 11.6710485, 10.1972963 ], [ 11.686826, 10.1899245 ], [ 11.6956926, 10.1878066 ], [ 11.710892, 10.1732686 ], [ 11.7257907, 10.1501594 ], [ 11.7275277, 10.1461619 ], [ 11.7314011, 10.1431456 ], [ 11.736041, 10.1178043 ], [ 11.7501072, 10.1041129 ], [ 11.7516611, 10.1019017 ], [ 11.7514893, 10.1007615 ], [ 11.7520376, 10.0991611 ], [ 11.7537654, 10.096751 ], [ 11.7537276, 10.095599 ], [ 11.7543553, 10.0932546 ], [ 11.7546475, 10.0916363 ], [ 11.7554154, 10.0882416 ], [ 11.7562344, 10.08341 ], [ 11.76065, 10.0789574 ], [ 11.7646043, 10.076872 ], [ 11.7667301, 10.0768786 ], [ 11.7728191, 10.069067 ], [ 11.7802588, 10.0595226 ], [ 11.7824331, 10.0538709 ], [ 11.7833749, 10.051773 ], [ 11.784484, 10.0489608 ], [ 11.7851205, 10.0457789 ], [ 11.7899341, 10.0393047 ], [ 11.8017624, 10.035845 ], [ 11.8135407, 10.0352502 ], [ 11.8208203, 10.0351693 ], [ 11.8242483, 10.0351312 ], [ 11.8319816, 10.0345363 ], [ 11.8357254, 10.0338945 ], [ 11.8357763, 10.0338858 ], [ 11.8354581, 10.0285262 ], [ 11.8296285, 10.0163909 ], [ 11.8253454, 9.9948568 ], [ 11.8248015, 9.9817749 ], [ 11.8226695, 9.9698967 ], [ 11.8237297, 9.9557679 ], [ 11.8332355, 9.9490446 ], [ 11.8331843, 9.9490419 ], [ 11.8335862, 9.9430742 ], [ 11.8347283, 9.929654 ], [ 11.8293031, 9.9153773 ], [ 11.8193094, 9.9028137 ], [ 11.816454, 9.8913923 ], [ 11.8090335, 9.8763758 ], [ 11.8058206, 9.8652513 ], [ 11.8038105, 9.8551779 ], [ 11.8015799, 9.8459257 ], [ 11.8011608, 9.8406847 ], [ 11.8034379, 9.83234 ], [ 11.8263544, 9.8228813 ], [ 11.8444089, 9.8192828 ], [ 11.8518033, 9.8140487 ], [ 11.8519641, 9.813113 ], [ 11.8534785, 9.8043024 ], [ 11.8542399, 9.7997339 ], [ 11.8545445, 9.7934902 ], [ 11.8531933, 9.7898092 ], [ 11.8508635, 9.7863817 ], [ 11.8473749, 9.782958 ], [ 11.8403988, 9.7761087 ], [ 11.8357534, 9.772687 ], [ 11.8247347, 9.7538347 ], [ 11.8171632, 9.7408803 ], [ 11.7961595, 9.7309391 ], [ 11.7760874, 9.707141 ], [ 11.765813, 9.712197 ], [ 11.756588, 9.7186747 ], [ 11.7556334, 9.7168055 ], [ 11.7498093, 9.7088099 ], [ 11.7486544, 9.7076758 ], [ 11.7463217, 9.7053852 ], [ 11.7381926, 9.6996832 ], [ 11.7359293, 9.6996888 ], [ 11.735878, 9.6996889 ], [ 11.7312279, 9.6951227 ], [ 11.7265768, 9.6905565 ], [ 11.7244234, 9.6890459 ], [ 11.7185049, 9.6847763 ], [ 11.7165155, 9.683507 ], [ 11.7116194, 9.6800976 ], [ 11.7068653, 9.6767874 ], [ 11.7008553, 9.6738148 ], [ 11.6990395, 9.671814 ], [ 11.6963835, 9.6688862 ], [ 11.688261, 9.6643286 ], [ 11.6836262, 9.6631947 ], [ 11.6778173, 9.6586313 ], [ 11.6720152, 9.6552124 ], [ 11.6638813, 9.648366 ], [ 11.6603823, 9.6426535 ], [ 11.6545696, 9.6369457 ], [ 11.6452885, 9.63239 ], [ 11.636014, 9.6289787 ], [ 11.6344697, 9.6274628 ], [ 11.6136128, 9.6563297 ], [ 11.5983026, 9.649286 ], [ 11.586154, 9.6338193 ], [ 11.5817247, 9.6197603 ], [ 11.5763591, 9.6152866 ], [ 11.5670522, 9.6107906 ], [ 11.5629872, 9.6051189 ], [ 11.5627848, 9.6051192 ], [ 11.5456257, 9.6051588 ], [ 11.5273228, 9.6082373 ], [ 11.5165287, 9.6075757 ], [ 11.5155439, 9.6075153 ], [ 11.5062847, 9.6075363 ], [ 11.5017066, 9.6075467 ], [ 11.5016556, 9.6075468 ], [ 11.4912227, 9.6041385 ], [ 11.4843297, 9.6041545 ], [ 11.4842787, 9.6041546 ], [ 11.4738445, 9.6007462 ], [ 11.4680481, 9.5984707 ], [ 11.4610777, 9.5927658 ], [ 11.452939, 9.5847759 ], [ 11.4478836, 9.5791321 ], [ 11.4444656, 9.5761528 ], [ 11.4428597, 9.5697346 ], [ 11.4418936, 9.5604315 ], [ 11.4339466, 9.5521269 ], [ 11.4295988, 9.5496254 ], [ 11.4276419, 9.5485001 ], [ 11.4201536, 9.5460062 ], [ 11.4056845, 9.5445099 ], [ 11.3934717, 9.5459671 ], [ 11.3812971, 9.5456848 ], [ 11.3738518, 9.5468025 ], [ 11.3679142, 9.5476942 ], [ 11.3534193, 9.5473576 ], [ 11.3464384, 9.5483561 ], [ 11.3377295, 9.5487347 ], [ 11.3290329, 9.5485325 ], [ 11.3203249, 9.5489101 ], [ 11.3107931, 9.5486811 ], [ 11.3080446, 9.5486734 ], [ 11.2982931, 9.548399 ], [ 11.2930756, 9.5482779 ], [ 11.289086, 9.548156 ], [ 11.2780142, 9.5478178 ], [ 11.2745113, 9.5484276 ], [ 11.2692814, 9.5488863 ], [ 11.2546663, 9.554347 ], [ 11.2440615, 9.5622215 ], [ 11.2278224, 9.5690801 ], [ 11.2270899, 9.5693684 ], [ 11.2224522, 9.5692616 ], [ 11.2103491, 9.5655003 ], [ 11.1988392, 9.5611725 ], [ 11.1919422, 9.5581131 ], [ 11.1821346, 9.5555649 ], [ 11.1711674, 9.55299 ], [ 11.1619418, 9.5511416 ], [ 11.161859, 9.551125 ], [ 11.1613474, 9.5510225 ], [ 11.1509123, 9.5507803 ], [ 11.1444235, 9.5457538 ], [ 11.136235, 9.5406808 ], [ 11.1339863, 9.5392877 ], [ 11.1314504, 9.5377487 ], [ 11.1280236, 9.5356749 ], [ 11.1248239, 9.5333355 ], [ 11.1239049, 9.5326636 ], [ 11.1142382, 9.5255958 ], [ 11.0945108, 9.5330966 ], [ 11.0835775, 9.5466914 ], [ 11.0764081, 9.5513718 ], [ 11.0708561, 9.5512428 ], [ 11.0621357, 9.5522003 ], [ 11.0479828, 9.5503296 ], [ 11.0355263, 9.5486832 ], [ 11.0273981, 9.5490742 ], [ 11.0204287, 9.5494928 ], [ 11.008193, 9.5521088 ], [ 10.9923821, 9.5592833 ], [ 10.9847116, 9.565485 ], [ 10.9799528, 9.5711756 ], [ 10.9781408, 9.5746136 ], [ 10.9775, 9.578269 ], [ 10.9755068, 9.5896339 ], [ 10.9748936, 9.5928907 ], [ 10.9743202, 9.5959367 ], [ 10.9691343, 9.6153535 ] ] ] } }
]
}
