{
"type": "FeatureCollection",
"name": "Niger_state_boundary",
"crs": { "type": "name", "properties": { "name": "urn:ogc:def:crs:OGC:1.3:CRS84" } },
"features": [
{ "type": "Feature", "properties": { "state_code": "NI", "state_name": "Niger", "cap_city": "Minna", "geo_zone": "NCZ" }, "geometry": { "type": "Polygon", "coordinates": [ [ [ 6.2085361, 8.7323751 ], [ 6.2032161, 8.7345619 ], [ 6.1927436, 8.7317057 ], [ 6.1853232, 8.729682 ], [ 6.1690574, 8.721549 ], [ 6.149538, 8.7207356 ], [ 6.1446581, 8.729682 ], [ 6.1316452, 8.7516413 ], [ 6.1272108, 8.7533305 ], [ 6.1145663, 8.7581472 ], [ 6.0844741, 8.7605877 ], [ 6.0584483, 8.7589607 ], [ 6.033236, 8.7589607 ], [ 5.9998908, 8.7516413 ], [ 5.978745, 8.7500143 ], [ 5.9746785, 8.7565212 ], [ 5.9437728, 8.7483883 ], [ 5.9283204, 8.7426949 ], [ 5.9014812, 8.7500143 ], [ 5.8868418, 8.7467613 ], [ 5.8648829, 8.7451344 ], [ 5.8625266, 8.744993 ], [ 5.8242178, 8.7426949 ], [ 5.795752, 8.7418814 ], [ 5.7746062, 8.7532673 ], [ 5.7607803, 8.7736006 ], [ 5.7420745, 8.7979994 ], [ 5.7282481, 8.8199587 ], [ 5.7127957, 8.8289051 ], [ 5.6934619, 8.8281613 ], [ 5.6916499, 8.8280916 ], [ 5.6824284, 8.828956 ], [ 5.6656241, 8.8305311 ], [ 5.6621524, 8.8312494 ], [ 5.6420383, 8.8354111 ], [ 5.619266, 8.8524904 ], [ 5.6054397, 8.8679428 ], [ 5.6013732, 8.8768892 ], [ 5.5899898, 8.8830691 ], [ 5.5729079, 8.8923426 ], [ 5.5661626, 8.896839 ], [ 5.563148, 8.8988485 ], [ 5.5485575, 8.9122236 ], [ 5.5436292, 8.9167414 ], [ 5.5395627, 8.9305677 ], [ 5.5254178, 8.9401007 ], [ 5.5118508, 8.944171 ], [ 5.4976058, 8.944171 ], [ 5.4853954, 8.944849 ], [ 5.4738636, 8.9475622 ], [ 5.4664021, 8.9543457 ], [ 5.4609752, 8.9624863 ], [ 5.4575834, 8.9685907 ], [ 5.4453735, 8.972661 ], [ 5.4365549, 8.9753742 ], [ 5.4250231, 8.9787664 ], [ 5.4080648, 8.9787664 ], [ 5.3911061, 8.9828358 ], [ 5.3755045, 8.9902973 ], [ 5.3700776, 8.9964027 ], [ 5.3483706, 8.9984379 ], [ 5.3320904, 8.9957247 ], [ 5.3232722, 8.9923325 ], [ 5.3076701, 9.000473 ], [ 5.2974954, 9.0031862 ], [ 5.2866416, 9.0099697 ], [ 5.2723966, 9.0147181 ], [ 5.2547598, 9.0167532 ], [ 5.2378011, 9.0187883 ], [ 5.2255912, 9.0269279 ], [ 5.208972, 9.0350685 ], [ 5.1967616, 9.0540619 ], [ 5.1716633, 9.0873003 ], [ 5.1594529, 9.1069727 ], [ 5.1309628, 9.1232529 ], [ 5.1078992, 9.1354628 ], [ 5.1066125, 9.1362953 ], [ 5.0848355, 9.1503859 ], [ 5.0681025, 9.1607724 ], [ 5.0651636, 9.1625967 ], [ 5.0482049, 9.1876946 ], [ 5.0326033, 9.1978703 ], [ 5.0163231, 9.2053318 ], [ 4.9966512, 9.2073669 ], [ 4.9871233, 9.2047918 ], [ 4.9715528, 9.2005835 ], [ 4.9620557, 9.1931219 ], [ 4.9417057, 9.1843033 ], [ 4.9233904, 9.1761627 ], [ 4.9111805, 9.1714144 ], [ 4.8989701, 9.1700583 ], [ 4.8860817, 9.167345 ], [ 4.876585, 9.1612396 ], [ 4.8760715, 9.1576462 ], [ 4.8716831, 9.155139 ], [ 4.8652473, 9.1503115 ], [ 4.8572021, 9.1487026 ], [ 4.8480845, 9.1411943 ], [ 4.8282399, 9.134222 ], [ 4.819508, 9.1330825 ], [ 4.8183989, 9.1323915 ], [ 4.8164687, 9.1318661 ], [ 4.8151552, 9.1316225 ], [ 4.8135715, 9.1317062 ], [ 4.8125816, 9.1320679 ], [ 4.812258, 9.1329436 ], [ 4.8115727, 9.1335337 ], [ 4.8091185, 9.1350551 ], [ 4.8075943, 9.13637 ], [ 4.8058049, 9.1363668 ], [ 4.8008866, 9.1363668 ], [ 4.7853327, 9.135294 ], [ 4.7724609, 9.1476297 ], [ 4.7687063, 9.1535301 ], [ 4.764555, 9.1499319 ], [ 4.7519207, 9.1798563 ], [ 4.7519207, 9.1994972 ], [ 4.7571583, 9.2243767 ], [ 4.7545395, 9.2479458 ], [ 4.7375169, 9.2688961 ], [ 4.7229186, 9.2745737 ], [ 4.7139473, 9.2780628 ], [ 4.6851401, 9.2924662 ], [ 4.6393104, 9.3081789 ], [ 4.6170502, 9.3304396 ], [ 4.6097269, 9.3617582 ], [ 4.5784225, 9.3880539 ], [ 4.5011668, 9.4404306 ], [ 4.489285, 9.4547428 ], [ 4.4443048, 9.5089229 ], [ 4.443552, 9.5098295 ], [ 4.3872471, 9.5622063 ], [ 4.3505836, 9.5883951 ], [ 4.2824936, 9.694458 ], [ 4.2686594, 9.7104389 ], [ 4.2670232, 9.712329 ], [ 4.2586481, 9.7220038 ], [ 4.209918, 9.7782955 ], [ 4.2065473, 9.7821894 ], [ 4.1711926, 9.8201628 ], [ 4.1528611, 9.8620634 ], [ 4.1431427, 9.8609836 ], [ 4.1410761, 9.860754 ], [ 4.1279821, 9.8515882 ], [ 4.1188159, 9.8555164 ], [ 4.1227441, 9.860754 ], [ 4.1240535, 9.8751583 ], [ 4.1148877, 9.8817053 ], [ 4.0952463, 9.8777771 ], [ 4.0952463, 9.8673019 ], [ 4.0834618, 9.8515882 ], [ 4.080843, 9.8515882 ], [ 4.0782242, 9.854207 ], [ 4.0703673, 9.8568258 ], [ 4.0572734, 9.8568258 ], [ 4.0520358, 9.8633738 ], [ 4.0389414, 9.8646832 ], [ 4.0271568, 9.8568258 ], [ 4.0219188, 9.8568258 ], [ 4.0206094, 9.860754 ], [ 4.0166812, 9.8686113 ], [ 4.012753, 9.8856335 ], [ 4.0114436, 9.8987274 ], [ 4.0022779, 9.9065838 ], [ 3.994421, 9.9000368 ], [ 3.9852552, 9.8934898 ], [ 3.9826362, 9.8987274 ], [ 3.9800174, 9.9065838 ], [ 3.9672506, 9.9029837 ], [ 3.9623404, 9.9078932 ], [ 3.9541564, 9.9078932 ], [ 3.9459724, 9.9078932 ], [ 3.936152, 9.9160776 ], [ 3.9345152, 9.9275351 ], [ 3.942699, 9.9324455 ], [ 3.9590669, 9.934082 ], [ 3.9607036, 9.937356 ], [ 3.9688873, 9.9422655 ], [ 3.9705241, 9.9488134 ], [ 3.9656138, 9.9569969 ], [ 3.9590669, 9.9602699 ], [ 3.9492462, 9.9619074 ], [ 3.9410622, 9.9619074 ], [ 3.9345152, 9.9668179 ], [ 3.9345152, 9.9700909 ], [ 3.936152, 9.9733648 ], [ 3.9410622, 9.9766378 ], [ 3.9525197, 9.9782753 ], [ 3.9541564, 9.9831848 ], [ 3.9492462, 9.9913692 ], [ 3.9345152, 9.9995527 ], [ 3.9214208, 9.9995527 ], [ 3.9198143, 9.9981758 ], [ 3.9099636, 9.9897327 ], [ 3.8870487, 9.9880953 ], [ 3.8870487, 10.0044632 ], [ 3.8903222, 10.0159206 ], [ 3.9034164, 10.0191946 ], [ 3.8969009, 10.0248957 ], [ 3.8903222, 10.030652 ], [ 3.8821383, 10.0355625 ], [ 3.8723176, 10.0421095 ], [ 3.8641338, 10.050293 ], [ 3.8554385, 10.0535538 ], [ 3.8510396, 10.0552034 ], [ 3.833035, 10.047019 ], [ 3.8233192, 10.054306 ], [ 3.8180456, 10.0668306 ], [ 3.7991171, 10.0711985 ], [ 3.7969329, 10.066103 ], [ 3.7940209, 10.0624628 ], [ 3.7845564, 10.0624628 ], [ 3.7801883, 10.0522699 ], [ 3.7845564, 10.0457182 ], [ 3.7881966, 10.0384378 ], [ 3.7881966, 10.0340691 ], [ 3.7838285, 10.0311575 ], [ 3.7750921, 10.0333414 ], [ 3.7721801, 10.0406218 ], [ 3.7714519, 10.0471745 ], [ 3.7663558, 10.0537262 ], [ 3.7619877, 10.0588226 ], [ 3.7576194, 10.0631905 ], [ 3.750339, 10.0682869 ], [ 3.745971, 10.0770235 ], [ 3.7430589, 10.0843039 ], [ 3.7350504, 10.0879431 ], [ 3.7343225, 10.0799351 ], [ 3.7365067, 10.0748386 ], [ 3.7365067, 10.0682869 ], [ 3.7306824, 10.0682869 ], [ 3.7153938, 10.0893993 ], [ 3.7146657, 10.1017761 ], [ 3.7124817, 10.1083279 ], [ 3.7092802, 10.1138165 ], [ 3.6842856, 10.1566657 ], [ 3.6838884, 10.1705551 ], [ 3.6805553, 10.1808319 ], [ 3.6766663, 10.1838865 ], [ 3.666944, 10.1883316 ], [ 3.6572218, 10.1927776 ], [ 3.6441665, 10.1994438 ], [ 3.6325938, 10.2135491 ], [ 3.581944, 10.2752762 ], [ 3.6372218, 10.411665 ], [ 3.6399999, 10.415554 ], [ 3.6838884, 10.4480553 ], [ 3.6888885, 10.4497204 ], [ 3.6952777, 10.4502773 ], [ 3.7013888, 10.4494438 ], [ 3.7063885, 10.4472218 ], [ 3.728333, 10.4338865 ], [ 3.7405553, 10.4252777 ], [ 3.7591662, 10.414999 ], [ 3.768611, 10.4105549 ], [ 3.789444, 10.4027767 ], [ 3.793611, 10.4055538 ], [ 3.8127775, 10.4494438 ], [ 3.8549995, 10.5849991 ], [ 3.8514483, 10.6409312 ], [ 3.8512334, 10.6443156 ], [ 3.84879, 10.6827989 ], [ 3.8355556, 10.7097206 ], [ 3.8351603, 10.7099067 ], [ 3.8261108, 10.7141666 ], [ 3.7855554, 10.7569427 ], [ 3.7538886, 10.7944431 ], [ 3.748611, 10.8030548 ], [ 3.7458329, 10.8202763 ], [ 3.7466664, 10.8266659 ], [ 3.7488885, 10.8313885 ], [ 3.7549996, 10.8394432 ], [ 3.7594442, 10.8474998 ], [ 3.7752776, 10.8986111 ], [ 3.7700334, 10.9197438 ], [ 3.7731713, 10.920054 ], [ 3.8022735, 10.9460659 ], [ 3.9327838, 10.9430114 ], [ 3.9531407, 10.9656955 ], [ 3.9929732, 11.0164672 ], [ 3.9944957, 11.016006 ], [ 3.9958549, 11.0163144 ], [ 3.9959272, 11.0171881 ], [ 3.9972007, 11.017428 ], [ 3.9979765, 11.0179048 ], [ 3.9994105, 11.0179882 ], [ 4.0683546, 11.0219965 ], [ 4.0705564, 11.0223715 ], [ 4.0791656, 11.0238379 ], [ 4.1003804, 11.0263243 ], [ 4.1324062, 11.0254583 ], [ 4.1670289, 11.0245934 ], [ 4.1839581, 11.0246285 ], [ 4.214904, 11.0222489 ], [ 4.2254312, 11.0192599 ], [ 4.2273801, 11.0198664 ], [ 4.2293766, 11.020613 ], [ 4.2312305, 11.0213595 ], [ 4.23375, 11.0215462 ], [ 4.2352236, 11.0219194 ], [ 4.237838, 11.022526 ], [ 4.2398346, 11.0231792 ], [ 4.2415458, 11.0234125 ], [ 4.2428769, 11.0235992 ], [ 4.2439226, 11.0240191 ], [ 4.2452061, 11.0238325 ], [ 4.2467273, 11.0236458 ], [ 4.248391, 11.0234592 ], [ 4.249722, 11.024299 ], [ 4.2511956, 11.0246723 ], [ 4.2530971, 11.0245323 ], [ 4.2548084, 11.0246257 ], [ 4.2563771, 11.0249056 ], [ 4.2588014, 11.0252322 ], [ 4.2608454, 11.0250922 ], [ 4.2671202, 11.0252789 ], [ 4.2668825, 11.0236925 ], [ 4.2663121, 11.0216395 ], [ 4.2655515, 11.0190266 ], [ 4.2658367, 11.0168336 ], [ 4.2657892, 11.0145472 ], [ 4.2660269, 11.0119809 ], [ 4.2636902, 11.0081532 ], [ 4.2619199, 11.0028423 ], [ 4.2588932, 10.9980453 ], [ 4.2565518, 10.9903358 ], [ 4.2636862, 10.9829021 ], [ 4.2633248, 10.9767272 ], [ 4.2696411, 10.969399 ], [ 4.2750961, 10.9609431 ], [ 4.2772142, 10.9543579 ], [ 4.3015888, 10.9486784 ], [ 4.3141107, 10.9498647 ], [ 4.3298449, 10.9513553 ], [ 4.3357907, 10.9186531 ], [ 4.3385482, 10.9034871 ], [ 4.3622321, 10.8890743 ], [ 4.3811276, 10.8799716 ], [ 4.4071535, 10.8771707 ], [ 4.4321099, 10.8817222 ], [ 4.4502924, 10.8859234 ], [ 4.5239844, 10.9161949 ], [ 4.5398264, 10.9199667 ], [ 4.5534048, 10.9154406 ], [ 4.5684924, 10.9086514 ], [ 4.5934727, 10.8928775 ], [ 4.5950414, 10.8935777 ], [ 4.596111, 10.8923874 ], [ 4.5967527, 10.8931576 ], [ 4.5980362, 10.8929475 ], [ 4.5982501, 10.8916172 ], [ 4.5990578, 10.8909232 ], [ 4.5997475, 10.8891665 ], [ 4.6013875, 10.8892365 ], [ 4.6022431, 10.8881862 ], [ 4.6033127, 10.8884663 ], [ 4.6055944, 10.8895166 ], [ 4.605737, 10.8890264 ], [ 4.606664, 10.8881162 ], [ 4.6080187, 10.8877661 ], [ 4.6092309, 10.8888864 ], [ 4.6115696, 10.8888673 ], [ 4.6125109, 10.8881862 ], [ 4.6147926, 10.8884663 ], [ 4.6155273, 10.8888197 ], [ 4.616168, 10.889128 ], [ 4.6161389, 10.8897394 ], [ 4.6161272, 10.8899857 ], [ 4.6164326, 10.8907069 ], [ 4.6207753, 10.8924365 ], [ 4.6228104, 10.8923237 ], [ 4.6251543, 10.8926507 ], [ 4.6252743, 10.8926675 ], [ 4.6252926, 10.8927173 ], [ 4.6256492, 10.8936895 ], [ 4.6265669, 10.894131 ], [ 4.6272708, 10.8923874 ], [ 4.6279125, 10.8911971 ], [ 4.6293386, 10.8906369 ], [ 4.6298377, 10.8905669 ], [ 4.6302656, 10.8915472 ], [ 4.6331177, 10.891057 ], [ 4.6343865, 10.8914332 ], [ 4.6353281, 10.8911971 ], [ 4.6361838, 10.8923874 ], [ 4.6427019, 10.8938989 ], [ 4.643048, 10.8944936 ], [ 4.6439996, 10.8938139 ], [ 4.64573, 10.893729 ], [ 4.6468547, 10.8950033 ], [ 4.648585, 10.8958529 ], [ 4.6498827, 10.8967024 ], [ 4.6516995, 10.8962776 ], [ 4.6529107, 10.8972971 ], [ 4.6538713, 10.8985409 ], [ 4.6553687, 10.8998713 ], [ 4.6574781, 10.9004927 ], [ 4.6575078, 10.9005014 ], [ 4.6576558, 10.9007807 ], [ 4.6582145, 10.9018341 ], [ 4.6596406, 10.9030244 ], [ 4.6614821, 10.9045649 ], [ 4.6615658, 10.9046348 ], [ 4.661847, 10.9051871 ], [ 4.6623501, 10.9061752 ], [ 4.6639901, 10.9078556 ], [ 4.6660579, 10.9085557 ], [ 4.6669565, 10.9093178 ], [ 4.6676266, 10.909886 ], [ 4.6674691, 10.9111234 ], [ 4.6674127, 10.9115664 ], [ 4.6689814, 10.9131067 ], [ 4.6702648, 10.9142269 ], [ 4.6717622, 10.9160473 ], [ 4.67383, 10.9174475 ], [ 4.6751135, 10.9168174 ], [ 4.6761118, 10.9162573 ], [ 4.6777517, 10.9172375 ], [ 4.6802297, 10.9171751 ], [ 4.6805326, 10.9171675 ], [ 4.6840978, 10.9170275 ], [ 4.6903012, 10.9168174 ], [ 4.6914421, 10.9177276 ], [ 4.6935099, 10.9190578 ], [ 4.6949903, 10.9192944 ], [ 4.7060187, 10.8999702 ], [ 4.7104871, 10.8963293 ], [ 4.7156209, 10.890261 ], [ 4.7181879, 10.8854062 ], [ 4.7201844, 10.8797111 ], [ 4.7219908, 10.8729889 ], [ 4.7226563, 10.8669201 ], [ 4.7204403, 10.8593648 ], [ 4.7200619, 10.8590411 ], [ 4.717047, 10.8564628 ], [ 4.7095976, 10.851674 ], [ 4.7096397, 10.8509981 ], [ 4.710178, 10.8423639 ], [ 4.7089126, 10.8358049 ], [ 4.7097099, 10.8326783 ], [ 4.708569, 10.8288684 ], [ 4.7070375, 10.8260861 ], [ 4.7073824, 10.8243481 ], [ 4.7067695, 10.8233046 ], [ 4.706099, 10.822163 ], [ 4.7060629, 10.8220382 ], [ 4.7053313, 10.8195032 ], [ 4.7049202, 10.8190788 ], [ 4.7031042, 10.8172045 ], [ 4.7028698, 10.8164944 ], [ 4.7020774, 10.8140948 ], [ 4.7019063, 10.8115734 ], [ 4.7013073, 10.8084637 ], [ 4.7004517, 10.8052699 ], [ 4.6994431, 10.8029382 ], [ 4.6996287, 10.8025813 ], [ 4.6997715, 10.8020673 ], [ 4.6997001, 10.8018103 ], [ 4.6994574, 10.8014772 ], [ 4.6991338, 10.8011346 ], [ 4.6988054, 10.8010965 ], [ 4.6980916, 10.8012107 ], [ 4.6980606, 10.8004907 ], [ 4.6984752, 10.8001393 ], [ 4.6989115, 10.7994706 ], [ 4.6993456, 10.7984777 ], [ 4.6991682, 10.7974534 ], [ 4.6988887, 10.7966169 ], [ 4.698227, 10.7959405 ], [ 4.6982456, 10.7958494 ], [ 4.6986548, 10.7938392 ], [ 4.6980559, 10.7923263 ], [ 4.6977186, 10.7919078 ], [ 4.6964301, 10.7903091 ], [ 4.696422, 10.7899569 ], [ 4.6963701, 10.787701 ], [ 4.6954889, 10.7845095 ], [ 4.6951467, 10.7817357 ], [ 4.6951535, 10.7801394 ], [ 4.6955745, 10.7785416 ], [ 4.6944622, 10.7757678 ], [ 4.6942659, 10.7696757 ], [ 4.6940343, 10.7624866 ], [ 4.6947712, 10.7507109 ], [ 4.6935209, 10.7468512 ], [ 4.6924942, 10.7446655 ], [ 4.6939488, 10.7444974 ], [ 4.6958712, 10.7432005 ], [ 4.6951467, 10.7360908 ], [ 4.6949755, 10.7304582 ], [ 4.6957456, 10.7282724 ], [ 4.6964301, 10.7246575 ], [ 4.6974569, 10.7189406 ], [ 4.6965157, 10.7160822 ], [ 4.6951467, 10.7118785 ], [ 4.6944622, 10.7066659 ], [ 4.6938632, 10.7050685 ], [ 4.6936065, 10.7032188 ], [ 4.6930931, 10.7018736 ], [ 4.6913818, 10.6975016 ], [ 4.6909271, 10.6967907 ], [ 4.6894994, 10.6945589 ], [ 4.6877881, 10.6937181 ], [ 4.6880277, 10.6930413 ], [ 4.6884726, 10.6917843 ], [ 4.6892427, 10.6919524 ], [ 4.688986, 10.6901867 ], [ 4.6888149, 10.6864872 ], [ 4.6880448, 10.6834603 ], [ 4.6888149, 10.6819468 ], [ 4.6909319, 10.6693869 ], [ 4.6908684, 10.6663072 ], [ 4.6907916, 10.6632099 ], [ 4.6907829, 10.6628596 ], [ 4.6901924, 10.6622928 ], [ 4.6871036, 10.6593279 ], [ 4.6844511, 10.6552917 ], [ 4.6809063, 10.6520524 ], [ 4.6767992, 10.6480161 ], [ 4.6714942, 10.6411205 ], [ 4.6684994, 10.6386818 ], [ 4.6636222, 10.634393 ], [ 4.6588306, 10.6295154 ], [ 4.6552369, 10.6242173 ], [ 4.6513009, 10.6184986 ], [ 4.6486484, 10.6169848 ], [ 4.6460814, 10.6165643 ], [ 4.6438103, 10.6190386 ], [ 4.6397497, 10.6158915 ], [ 4.6368405, 10.6145459 ], [ 4.6338457, 10.6114342 ], [ 4.6297386, 10.608827 ], [ 4.6258026, 10.6036126 ], [ 4.6257544, 10.6032574 ], [ 4.6254604, 10.6010895 ], [ 4.6249766, 10.6008815 ], [ 4.6240913, 10.6005008 ], [ 4.6241801, 10.5997075 ], [ 4.6244312, 10.5974617 ], [ 4.6237015, 10.597499 ], [ 4.6230891, 10.5975303 ], [ 4.62172, 10.5987077 ], [ 4.6207788, 10.6003898 ], [ 4.6194953, 10.599717 ], [ 4.6197333, 10.5990672 ], [ 4.6210355, 10.5955117 ], [ 4.6202106, 10.5950252 ], [ 4.6201799, 10.5950071 ], [ 4.6192387, 10.5955117 ], [ 4.6179552, 10.5945025 ], [ 4.6171951, 10.5932211 ], [ 4.6172059, 10.5931657 ], [ 4.6180407, 10.5888673 ], [ 4.6173757, 10.5880932 ], [ 4.6172984, 10.5880032 ], [ 4.6156377, 10.5905955 ], [ 4.6105111, 10.5860076 ], [ 4.6070885, 10.5865123 ], [ 4.6052916, 10.5856712 ], [ 4.6028958, 10.5849983 ], [ 4.6043019, 10.5844718 ], [ 4.6046927, 10.5843255 ], [ 4.6067462, 10.583989 ], [ 4.607174, 10.5827274 ], [ 4.6052816, 10.5793043 ], [ 4.6031429, 10.5769723 ], [ 4.6020401, 10.5772602 ], [ 4.6018078, 10.5760724 ], [ 4.6007567, 10.5706995 ], [ 4.6003397, 10.5705619 ], [ 4.5992177, 10.5701916 ], [ 4.5980789, 10.5764216 ], [ 4.5969095, 10.5759905 ], [ 4.5950497, 10.5726634 ], [ 4.5935473, 10.5716795 ], [ 4.5936032, 10.5710204 ], [ 4.5936935, 10.5699551 ], [ 4.5930366, 10.5694932 ], [ 4.5850887, 10.5639048 ], [ 4.5778973, 10.5611504 ], [ 4.5423769, 10.5475459 ], [ 4.5100584, 10.5351677 ], [ 4.4985414, 10.5173702 ], [ 4.4984667, 10.5170965 ], [ 4.485558, 10.4697647 ], [ 4.4797027, 10.4229403 ], [ 4.4794989, 10.4212923 ], [ 4.4835449, 10.3904423 ], [ 4.4864235, 10.3684931 ], [ 4.4838266, 10.3407946 ], [ 4.4829612, 10.3286772 ], [ 4.4907513, 10.313962 ], [ 4.5099247, 10.3031769 ], [ 4.5184493, 10.2983818 ], [ 4.5418196, 10.2871294 ], [ 4.5599966, 10.2680874 ], [ 4.5660558, 10.256835 ], [ 4.5659945, 10.2473452 ], [ 4.5660558, 10.2460299 ], [ 4.5686908, 10.246048 ], [ 4.5674424, 10.2229481 ], [ 4.5668392, 10.2218623 ], [ 4.553959, 10.1986778 ], [ 4.5518341, 10.1948528 ], [ 4.5518201, 10.1948231 ], [ 4.5274854, 10.143034 ], [ 4.5269213, 10.1142635 ], [ 4.5268612, 10.1111937 ], [ 4.5290056, 10.1039023 ], [ 4.5299826, 10.1005802 ], [ 4.5376673, 10.100172 ], [ 4.6246567, 10.102668 ], [ 4.6248142, 10.1026725 ], [ 4.6392375, 10.1378052 ], [ 4.6495168, 10.1814921 ], [ 4.6503734, 10.1986242 ], [ 4.6469939, 10.2042567 ], [ 4.6465187, 10.2050487 ], [ 4.6703471, 10.2116528 ], [ 4.6710558, 10.2118492 ], [ 4.6694665, 10.2253601 ], [ 4.669383, 10.2260695 ], [ 4.6769118, 10.2302523 ], [ 4.6843313, 10.233962 ], [ 4.6969008, 10.2402467 ], [ 4.6969886, 10.2402906 ], [ 4.7078352, 10.2430067 ], [ 4.7197192, 10.2460005 ], [ 4.7286559, 10.2482458 ], [ 4.7359765, 10.2488072 ], [ 4.7457689, 10.2505847 ], [ 4.7506175, 10.2515202 ], [ 4.7563219, 10.2525493 ], [ 4.7623114, 10.2538591 ], [ 4.7716284, 10.2557302 ], [ 4.777713, 10.2565721 ], [ 4.7939361, 10.2606659 ], [ 4.8715018, 10.2183301 ], [ 4.9459197, 10.2848152 ], [ 4.9465024, 10.2853358 ], [ 4.9503095, 10.3896513 ], [ 4.9320353, 10.4395248 ], [ 4.9061992, 10.4541513 ], [ 4.891074, 10.4566529 ], [ 4.8758546, 10.4591702 ], [ 4.8758588, 10.4592551 ], [ 4.8758613, 10.4593117 ], [ 4.8534193, 10.4602976 ], [ 4.8450542, 10.4787016 ], [ 4.8329244, 10.4879036 ], [ 4.826232, 10.4954319 ], [ 4.8187032, 10.507144 ], [ 4.8187032, 10.5222015 ], [ 4.8190959, 10.5296602 ], [ 4.81954, 10.5380955 ], [ 4.8220496, 10.5590086 ], [ 4.8223731, 10.5730349 ], [ 4.8237224, 10.5949793 ], [ 4.8145208, 10.6041813 ], [ 4.8019729, 10.6133833 ], [ 4.7961173, 10.6292772 ], [ 4.8026143, 10.6520171 ], [ 4.8028092, 10.6526995 ], [ 4.810232, 10.6601222 ], [ 4.8115296, 10.6614198 ], [ 4.8120112, 10.6619015 ], [ 4.8145208, 10.6744499 ], [ 4.8069921, 10.692853 ], [ 4.8089953, 10.6968594 ], [ 4.8095016, 10.6978722 ], [ 4.8130436, 10.7007245 ], [ 4.8187652, 10.7043519 ], [ 4.8224557, 10.7071703 ], [ 4.8257357, 10.7084314 ], [ 4.8364313, 10.705769 ], [ 4.8405669, 10.7037372 ], [ 4.8437991, 10.6995449 ], [ 4.8461999, 10.6991831 ], [ 4.8493373, 10.6999538 ], [ 4.8514051, 10.7019155 ], [ 4.8551129, 10.7050684 ], [ 4.8591772, 10.7066798 ], [ 4.8625285, 10.7082212 ], [ 4.8661662, 10.7079626 ], [ 4.8702229, 10.7035288 ], [ 4.8735504, 10.7024078 ], [ 4.8810611, 10.7039024 ], [ 4.8892373, 10.706051 ], [ 4.8937056, 10.7066115 ], [ 4.8965578, 10.7048366 ], [ 4.8980789, 10.7001657 ], [ 4.9006459, 10.6952145 ], [ 4.9082516, 10.6901697 ], [ 4.9138609, 10.689796 ], [ 4.9205159, 10.6891421 ], [ 4.9251286, 10.6923882 ], [ 4.9274562, 10.6946539 ], [ 4.9302132, 10.6937197 ], [ 4.9326851, 10.6888618 ], [ 4.9416733, 10.6886702 ], [ 4.946934, 10.690053 ], [ 4.9494891, 10.6913959 ], [ 4.9504202, 10.6928387 ], [ 4.951034, 10.6937898 ], [ 4.9506775, 10.698636 ], [ 4.9519562, 10.7017499 ], [ 4.9520441, 10.701964 ], [ 4.953589, 10.7045914 ], [ 4.9550151, 10.7061678 ], [ 4.957689, 10.7072771 ], [ 4.9652353, 10.7075107 ], [ 4.9734612, 10.7104206 ], [ 4.9759707, 10.7137661 ], [ 4.9793172, 10.7171125 ], [ 4.986846, 10.7171125 ], [ 4.9952424, 10.7194794 ], [ 5.0030858, 10.7221067 ], [ 5.0084931, 10.721698 ], [ 5.0117511, 10.7237055 ], [ 5.0119988, 10.7238581 ], [ 5.0131278, 10.7268356 ], [ 5.0133061, 10.7302801 ], [ 5.0126524, 10.7338413 ], [ 5.0128901, 10.7365852 ], [ 5.0132837, 10.7373343 ], [ 5.0138408, 10.7383949 ], [ 5.0175843, 10.7408469 ], [ 5.020377, 10.7445247 ], [ 5.0242393, 10.7486695 ], [ 5.0268538, 10.7504209 ], [ 5.0299436, 10.7497787 ], [ 5.0335088, 10.7474436 ], [ 5.0362927, 10.744355 ], [ 5.0392925, 10.7414482 ], [ 5.0442993, 10.7389163 ], [ 5.0466958, 10.737763 ], [ 5.0479071, 10.7371801 ], [ 5.0553436, 10.7380482 ], [ 5.0611552, 10.7398105 ], [ 5.0613076, 10.7398567 ], [ 5.063088, 10.74398 ], [ 5.0633692, 10.7446311 ], [ 5.0646945, 10.7464395 ], [ 5.0660935, 10.7470905 ], [ 5.0754443, 10.7475246 ], [ 5.0783895, 10.7482479 ], [ 5.0799384, 10.7496373 ], [ 5.080083, 10.749767 ], [ 5.0832932, 10.7564913 ], [ 5.0835673, 10.7570654 ], [ 5.0839853, 10.757941 ], [ 5.0847952, 10.7588813 ], [ 5.0856052, 10.7590983 ], [ 5.0867832, 10.7577963 ], [ 5.0871918, 10.7574658 ], [ 5.0880349, 10.7567836 ], [ 5.089802, 10.7576516 ], [ 5.090311, 10.7582454 ], [ 5.0921581, 10.7604004 ], [ 5.0947352, 10.761413 ], [ 5.1005685, 10.7613407 ], [ 5.1010484, 10.7613348 ], [ 5.1022868, 10.7723236 ], [ 5.107306, 10.7857075 ], [ 5.1089792, 10.7957459 ], [ 5.0997772, 10.8082943 ], [ 5.0838833, 10.8174963 ], [ 5.0838595, 10.8174995 ], [ 5.0587873, 10.8208418 ], [ 5.0470757, 10.8250246 ], [ 5.0344519, 10.8458367 ], [ 5.0286722, 10.8593225 ], [ 5.0261626, 10.87187 ], [ 5.0253474, 10.8898078 ], [ 5.0253263, 10.890274 ], [ 5.0345278, 10.8994761 ], [ 5.0546045, 10.9044952 ], [ 5.0755177, 10.91537 ], [ 5.0816054, 10.926023 ], [ 5.0822101, 10.9270811 ], [ 5.0820895, 10.9304571 ], [ 5.0813737, 10.9505043 ], [ 5.0679889, 10.9898214 ], [ 5.0629702, 11.0124073 ], [ 5.0551091, 11.0261641 ], [ 5.0462394, 11.0416861 ], [ 5.0406399, 11.051897 ], [ 5.0357523, 11.051897 ], [ 5.0273738, 11.0505009 ], [ 5.02109, 11.0539923 ], [ 5.0136657, 11.0526817 ], [ 5.0092206, 11.051897 ], [ 4.9959545, 11.0539923 ], [ 4.9910674, 11.0609741 ], [ 4.9917655, 11.0700502 ], [ 4.9798961, 11.0805235 ], [ 4.9758597, 11.0805235 ], [ 4.9722157, 11.0805235 ], [ 4.9603462, 11.0826187 ], [ 4.9477782, 11.0826187 ], [ 4.9345126, 11.0840149 ], [ 4.908679, 11.0819206 ], [ 4.8982058, 11.0875063 ], [ 4.8765616, 11.0916948 ], [ 4.8632956, 11.1000738 ], [ 4.8606739, 11.1033506 ], [ 4.85039, 11.1084929 ], [ 4.8396564, 11.1138592 ], [ 4.830965, 11.116107 ], [ 4.8178005, 11.1195116 ], [ 4.8144212, 11.1161327 ], [ 4.8025517, 11.1140375 ], [ 4.7885876, 11.1189251 ], [ 4.7857947, 11.1238127 ], [ 4.7802091, 11.1287003 ], [ 4.7794318, 11.1314201 ], [ 4.7652893, 11.1368599 ], [ 4.7576222, 11.142993 ], [ 4.7461224, 11.1475925 ], [ 4.7435873, 11.1505624 ], [ 4.7413115, 11.1532284 ], [ 4.740542, 11.1693468 ], [ 4.7327111, 11.1895866 ], [ 4.7223058, 11.2059015 ], [ 4.705303, 11.2210517 ], [ 4.7035602, 11.2279357 ], [ 4.7034063, 11.2285433 ], [ 4.7362223, 11.2494898 ], [ 4.7376507, 11.2503231 ], [ 4.7389906, 11.2511048 ], [ 4.7081207, 11.2640695 ], [ 4.7038566, 11.2679689 ], [ 4.7043678, 11.2714862 ], [ 4.7044695, 11.272186 ], [ 4.7078607, 11.2748296 ], [ 4.7081773, 11.2750763 ], [ 4.7093944, 11.2786573 ], [ 4.7096034, 11.279272 ], [ 4.7126112, 11.2829024 ], [ 4.7133112, 11.2837473 ], [ 4.710459, 11.2910194 ], [ 4.711656, 11.296106 ], [ 4.7118851, 11.2970794 ], [ 4.7166387, 11.2985711 ], [ 4.7196421, 11.2993074 ], [ 4.7231036, 11.300156 ], [ 4.7264323, 11.3018299 ], [ 4.7268114, 11.3020206 ], [ 4.7275947, 11.3051627 ], [ 4.7278572, 11.3062158 ], [ 4.732896, 11.3067752 ], [ 4.7378397, 11.3041648 ], [ 4.7438293, 11.3067752 ], [ 4.7477272, 11.3114365 ], [ 4.7525126, 11.3122565 ], [ 4.7567519, 11.3131897 ], [ 4.760472, 11.3144622 ], [ 4.7642787, 11.3159892 ], [ 4.771373, 11.318619 ], [ 4.7756122, 11.3198067 ], [ 4.7806301, 11.3217578 ], [ 4.7839177, 11.3236241 ], [ 4.7864267, 11.3243028 ], [ 4.7886761, 11.3251511 ], [ 4.7914558, 11.3267695 ], [ 4.7939535, 11.3283746 ], [ 4.7969815, 11.3309195 ], [ 4.7990579, 11.3322768 ], [ 4.8013073, 11.3338037 ], [ 4.805287, 11.3363485 ], [ 4.8090072, 11.3382996 ], [ 4.8115161, 11.3402506 ], [ 4.8127273, 11.3397416 ], [ 4.813679, 11.3387237 ], [ 4.8143711, 11.337112 ], [ 4.8155823, 11.3360941 ], [ 4.8169666, 11.3370272 ], [ 4.8184374, 11.3393175 ], [ 4.819389, 11.3397416 ], [ 4.8200812, 11.3387237 ], [ 4.8212924, 11.3376209 ], [ 4.8231957, 11.3361789 ], [ 4.8263302, 11.3355465 ], [ 4.8300102, 11.3360721 ], [ 4.8326259, 11.3394023 ], [ 4.8349618, 11.3421167 ], [ 4.8369325, 11.344889 ], [ 4.8369517, 11.344916 ], [ 4.8382009, 11.3471906 ], [ 4.8387685, 11.3482241 ], [ 4.8404123, 11.3508537 ], [ 4.841883, 11.3509385 ], [ 4.8438729, 11.3502599 ], [ 4.8456897, 11.349242 ], [ 4.8475931, 11.3487331 ], [ 4.850102, 11.349751 ], [ 4.8520919, 11.3500903 ], [ 4.853493, 11.3509695 ], [ 4.8542547, 11.3514474 ], [ 4.8537036, 11.3535826 ], [ 4.8538362, 11.3538618 ], [ 4.8543413, 11.3549252 ], [ 4.8561581, 11.3554341 ], [ 4.8577154, 11.355943 ], [ 4.8602243, 11.3566216 ], [ 4.8631658, 11.3578091 ], [ 4.8648961, 11.3578939 ], [ 4.8674051, 11.3581484 ], [ 4.8681493, 11.357063 ], [ 4.8691354, 11.3554341 ], [ 4.8700005, 11.3536528 ], [ 4.8710377, 11.3531145 ], [ 4.8714713, 11.3528894 ], [ 4.8742398, 11.3528894 ], [ 4.8762898, 11.3539977 ], [ 4.8787411, 11.3546836 ], [ 4.8789982, 11.3547555 ], [ 4.8794572, 11.3561058 ], [ 4.8796903, 11.3567912 ], [ 4.8809947, 11.3582192 ], [ 4.882589, 11.3589527 ], [ 4.8832374, 11.359251 ], [ 4.8831509, 11.3607778 ], [ 4.8825453, 11.362559 ], [ 4.8822312, 11.3631749 ], [ 4.8816801, 11.3642554 ], [ 4.8804689, 11.3655277 ], [ 4.8788251, 11.3667152 ], [ 4.8777869, 11.3685812 ], [ 4.8774126, 11.3705551 ], [ 4.8773459, 11.3709069 ], [ 4.8786445, 11.3723391 ], [ 4.8816801, 11.3731613 ], [ 4.888089, 11.3781786 ], [ 4.892408, 11.3826606 ], [ 4.8957821, 11.3855443 ], [ 4.8971953, 11.3869296 ], [ 4.897772, 11.3874949 ], [ 4.8978585, 11.3891912 ], [ 4.897898, 11.3894107 ], [ 4.8981181, 11.390633 ], [ 4.9132526, 11.3854516 ], [ 4.9284771, 11.3762199 ], [ 4.931513, 11.3723131 ], [ 4.9357568, 11.3663461 ], [ 4.9385108, 11.3641003 ], [ 4.9443259, 11.3674325 ], [ 4.9524307, 11.3692799 ], [ 4.9588561, 11.3692799 ], [ 4.966085, 11.362051 ], [ 4.966788, 11.3607621 ], [ 4.9709039, 11.3532162 ], [ 4.9712063, 11.3521579 ], [ 4.9725103, 11.3475943 ], [ 4.9725103, 11.3445618 ], [ 4.9725103, 11.3395624 ], [ 4.9773297, 11.3291206 ], [ 4.9813457, 11.3194819 ], [ 4.9882643, 11.3130253 ], [ 4.9960365, 11.3103683 ], [ 4.9971773, 11.3046349 ], [ 4.9997443, 11.2944963 ], [ 5.0006712, 11.2928181 ], [ 5.0018377, 11.2909514 ], [ 5.0011123, 11.2900555 ], [ 4.9964354, 11.2842799 ], [ 4.9963845, 11.284217 ], [ 4.9964572, 11.2839612 ], [ 4.9988886, 11.2754066 ], [ 5.0023112, 11.2696725 ], [ 5.0032381, 11.2670152 ], [ 5.0054412, 11.257637 ], [ 5.0118666, 11.2520142 ], [ 5.0166855, 11.2512112 ], [ 5.0255208, 11.2560301 ], [ 5.0325216, 11.2606979 ], [ 5.0327497, 11.26085 ], [ 5.0340094, 11.264 ], [ 5.0343556, 11.2648659 ], [ 5.0407815, 11.2704878 ], [ 5.0456004, 11.2728977 ], [ 5.0520258, 11.2728977 ], [ 5.0584517, 11.2704878 ], [ 5.0585972, 11.2701966 ], [ 5.0624676, 11.2624559 ], [ 5.064877, 11.2544241 ], [ 5.0624676, 11.2447863 ], [ 5.0619801, 11.2441595 ], [ 5.0568452, 11.2375574 ], [ 5.0528293, 11.2311316 ], [ 5.0488133, 11.2279186 ], [ 5.0488133, 11.2273105 ], [ 5.0488133, 11.2190838 ], [ 5.0488133, 11.2110519 ], [ 5.0528293, 11.20543 ], [ 5.0576482, 11.2046261 ], [ 5.062368, 11.208559 ], [ 5.0624676, 11.208642 ], [ 5.0664835, 11.2166748 ], [ 5.0688079, 11.2228728 ], [ 5.068893, 11.2230997 ], [ 5.0706989, 11.2261097 ], [ 5.0713024, 11.2271156 ], [ 5.0713024, 11.2288371 ], [ 5.0713024, 11.2319345 ], [ 5.0713024, 11.2363705 ], [ 5.0713024, 11.2375574 ], [ 5.1854678, 11.2280391 ], [ 5.2333902, 11.2181918 ], [ 5.2421179, 11.239973 ], [ 5.2443657, 11.2448668 ], [ 5.2432458, 11.2678774 ], [ 5.2430543, 11.2905738 ], [ 5.2460512, 11.3016828 ], [ 5.2496511, 11.309372 ], [ 5.260529, 11.3147012 ], [ 5.2686574, 11.3189436 ], [ 5.2755733, 11.3232143 ], [ 5.2834219, 11.3276088 ], [ 5.291181, 11.3328827 ], [ 5.3037633, 11.3387832 ], [ 5.3128565, 11.3445901 ], [ 5.3132817, 11.3452169 ], [ 5.3331413, 11.3564291 ], [ 5.3363543, 11.3475943 ], [ 5.3363543, 11.3403654 ], [ 5.3423965, 11.3386503 ], [ 5.3484539, 11.3389266 ], [ 5.3545566, 11.3175923 ], [ 5.3573802, 11.3064333 ], [ 5.3625997, 11.2941831 ], [ 5.3685892, 11.2826036 ], [ 5.372354, 11.2701005 ], [ 5.373123, 11.2657595 ], [ 5.3729558, 11.2627828 ], [ 5.3739065, 11.2606849 ], [ 5.3747978, 11.2570135 ], [ 5.3765804, 11.2535168 ], [ 5.3777094, 11.2487963 ], [ 5.379492, 11.2430267 ], [ 5.380205, 11.2384226 ], [ 5.3803239, 11.2367324 ], [ 5.3796039, 11.2350261 ], [ 5.3891592, 11.2310794 ], [ 5.3896642, 11.2289089 ], [ 5.3894503, 11.2261113 ], [ 5.3899582, 11.2230456 ], [ 5.3898068, 11.220586 ], [ 5.3892364, 11.2179982 ], [ 5.3876592, 11.2127051 ], [ 5.3870041, 11.2105069 ], [ 5.3845957, 11.20236 ], [ 5.3869725, 11.1924509 ], [ 5.3884542, 11.1821497 ], [ 5.3897058, 11.1734478 ], [ 5.3938827, 11.1619347 ], [ 5.3998199, 11.1542592 ], [ 5.4040308, 11.1469994 ], [ 5.402762, 11.1440094 ], [ 5.4051505, 11.1265545 ], [ 5.4134009, 11.1208966 ], [ 5.4084409, 11.1167856 ], [ 5.3938264, 11.1178075 ], [ 5.3870775, 11.0922067 ], [ 5.3911272, 11.0640471 ], [ 5.3898105, 11.0476498 ], [ 5.3897918, 11.0474173 ], [ 5.3889933, 11.0374739 ], [ 5.3966651, 11.0260598 ], [ 5.4007003, 11.0200562 ], [ 5.4112184, 11.0044063 ], [ 5.4306324, 10.9905832 ], [ 5.4456511, 10.9841803 ], [ 5.44727, 10.9834901 ], [ 5.4626004, 10.9802702 ], [ 5.4770037, 10.9790803 ], [ 5.4871289, 10.9780303 ], [ 5.492252, 10.9771276 ], [ 5.4954715, 10.9765603 ], [ 5.5003915, 10.9753854 ], [ 5.500748, 10.9753003 ], [ 5.5013999, 10.9784043 ], [ 5.500865, 10.9814574 ], [ 5.5009152, 10.983429 ], [ 5.5009244, 10.9837907 ], [ 5.5016374, 10.9846657 ], [ 5.5033623, 10.9851821 ], [ 5.5051116, 10.9849638 ], [ 5.5060939, 10.9834407 ], [ 5.5079114, 10.9819655 ], [ 5.508649, 10.9809908 ], [ 5.5097278, 10.9810316 ], [ 5.5101679, 10.9810483 ], [ 5.5103722, 10.9823907 ], [ 5.5102599, 10.9841728 ], [ 5.5102839, 10.9852456 ], [ 5.5103103, 10.9864248 ], [ 5.5103127, 10.9865323 ], [ 5.5113823, 10.9882822 ], [ 5.512123, 10.9893154 ], [ 5.5125113, 10.9898571 ], [ 5.5131055, 10.9913737 ], [ 5.5133896, 10.9920477 ], [ 5.5138185, 10.9930652 ], [ 5.5150663, 10.9935902 ], [ 5.5170272, 10.9928903 ], [ 5.5188692, 10.9920153 ], [ 5.5189071, 10.9909646 ], [ 5.5197011, 10.9898571 ], [ 5.5211866, 10.9902071 ], [ 5.522375, 10.9904987 ], [ 5.523088, 10.9892155 ], [ 5.5235634, 10.985599 ], [ 5.5245141, 10.9830907 ], [ 5.5261779, 10.9808741 ], [ 5.5310278, 10.9775933 ], [ 5.5342365, 10.9716433 ], [ 5.5356869, 10.9644501 ], [ 5.5358886, 10.9630942 ], [ 5.5360044, 10.9623159 ], [ 5.5370426, 10.9607871 ], [ 5.5379943, 10.9601925 ], [ 5.5385134, 10.9590034 ], [ 5.5396381, 10.9588335 ], [ 5.5405032, 10.9593431 ], [ 5.5411088, 10.9600226 ], [ 5.542147, 10.9596829 ], [ 5.5427526, 10.9582389 ], [ 5.5437908, 10.95671 ], [ 5.544829, 10.9548414 ], [ 5.5460402, 10.9534824 ], [ 5.547338, 10.9530577 ], [ 5.5492413, 10.9528029 ], [ 5.5508851, 10.952633 ], [ 5.5521828, 10.9513589 ], [ 5.553048, 10.949745 ], [ 5.5539996, 10.9485559 ], [ 5.5554704, 10.9484709 ], [ 5.556249, 10.9473667 ], [ 5.5572007, 10.9474516 ], [ 5.559302, 10.9491503 ], [ 5.5594753, 10.9492903 ], [ 5.5601422, 10.9507643 ], [ 5.5601752, 10.9512816 ], [ 5.5602288, 10.9521233 ], [ 5.5613535, 10.952633 ], [ 5.5624484, 10.9534047 ], [ 5.5642085, 10.9542468 ], [ 5.5656792, 10.9532276 ], [ 5.5667174, 10.9523782 ], [ 5.5677556, 10.9520384 ], [ 5.5690533, 10.9522932 ], [ 5.5703511, 10.9527179 ], [ 5.5709351, 10.9531384 ], [ 5.5716488, 10.9536523 ], [ 5.5713892, 10.9550113 ], [ 5.5715623, 10.9557757 ], [ 5.5710432, 10.9564552 ], [ 5.5710432, 10.9567248 ], [ 5.5710432, 10.9572197 ], [ 5.5718377, 10.9580043 ], [ 5.571992, 10.9581568 ], [ 5.5726005, 10.9594281 ], [ 5.5726219, 10.9595262 ], [ 5.57286, 10.9606172 ], [ 5.5738117, 10.9606172 ], [ 5.5743232, 10.9601987 ], [ 5.5748328, 10.9607179 ], [ 5.5751094, 10.9624009 ], [ 5.5749004, 10.9635635 ], [ 5.5748499, 10.9638448 ], [ 5.5749463, 10.9641288 ], [ 5.5752824, 10.9651188 ], [ 5.5761104, 10.9654315 ], [ 5.5764071, 10.9655435 ], [ 5.5767532, 10.9666477 ], [ 5.5767897, 10.9671856 ], [ 5.5768397, 10.9679217 ], [ 5.5782919, 10.9688528 ], [ 5.5849521, 10.9667717 ], [ 5.6094379, 10.9652767 ], [ 5.6364889, 10.964991 ], [ 5.6651488, 10.9731407 ], [ 5.6651203, 10.9734684 ], [ 5.6651078, 10.9734891 ], [ 5.6799678, 10.9757185 ], [ 5.6912121, 10.9821434 ], [ 5.7033662, 10.9897396 ], [ 5.7110317, 10.9921235 ], [ 5.7210808, 10.9949951 ], [ 5.729029, 10.9983577 ], [ 5.7290654, 10.9984071 ], [ 5.7342973, 11.0054956 ], [ 5.7348002, 11.006177 ], [ 5.7374893, 11.017124 ], [ 5.7397078, 11.0223953 ], [ 5.740148, 11.0234413 ], [ 5.7533616, 11.0270829 ], [ 5.7569224, 11.0289442 ], [ 5.7656035, 11.0394215 ], [ 5.7690694, 11.049424 ], [ 5.7751855, 11.059973 ], [ 5.7832882, 11.0677704 ], [ 5.8003226, 11.0825317 ], [ 5.8089543, 11.0874954 ], [ 5.826077, 11.0930778 ], [ 5.8358295, 11.093284 ], [ 5.8490207, 11.0968992 ], [ 5.8552004, 11.0986484 ], [ 5.8604294, 11.1019137 ], [ 5.8679359, 11.1069087 ], [ 5.8923122, 11.1108458 ], [ 5.8975098, 11.1135658 ], [ 5.9068168, 11.1371048 ], [ 5.9149684, 11.1450876 ], [ 5.9370925, 11.1519634 ], [ 5.956658, 11.1597526 ], [ 5.9777457, 11.1669777 ], [ 5.9946524, 11.1497055 ], [ 6.0005903, 11.1435843 ], [ 6.0062122, 11.1419783 ], [ 6.015636, 11.1381084 ], [ 6.0159, 11.138 ], [ 6.0158784, 11.1379028 ], [ 6.0140416, 11.1296512 ], [ 6.0166656, 11.118289 ], [ 6.0262923, 11.1010377 ], [ 6.0263, 11.101 ], [ 6.0268677, 11.0990013 ], [ 6.0311, 11.0841 ], [ 6.0327, 11.0753 ], [ 6.0334142, 11.0744271 ], [ 6.0399, 11.0665 ], [ 6.044778, 11.0574193 ], [ 6.0464, 11.0544 ], [ 6.0659854, 11.05501 ], [ 6.0778351, 11.0562949 ], [ 6.0965377, 11.0592931 ], [ 6.1126704, 11.0612918 ], [ 6.1199516, 11.0597214 ], [ 6.1275183, 11.0538679 ], [ 6.1626391, 11.0430176 ], [ 6.1961419, 11.0176525 ], [ 6.2082772, 11.0048034 ], [ 6.2235057, 10.9964753 ], [ 6.2423034, 10.9886231 ], [ 6.2665485, 10.9661064 ], [ 6.2661887, 10.9649476 ], [ 6.265354, 10.9636171 ], [ 6.2646206, 10.9631439 ], [ 6.2634681, 10.9632879 ], [ 6.2622822, 10.9629313 ], [ 6.2614773, 10.9614158 ], [ 6.2608277, 10.9595231 ], [ 6.2585645, 10.9577743 ], [ 6.2557984, 10.9566017 ], [ 6.2544154, 10.955429 ], [ 6.2525084, 10.9517463 ], [ 6.2513349, 10.9487426 ], [ 6.2510206, 10.9483105 ], [ 6.2481707, 10.9485574 ], [ 6.2454465, 10.9476316 ], [ 6.243791, 10.9463766 ], [ 6.2418003, 10.9452656 ], [ 6.2398095, 10.9455742 ], [ 6.2386989, 10.9458828 ], [ 6.2374835, 10.9453273 ], [ 6.236078, 10.940405 ], [ 6.2355975, 10.9391344 ], [ 6.2345917, 10.9375502 ], [ 6.2333763, 10.9367478 ], [ 6.2325171, 10.9353487 ], [ 6.2320818, 10.9332238 ], [ 6.233963, 10.9266043 ], [ 6.23302, 10.9221188 ], [ 6.2310293, 10.9186003 ], [ 6.2261037, 10.9134974 ], [ 6.2230298, 10.9105768 ], [ 6.2213642, 10.9086732 ], [ 6.217795, 10.905104 ], [ 6.2092289, 10.9017727 ], [ 6.164607, 10.8931037 ], [ 6.1633572, 10.8916301 ], [ 6.1578326, 10.8851165 ], [ 6.1632853, 10.8700226 ], [ 6.1639573, 10.8681624 ], [ 6.1629836, 10.8668219 ], [ 6.1629011, 10.8664734 ], [ 6.1624458, 10.8660728 ], [ 6.1623956, 10.865573 ], [ 6.1625677, 10.8648087 ], [ 6.1633698, 10.8626495 ], [ 6.1636669, 10.8600235 ], [ 6.1628054, 10.8561428 ], [ 6.1605549, 10.8540228 ], [ 6.1581662, 10.8526573 ], [ 6.1567045, 10.8527623 ], [ 6.155156, 10.8541859 ], [ 6.1540663, 10.8546531 ], [ 6.1533265, 10.8547025 ], [ 6.1488254, 10.8550032 ], [ 6.1464328, 10.8531737 ], [ 6.1448993, 10.8528309 ], [ 6.1435093, 10.8525201 ], [ 6.1411801, 10.8517498 ], [ 6.1398491, 10.8513763 ], [ 6.1378763, 10.8501158 ], [ 6.132172, 10.8487152 ], [ 6.1304845, 10.8484585 ], [ 6.1249462, 10.8459348 ], [ 6.1225996, 10.8448655 ], [ 6.1225994, 10.844664 ], [ 6.1225935, 10.8392844 ], [ 6.1218092, 10.8378838 ], [ 6.1218329, 10.83688 ], [ 6.1220221, 10.8360945 ], [ 6.1277, 10.8343096 ], [ 6.1304132, 10.8339386 ], [ 6.1317917, 10.8317676 ], [ 6.1334079, 10.8299701 ], [ 6.1363552, 10.8253244 ], [ 6.1358323, 10.8245307 ], [ 6.1336932, 10.8227565 ], [ 6.131554, 10.818671 ], [ 6.1302729, 10.8179784 ], [ 6.1285807, 10.8186507 ], [ 6.1267933, 10.8186134 ], [ 6.1251391, 10.8167831 ], [ 6.1223249, 10.8149715 ], [ 6.1217262, 10.8149359 ], [ 6.1176094, 10.8146913 ], [ 6.1137875, 10.8143738 ], [ 6.1125896, 10.8138695 ], [ 6.1125305, 10.8134747 ], [ 6.1121903, 10.8111987 ], [ 6.113122, 10.8083412 ], [ 6.1135213, 10.8052221 ], [ 6.113198, 10.8033357 ], [ 6.1112015, 10.7997309 ], [ 6.1111255, 10.7980126 ], [ 6.111136, 10.7963701 ], [ 6.1107337, 10.7929308 ], [ 6.1100958, 10.7896515 ], [ 6.1088567, 10.7866813 ], [ 6.1081149, 10.7831479 ], [ 6.107012, 10.780234 ], [ 6.1063666, 10.7789124 ], [ 6.105662, 10.7774695 ], [ 6.1028289, 10.7759192 ], [ 6.101987, 10.7746709 ], [ 6.1025056, 10.7725195 ], [ 6.1038937, 10.7695122 ], [ 6.1050726, 10.7680738 ], [ 6.1067792, 10.7668063 ], [ 6.1090703, 10.7653466 ], [ 6.1115612, 10.7627314 ], [ 6.1130536, 10.7602276 ], [ 6.1116563, 10.7572208 ], [ 6.111295, 10.7532793 ], [ 6.1110292, 10.7499285 ], [ 6.1117514, 10.7487772 ], [ 6.1141091, 10.7465355 ], [ 6.1165049, 10.7428554 ], [ 6.1166761, 10.740296 ], [ 6.1146225, 10.7376993 ], [ 6.1116183, 10.7361301 ], [ 6.1106105, 10.7319267 ], [ 6.1083858, 10.728975 ], [ 6.1078914, 10.7285079 ], [ 6.1071234, 10.7276672 ], [ 6.1071499, 10.7250331 ], [ 6.1079105, 10.7227538 ], [ 6.10734, 10.7209603 ], [ 6.1051534, 10.7185689 ], [ 6.1036512, 10.7161589 ], [ 6.1016737, 10.714795 ], [ 6.0999434, 10.7141972 ], [ 6.0988786, 10.7136741 ], [ 6.0958146, 10.7119733 ], [ 6.0948123, 10.7112719 ], [ 6.0938398, 10.7105914 ], [ 6.0942391, 10.7089846 ], [ 6.0943722, 10.7055282 ], [ 6.092813, 10.7020904 ], [ 6.092813, 10.699347 ], [ 6.092813, 10.6989515 ], [ 6.0936687, 10.6980921 ], [ 6.0952453, 10.6978874 ], [ 6.0952912, 10.6978814 ], [ 6.0969168, 10.6981771 ], [ 6.0988976, 10.7016607 ], [ 6.1002096, 10.7010254 ], [ 6.103328, 10.7010815 ], [ 6.1074541, 10.7018475 ], [ 6.1119415, 10.7003528 ], [ 6.1150979, 10.6971205 ], [ 6.1163909, 10.6942245 ], [ 6.1158204, 10.6934958 ], [ 6.1146796, 10.6927484 ], [ 6.1142042, 10.6919077 ], [ 6.1156303, 10.6896282 ], [ 6.1167141, 10.6877224 ], [ 6.1176265, 10.6868289 ], [ 6.1198325, 10.6862836 ], [ 6.1239206, 10.6851626 ], [ 6.125765, 10.685312 ], [ 6.1273241, 10.6843778 ], [ 6.1281444, 10.6840169 ], [ 6.1309178, 10.6801737 ], [ 6.1325721, 10.6789779 ], [ 6.1338461, 10.6788097 ], [ 6.135525, 10.6795092 ], [ 6.1372306, 10.6792395 ], [ 6.138999, 10.6776139 ], [ 6.141041, 10.673199 ], [ 6.1401928, 10.6705235 ], [ 6.1368521, 10.6690033 ], [ 6.1365741, 10.6688768 ], [ 6.1337101, 10.6677324 ], [ 6.133104, 10.6673937 ], [ 6.1329555, 10.6669148 ], [ 6.1330981, 10.6614842 ], [ 6.1331496, 10.6609237 ], [ 6.1331096, 10.6607271 ], [ 6.1330545, 10.6604565 ], [ 6.1327959, 10.6598578 ], [ 6.132164, 10.6596241 ], [ 6.1305214, 10.657708 ], [ 6.1306302, 10.6552477 ], [ 6.1311531, 10.6531688 ], [ 6.1307965, 10.6500388 ], [ 6.1308203, 10.6459743 ], [ 6.1291328, 10.6433348 ], [ 6.1278931, 10.6405441 ], [ 6.1270269, 10.6385882 ], [ 6.1267607, 10.6371119 ], [ 6.1272361, 10.6355608 ], [ 6.1275023, 10.6344395 ], [ 6.1267988, 10.633393 ], [ 6.125753, 10.6328884 ], [ 6.1239466, 10.6324025 ], [ 6.1234142, 10.6322157 ], [ 6.1230719, 10.6316737 ], [ 6.1229008, 10.6309823 ], [ 6.1219121, 10.6297488 ], [ 6.1213607, 10.6286276 ], [ 6.1205125, 10.6266386 ], [ 6.1202388, 10.6237125 ], [ 6.1192881, 10.6211709 ], [ 6.1182613, 10.6182928 ], [ 6.1163409, 10.6121628 ], [ 6.1161887, 10.6101257 ], [ 6.115181, 10.6079764 ], [ 6.1147056, 10.6067616 ], [ 6.1148007, 10.6053039 ], [ 6.1155993, 10.6040703 ], [ 6.1170824, 10.6020705 ], [ 6.1185655, 10.6011174 ], [ 6.1207698, 10.5997397 ], [ 6.1241177, 10.5980522 ], [ 6.1275403, 10.5962953 ], [ 6.1314383, 10.5935105 ], [ 6.1333777, 10.591791 ], [ 6.1340052, 10.5901275 ], [ 6.1311617, 10.581649 ], [ 6.1298666, 10.5777048 ], [ 6.1295183, 10.5739539 ], [ 6.1290667, 10.5702389 ], [ 6.1287102, 10.5687903 ], [ 6.1281873, 10.5673417 ], [ 6.1274505, 10.5651454 ], [ 6.1265949, 10.563393 ], [ 6.1257511, 10.562622 ], [ 6.1256204, 10.5622715 ], [ 6.1254421, 10.5615705 ], [ 6.1258343, 10.5598648 ], [ 6.1260007, 10.5585681 ], [ 6.1257392, 10.5567339 ], [ 6.1251807, 10.5553086 ], [ 6.1244557, 10.554187 ], [ 6.1230415, 10.5528668 ], [ 6.121556, 10.5513597 ], [ 6.1200349, 10.5500746 ], [ 6.1171047, 10.5496133 ], [ 6.1164578, 10.54921 ], [ 6.1144185, 10.5485791 ], [ 6.1120227, 10.5474996 ], [ 6.1090008, 10.5451933 ], [ 6.1072596, 10.5452144 ], [ 6.1059048, 10.5455789 ], [ 6.1050635, 10.5457611 ], [ 6.1042934, 10.5458032 ], [ 6.1017392, 10.5463001 ], [ 6.1002576, 10.5465883 ], [ 6.0997014, 10.5475417 ], [ 6.0963929, 10.5469388 ], [ 6.0936402, 10.5461971 ], [ 6.0936943, 10.5460129 ], [ 6.0940399, 10.5448358 ], [ 6.0945105, 10.5413729 ], [ 6.0945675, 10.5376996 ], [ 6.0942871, 10.5310376 ], [ 6.0939543, 10.5285606 ], [ 6.09317, 10.5249152 ], [ 6.092243, 10.5217838 ], [ 6.1583318, 10.5008317 ], [ 6.1748962, 10.4422003 ], [ 6.161386, 10.4175764 ], [ 6.1616792, 10.4166578 ], [ 6.1616356, 10.4159985 ], [ 6.1614602, 10.4156251 ], [ 6.1615311, 10.4154092 ], [ 6.161822, 10.4149223 ], [ 6.1619657, 10.414806 ], [ 6.1623011, 10.4147362 ], [ 6.1626649, 10.4143552 ], [ 6.1625744, 10.4139063 ], [ 6.1622654, 10.4134037 ], [ 6.1615642, 10.4125154 ], [ 6.1617069, 10.4119544 ], [ 6.1619473, 10.411343 ], [ 6.162185, 10.4111209 ], [ 6.1624108, 10.4106359 ], [ 6.1624372, 10.4101878 ], [ 6.1622848, 10.4095933 ], [ 6.1626199, 10.4092952 ], [ 6.1629432, 10.4092111 ], [ 6.1635421, 10.4092298 ], [ 6.1641886, 10.4087248 ], [ 6.1645119, 10.4081264 ], [ 6.1642552, 10.4075186 ], [ 6.1636943, 10.4066677 ], [ 6.1636594, 10.4063248 ], [ 6.1635453, 10.4053336 ], [ 6.1629368, 10.4043798 ], [ 6.1629178, 10.403931 ], [ 6.1629302, 10.4036526 ], [ 6.16332, 10.4030915 ], [ 6.163957, 10.4017543 ], [ 6.1637945, 10.4013341 ], [ 6.1639157, 10.4010816 ], [ 6.1642865, 10.4004364 ], [ 6.1641534, 10.3999034 ], [ 6.1642009, 10.3990338 ], [ 6.1643815, 10.3986223 ], [ 6.1647048, 10.3986597 ], [ 6.165028, 10.3989496 ], [ 6.1653322, 10.3988842 ], [ 6.1656782, 10.3984964 ], [ 6.1664351, 10.3976311 ], [ 6.1665967, 10.397229 ], [ 6.1664113, 10.396677 ], [ 6.1663115, 10.3963874 ], [ 6.167671, 10.3959853 ], [ 6.168783, 10.3958238 ], [ 6.1695724, 10.395471 ], [ 6.1702855, 10.3943115 ], [ 6.1703711, 10.3937223 ], [ 6.170257, 10.3933249 ], [ 6.1699908, 10.392834 ], [ 6.1698387, 10.3924178 ], [ 6.1705802, 10.390917 ], [ 6.1715785, 10.3897738 ], [ 6.1719778, 10.3889111 ], [ 6.1722844, 10.3885043 ], [ 6.1727978, 10.3882518 ], [ 6.1736748, 10.3882028 ], [ 6.1746231, 10.3881186 ], [ 6.1751009, 10.3880625 ], [ 6.1753718, 10.387824 ], [ 6.1756428, 10.3872209 ], [ 6.175821, 10.3866808 ], [ 6.1760207, 10.3863442 ], [ 6.1762318, 10.3862944 ], [ 6.1765483, 10.3861688 ], [ 6.1768592, 10.3861681 ], [ 6.1773055, 10.3857716 ], [ 6.1772758, 10.3850702 ], [ 6.176845, 10.3848215 ], [ 6.1759982, 10.3844565 ], [ 6.175947, 10.3843695 ], [ 6.1755526, 10.3836992 ], [ 6.1749101, 10.3822477 ], [ 6.1735197, 10.3812658 ], [ 6.173099, 10.380901 ], [ 6.1728518, 10.3796292 ], [ 6.1723535, 10.3776635 ], [ 6.1723575, 10.3771043 ], [ 6.1720342, 10.3766367 ], [ 6.1712808, 10.3767103 ], [ 6.1709005, 10.376383 ], [ 6.1710193, 10.3757284 ], [ 6.1713286, 10.3752714 ], [ 6.1715185, 10.3745828 ], [ 6.1710669, 10.373671 ], [ 6.1703368, 10.3733522 ], [ 6.1701874, 10.3730632 ], [ 6.1702188, 10.3724157 ], [ 6.1697674, 10.3718687 ], [ 6.169213, 10.3713097 ], [ 6.1693793, 10.3710525 ], [ 6.1698072, 10.3708421 ], [ 6.1699022, 10.3704446 ], [ 6.1696883, 10.3697433 ], [ 6.1700924, 10.3690185 ], [ 6.1700659, 10.3675297 ], [ 6.1692605, 10.3668441 ], [ 6.169308, 10.3663532 ], [ 6.1697359, 10.3660025 ], [ 6.1705915, 10.3655115 ], [ 6.1708519, 10.3650323 ], [ 6.1705413, 10.3619836 ], [ 6.1702112, 10.3618174 ], [ 6.1697834, 10.3598301 ], [ 6.1697121, 10.3584682 ], [ 6.1721126, 10.3586611 ], [ 6.1733961, 10.3591404 ], [ 6.1759393, 10.3621915 ], [ 6.1779825, 10.3637209 ], [ 6.1805471, 10.3660059 ], [ 6.1816436, 10.3692757 ], [ 6.1815248, 10.3700706 ], [ 6.1825706, 10.3737645 ], [ 6.1842343, 10.3752608 ], [ 6.1870865, 10.3757518 ], [ 6.1912934, 10.3771546 ], [ 6.1927779, 10.3786916 ], [ 6.1945734, 10.3788612 ], [ 6.1967363, 10.3783235 ], [ 6.1990655, 10.3761259 ], [ 6.201371, 10.3747465 ], [ 6.2032962, 10.3733671 ], [ 6.2046272, 10.3725021 ], [ 6.2059107, 10.3724787 ], [ 6.2071466, 10.3730632 ], [ 6.209262, 10.3748868 ], [ 6.2113298, 10.3787911 ], [ 6.2138129, 10.3823065 ], [ 6.2152277, 10.3857578 ], [ 6.2167133, 10.3893816 ], [ 6.2181274, 10.3896505 ], [ 6.2192524, 10.3894524 ], [ 6.2193581, 10.3894338 ], [ 6.2219303, 10.385793 ], [ 6.2238665, 10.3851314 ], [ 6.2259982, 10.3845883 ], [ 6.2281285, 10.3848984 ], [ 6.2318925, 10.3864616 ], [ 6.2339801, 10.385784 ], [ 6.2356511, 10.3847976 ], [ 6.2442224, 10.4119373 ], [ 6.254454, 10.4274483 ], [ 6.2853604, 10.4141876 ], [ 6.2859065, 10.4137592 ], [ 6.2864147, 10.4137743 ], [ 6.2867731, 10.4139622 ], [ 6.2871657, 10.4144102 ], [ 6.2870136, 10.4159904 ], [ 6.2870707, 10.4165889 ], [ 6.2873939, 10.4184309 ], [ 6.287565, 10.4202636 ], [ 6.2874034, 10.4217877 ], [ 6.2866999, 10.4226292 ], [ 6.2861868, 10.4235081 ], [ 6.2870136, 10.4238167 ], [ 6.2874795, 10.4239944 ], [ 6.2887059, 10.4240411 ], [ 6.2894665, 10.4238822 ], [ 6.2914059, 10.4230967 ], [ 6.2932028, 10.4220308 ], [ 6.2946194, 10.4199924 ], [ 6.2951613, 10.4191228 ], [ 6.2957127, 10.4183 ], [ 6.2959504, 10.4180101 ], [ 6.2963021, 10.4180008 ], [ 6.2970775, 10.4181438 ], [ 6.2991923, 10.4202262 ], [ 6.3006193, 10.4223561 ], [ 6.3014179, 10.4228984 ], [ 6.3021404, 10.4231228 ], [ 6.302729, 10.4233025 ], [ 6.3037368, 10.4239768 ], [ 6.304251, 10.4246937 ], [ 6.3045743, 10.4256848 ], [ 6.3039088, 10.427611 ], [ 6.302825, 10.4293127 ], [ 6.3025017, 10.4300981 ], [ 6.3022926, 10.431351 ], [ 6.3034905, 10.4317998 ], [ 6.3093849, 10.4324917 ], [ 6.3099934, 10.4325852 ], [ 6.3106918, 10.4330549 ], [ 6.3112001, 10.4335287 ], [ 6.3170287, 10.4389619 ], [ 6.318796, 10.4396294 ], [ 6.320052, 10.44057 ], [ 6.3206604, 10.4415798 ], [ 6.3216302, 10.4435058 ], [ 6.3225429, 10.4468156 ], [ 6.3230182, 10.450518 ], [ 6.3238168, 10.4535473 ], [ 6.3225897, 10.4562437 ], [ 6.3154239, 10.4801565 ], [ 6.3270886, 10.4952077 ], [ 6.3553326, 10.5112025 ], [ 6.369829, 10.5279204 ], [ 6.3829465, 10.5404336 ], [ 6.3841444, 10.5429572 ], [ 6.3848627, 10.5464826 ], [ 6.3851895, 10.5481767 ], [ 6.3857243, 10.5492574 ], [ 6.3862977, 10.5504975 ], [ 6.3863472, 10.5506045 ], [ 6.3864671, 10.5508638 ], [ 6.3876307, 10.55207 ], [ 6.3879662, 10.5524178 ], [ 6.388205, 10.5527862 ], [ 6.3886062, 10.5534049 ], [ 6.3891588, 10.5542106 ], [ 6.3897754, 10.5550336 ], [ 6.3898243, 10.5550989 ], [ 6.3903831, 10.5555278 ], [ 6.391488, 10.5563758 ], [ 6.3918095, 10.556893 ], [ 6.3915546, 10.5587493 ], [ 6.3915418, 10.5588426 ], [ 6.3912028, 10.5613106 ], [ 6.3926826, 10.5619798 ], [ 6.3927386, 10.5620051 ], [ 6.3935901, 10.5643466 ], [ 6.3949114, 10.5658837 ], [ 6.3954384, 10.5675882 ], [ 6.397114, 10.5694457 ], [ 6.3972026, 10.5717342 ], [ 6.3972379, 10.5726436 ], [ 6.39724, 10.5726975 ], [ 6.397983, 10.5728352 ], [ 6.4024261, 10.5744223 ], [ 6.4036598, 10.5739198 ], [ 6.403806, 10.5738602 ], [ 6.4063835, 10.5728102 ], [ 6.4084157, 10.5733008 ], [ 6.4099361, 10.574988 ], [ 6.4104641, 10.5750766 ], [ 6.4124136, 10.5754342 ], [ 6.4133788, 10.5756302 ], [ 6.413443, 10.5756446 ], [ 6.4182477, 10.5765343 ], [ 6.4244234, 10.5770859 ], [ 6.426919, 10.5796793 ], [ 6.4295216, 10.5829385 ], [ 6.4312329, 10.5868986 ], [ 6.4332161, 10.5890493 ], [ 6.4335866, 10.5893271 ], [ 6.4355825, 10.5908237 ], [ 6.4359841, 10.5907102 ], [ 6.4386842, 10.5899475 ], [ 6.4418216, 10.5906484 ], [ 6.4458859, 10.5906134 ], [ 6.4465276, 10.59191 ], [ 6.4466575, 10.5942105 ], [ 6.4503751, 10.5950069 ], [ 6.4557757, 10.595733 ], [ 6.4572945, 10.5938725 ], [ 6.4598971, 10.5941879 ], [ 6.4635937, 10.5967841 ], [ 6.4692029, 10.6003352 ], [ 6.4712974, 10.6041008 ], [ 6.4724109, 10.6061027 ], [ 6.477117, 10.6080651 ], [ 6.4777615, 10.6079343 ], [ 6.480397, 10.6073993 ], [ 6.4815612, 10.6062709 ], [ 6.4829639, 10.6049113 ], [ 6.4856586, 10.6082356 ], [ 6.4864578, 10.6092215 ], [ 6.4907149, 10.6125912 ], [ 6.491728, 10.6134119 ], [ 6.4945436, 10.6156928 ], [ 6.5014595, 10.6115295 ], [ 6.5020659, 10.6111645 ], [ 6.5057092, 10.609798 ], [ 6.506598, 10.6094646 ], [ 6.5074602, 10.6089856 ], [ 6.5091717, 10.6080348 ], [ 6.5117543, 10.6066001 ], [ 6.5138268, 10.6054487 ], [ 6.5151479, 10.6041276 ], [ 6.5182966, 10.600979 ], [ 6.521684, 10.5975913 ], [ 6.5242682, 10.5950069 ], [ 6.5231506, 10.5905364 ], [ 6.5215402, 10.5840946 ], [ 6.5210557, 10.5821562 ], [ 6.5212668, 10.5784939 ], [ 6.5214078, 10.5760494 ], [ 6.5215931, 10.572835 ], [ 6.5227078, 10.5701598 ], [ 6.5244006, 10.5660969 ], [ 6.5250716, 10.5644865 ], [ 6.5261508, 10.5628078 ], [ 6.5300291, 10.5567744 ], [ 6.5323, 10.5532417 ], [ 6.5327872, 10.5527545 ], [ 6.5347328, 10.5508089 ], [ 6.5371351, 10.5484066 ], [ 6.5403318, 10.5452099 ], [ 6.5491672, 10.5452099 ], [ 6.5515895, 10.5455561 ], [ 6.5561008, 10.5469408 ], [ 6.5612149, 10.5508318 ], [ 6.5665455, 10.5534973 ], [ 6.5694008, 10.554925 ], [ 6.5740657, 10.5572577 ], [ 6.5777845, 10.5626297 ], [ 6.5812945, 10.5676994 ], [ 6.5831819, 10.5698566 ], [ 6.5869169, 10.5741243 ], [ 6.5970235, 10.5771561 ], [ 6.6029806, 10.5789433 ], [ 6.6062403, 10.5801077 ], [ 6.6107798, 10.5817289 ], [ 6.6142254, 10.5829592 ], [ 6.6181116, 10.5841885 ], [ 6.6241078, 10.5860844 ], [ 6.6305056, 10.5881071 ], [ 6.6364989, 10.5900106 ], [ 6.6470699, 10.5934296 ], [ 6.6532888, 10.592802 ], [ 6.6685686, 10.5912619 ], [ 6.6712332, 10.590869 ], [ 6.6777816, 10.5898628 ], [ 6.6808896, 10.589385 ], [ 6.6839894, 10.5897113 ], [ 6.6861806, 10.589942 ], [ 6.6959913, 10.5910473 ], [ 6.6961226, 10.5909881 ], [ 6.7004881, 10.5890198 ], [ 6.7098455, 10.5875359 ], [ 6.7258682, 10.589385 ], [ 6.7313259, 10.5964022 ], [ 6.7282715, 10.6058611 ], [ 6.7266712, 10.6086617 ], [ 6.7265755, 10.6090127 ], [ 6.7242623, 10.6176823 ], [ 6.7194379, 10.6247681 ], [ 6.7141612, 10.6341154 ], [ 6.7150358, 10.6367939 ], [ 6.7165734, 10.6415028 ], [ 6.7197802, 10.6435033 ], [ 6.7231827, 10.6424582 ], [ 6.7266377, 10.6424868 ], [ 6.7271362, 10.6423813 ], [ 6.7296073, 10.6418586 ], [ 6.7317202, 10.6421441 ], [ 6.7409392, 10.6435128 ], [ 6.7418073, 10.6438783 ], [ 6.7442286, 10.643528 ], [ 6.745325, 10.6432843 ], [ 6.7458367, 10.6427552 ], [ 6.7460537, 10.642738 ], [ 6.7462879, 10.6428408 ], [ 6.7464649, 10.6428751 ], [ 6.7467333, 10.6427666 ], [ 6.7472758, 10.6426467 ], [ 6.7474841, 10.6425431 ], [ 6.7476242, 10.642561 ], [ 6.7479611, 10.6425324 ], [ 6.7481628, 10.6425157 ], [ 6.7484274, 10.64257 ], [ 6.7486035, 10.6427223 ], [ 6.7488079, 10.6428078 ], [ 6.7494696, 10.6424548 ], [ 6.7503453, 10.6421512 ], [ 6.7510579, 10.6421387 ], [ 6.7531702, 10.6426376 ], [ 6.7539316, 10.6432924 ], [ 6.7547127, 10.6429811 ], [ 6.7563682, 10.6433685 ], [ 6.7587015, 10.6445201 ], [ 6.7598991, 10.6452779 ], [ 6.7653575, 10.6436405 ], [ 6.7748628, 10.640789 ], [ 6.7822838, 10.6396475 ], [ 6.7853041, 10.639183 ], [ 6.7949424, 10.640789 ], [ 6.7959041, 10.6410776 ], [ 6.7992296, 10.6420755 ], [ 6.8029742, 10.643199 ], [ 6.8110964, 10.6403321 ], [ 6.8144436, 10.6391506 ], [ 6.8166285, 10.6383791 ], [ 6.8191047, 10.6357479 ], [ 6.8234992, 10.6310787 ], [ 6.8294792, 10.6247253 ], [ 6.83009, 10.6149559 ], [ 6.8302827, 10.6118746 ], [ 6.8297915, 10.6045094 ], [ 6.8294792, 10.5998268 ], [ 6.8351016, 10.5958109 ], [ 6.8360686, 10.5930166 ], [ 6.838716, 10.5853691 ], [ 6.8413849, 10.5746937 ], [ 6.841929, 10.5725183 ], [ 6.8416529, 10.5672731 ], [ 6.8411255, 10.5572577 ], [ 6.839519, 10.5492258 ], [ 6.8355031, 10.537981 ], [ 6.839519, 10.5315552 ], [ 6.8443384, 10.5283432 ], [ 6.8446253, 10.5284866 ], [ 6.8491573, 10.5307522 ], [ 6.8563862, 10.537981 ], [ 6.8612051, 10.5508318 ], [ 6.8691025, 10.555357 ], [ 6.8743029, 10.5532646 ], [ 6.8820882, 10.5508318 ], [ 6.889317, 10.5468159 ], [ 6.8957329, 10.5443821 ], [ 6.9002352, 10.5426741 ], [ 6.9052567, 10.5407696 ], [ 6.9126091, 10.537981 ], [ 6.919035, 10.5307522 ], [ 6.9265908, 10.5170799 ], [ 6.9266221, 10.5170232 ], [ 6.926657, 10.5168891 ], [ 6.9266153, 10.5167487 ], [ 6.9264124, 10.5164718 ], [ 6.926364, 10.5161167 ], [ 6.9261916, 10.515718 ], [ 6.9257885, 10.5150143 ], [ 6.9255057, 10.5141199 ], [ 6.9251612, 10.5137315 ], [ 6.9245235, 10.5130938 ], [ 6.9239222, 10.5127123 ], [ 6.9236034, 10.512522 ], [ 6.9234511, 10.5122507 ], [ 6.9243049, 10.5114131 ], [ 6.9252528, 10.5113636 ], [ 6.9259221, 10.5115213 ], [ 6.9269225, 10.5115827 ], [ 6.9274602, 10.5114352 ], [ 6.9295572, 10.511147 ], [ 6.9298578, 10.5110533 ], [ 6.9300155, 10.5108828 ], [ 6.9359016, 10.5002317 ], [ 6.9479494, 10.491396 ], [ 6.9535198, 10.4821787 ], [ 6.954133, 10.4680471 ], [ 6.9543748, 10.4624815 ], [ 6.9463429, 10.4504337 ], [ 6.9383111, 10.433567 ], [ 6.9317737, 10.412594 ], [ 6.9284282, 10.4030361 ], [ 6.9230509, 10.382163 ], [ 6.924768, 10.3757238 ], [ 6.9256671, 10.3723517 ], [ 6.9262633, 10.3701153 ], [ 6.9274701, 10.3687877 ], [ 6.9302111, 10.3657722 ], [ 6.9342952, 10.3612795 ], [ 6.940587, 10.3609304 ], [ 6.9416713, 10.3608702 ], [ 6.9487529, 10.3604765 ], [ 6.9511786, 10.3607998 ], [ 6.9608006, 10.3620834 ], [ 6.9650607, 10.3627968 ], [ 6.9772139, 10.36483 ], [ 6.9862795, 10.3614559 ], [ 6.9889121, 10.3604765 ], [ 6.9911985, 10.359333 ], [ 6.996944, 10.3564606 ], [ 7.0003939, 10.3565502 ], [ 7.0033813, 10.3566275 ], [ 7.006393, 10.3561668 ], [ 7.0202365, 10.3540516 ], [ 7.024765, 10.3505888 ], [ 7.029108, 10.3472672 ], [ 7.0338907, 10.3436098 ], [ 7.0435286, 10.3267431 ], [ 7.0466285, 10.3226099 ], [ 7.0507574, 10.3171043 ], [ 7.0499544, 10.3106794 ], [ 7.0491509, 10.3010406 ], [ 7.0491248, 10.3009621 ], [ 7.0459385, 10.2914028 ], [ 7.0403161, 10.2889929 ], [ 7.0322843, 10.2873869 ], [ 7.0258589, 10.280158 ], [ 7.0246829, 10.2789821 ], [ 7.019433, 10.2737322 ], [ 7.017128, 10.2660475 ], [ 7.013609, 10.2585578 ], [ 7.010662, 10.2522855 ], [ 7.0097947, 10.2504396 ], [ 7.0095159, 10.249045 ], [ 7.009129, 10.2471094 ], [ 7.0081887, 10.2424078 ], [ 7.0033693, 10.2416048 ], [ 7.0028958, 10.2449188 ], [ 7.0025663, 10.2472277 ], [ 6.996141, 10.2448177 ], [ 6.9904952, 10.2408371 ], [ 6.9890521, 10.2390041 ], [ 6.9873056, 10.2367859 ], [ 6.984889, 10.2368145 ], [ 6.9840927, 10.2399988 ], [ 6.9824867, 10.2440147 ], [ 6.9784708, 10.2399988 ], [ 6.9746813, 10.2365882 ], [ 6.970439, 10.23277 ], [ 6.9672697, 10.2224702 ], [ 6.967226, 10.2223282 ], [ 6.9656196, 10.2150993 ], [ 6.9608006, 10.2070675 ], [ 6.9597923, 10.2040427 ], [ 6.9591942, 10.2022486 ], [ 6.9544725, 10.1919985 ], [ 6.9471464, 10.1853819 ], [ 6.947036, 10.1852714 ], [ 6.942327, 10.180563 ], [ 6.9399176, 10.180563 ], [ 6.9367051, 10.180563 ], [ 6.9326777, 10.180563 ], [ 6.9286728, 10.180563 ], [ 6.9270668, 10.1861849 ], [ 6.923635, 10.189126 ], [ 6.9214444, 10.1910038 ], [ 6.9167474, 10.1892428 ], [ 6.915019, 10.1885948 ], [ 6.9110031, 10.178956 ], [ 6.9054589, 10.170948 ], [ 6.9037743, 10.1685152 ], [ 6.9009741, 10.1652059 ], [ 6.8949389, 10.1580734 ], [ 6.8883476, 10.1531296 ], [ 6.8853011, 10.1508446 ], [ 6.8837398, 10.1344519 ], [ 6.8822638, 10.1189551 ], [ 6.8820882, 10.1171112 ], [ 6.8925295, 10.0930157 ], [ 6.9011788, 10.0763817 ], [ 6.906363, 10.077836 ], [ 6.914422, 10.077836 ], [ 6.926198, 10.0677423 ], [ 6.9404974, 10.0610132 ], [ 6.9522734, 10.047555 ], [ 6.9833956, 10.0458727 ], [ 7.0084915, 10.044805 ], [ 7.0187235, 10.0383024 ], [ 7.033864, 10.0441904 ], [ 7.0586655, 10.0428498 ], [ 7.0649867, 10.0425081 ], [ 7.0851741, 10.0366201 ], [ 7.0919032, 10.0324144 ], [ 7.1003146, 10.029891 ], [ 7.1036792, 10.0315733 ], [ 7.1053615, 10.0265265 ], [ 7.1120906, 10.0265265 ], [ 7.1230254, 10.029891 ], [ 7.1248698, 10.032965 ], [ 7.138166, 10.035779 ], [ 7.1499419, 10.0349379 ], [ 7.156671, 10.0340967 ], [ 7.1667647, 10.0332556 ], [ 7.1752385, 10.0293012 ], [ 7.1793818, 10.0273676 ], [ 7.1886344, 10.0273676 ], [ 7.2004104, 10.0332556 ], [ 7.2071395, 10.041667 ], [ 7.2138686, 10.0399847 ], [ 7.2160158, 10.0374079 ], [ 7.2221322, 10.0372601 ], [ 7.2266879, 10.0388403 ], [ 7.2290883, 10.0384207 ], [ 7.2323737, 10.0433493 ], [ 7.2407851, 10.0399847 ], [ 7.2507272, 10.0394173 ], [ 7.2540669, 10.0392265 ], [ 7.2584491, 10.0366201 ], [ 7.2646546, 10.0321875 ], [ 7.270225, 10.0282087 ], [ 7.2732434, 10.0235138 ], [ 7.2777953, 10.0164328 ], [ 7.2803187, 9.9996099 ], [ 7.2803187, 9.9890394 ], [ 7.2803187, 9.9836283 ], [ 7.2803187, 9.9735346 ], [ 7.2810755, 9.9649944 ], [ 7.2831368, 9.9605465 ], [ 7.2845244, 9.9575529 ], [ 7.2862067, 9.9499826 ], [ 7.2857652, 9.9411488 ], [ 7.2854667, 9.9351835 ], [ 7.2853656, 9.9331598 ], [ 7.2871375, 9.9260721 ], [ 7.287889, 9.9230661 ], [ 7.2892196, 9.9196447 ], [ 7.293777, 9.9079256 ], [ 7.2954593, 9.8877382 ], [ 7.2954593, 9.8814686 ], [ 7.2954593, 9.880003 ], [ 7.2954593, 9.8737263 ], [ 7.2954593, 9.8717566 ], [ 7.2965002, 9.8698483 ], [ 7.2949047, 9.8530455 ], [ 7.2929358, 9.8515682 ], [ 7.2887301, 9.8406334 ], [ 7.2910843, 9.8288631 ], [ 7.2920947, 9.8238106 ], [ 7.2929358, 9.8111935 ], [ 7.2917542, 9.8035129 ], [ 7.2912536, 9.8002586 ], [ 7.2853656, 9.7893238 ], [ 7.2786365, 9.7868004 ], [ 7.2735896, 9.7834358 ], [ 7.2677016, 9.7834358 ], [ 7.2601314, 9.7868004 ], [ 7.2567668, 9.7901649 ], [ 7.25172, 9.7943707 ], [ 7.2315326, 9.7910061 ], [ 7.2239623, 9.7876415 ], [ 7.2208371, 9.7858839 ], [ 7.2149053, 9.782547 ], [ 7.2105041, 9.7800713 ], [ 7.2075467, 9.7688999 ], [ 7.2067251, 9.7657967 ], [ 7.2065501, 9.7651353 ], [ 7.20474, 9.758296 ], [ 7.2147098, 9.7489491 ], [ 7.2222379, 9.7414209 ], [ 7.2227099, 9.7409489 ], [ 7.2560196, 9.7126266 ], [ 7.276365, 9.6899482 ], [ 7.2881539, 9.6674557 ], [ 7.2978512, 9.6488983 ], [ 7.3056471, 9.6277153 ], [ 7.29614, 9.6134676 ], [ 7.2588718, 9.5890952 ], [ 7.2457519, 9.5754084 ], [ 7.2339423, 9.5648212 ], [ 7.2484819, 9.5350116 ], [ 7.251373, 9.5210335 ], [ 7.2295184, 9.4998038 ], [ 7.2189823, 9.4926801 ], [ 7.2008966, 9.4598212 ], [ 7.2050611, 9.4441369 ], [ 7.2193853, 9.3838316 ], [ 7.2214134, 9.3752931 ], [ 7.2214836, 9.3721229 ], [ 7.2223642, 9.3323291 ], [ 7.2278783, 9.3257621 ], [ 7.2322574, 9.3177189 ], [ 7.2337271, 9.3179368 ], [ 7.235021, 9.3185083 ], [ 7.2370338, 9.3195656 ], [ 7.2493445, 9.3228428 ], [ 7.263402, 9.3265849 ], [ 7.273703, 9.3293271 ], [ 7.2897677, 9.3328463 ], [ 7.3339786, 9.3407723 ], [ 7.3535847, 9.3377715 ], [ 7.3786453, 9.3364684 ], [ 7.3606035, 9.3111675 ], [ 7.3590856, 9.3090389 ], [ 7.356728, 9.3101169 ], [ 7.3526252, 9.3069137 ], [ 7.3317654, 9.2710373 ], [ 7.3308203, 9.2694118 ], [ 7.3157839, 9.2483241 ], [ 7.2653787, 9.1776339 ], [ 7.2497568, 9.1557217 ], [ 7.2339809, 9.1335232 ], [ 7.2221416, 9.116864 ], [ 7.2210046, 9.1152643 ], [ 7.2205723, 9.114656 ], [ 7.219758, 9.1135101 ], [ 7.1793362, 9.1442459 ], [ 7.1716627, 9.1501117 ], [ 7.1676583, 9.1531181 ], [ 7.1538231, 9.1636889 ], [ 7.1428308, 9.1720875 ], [ 7.1263098, 9.1844804 ], [ 7.1044265, 9.2012497 ], [ 7.0921014, 9.2105589 ], [ 7.0690054, 9.2281172 ], [ 7.0300751, 9.2577133 ], [ 7.0152669, 9.2689705 ], [ 7.0081494, 9.269008 ], [ 6.9849551, 9.26913 ], [ 6.9537888, 9.2692941 ], [ 6.8140392, 9.2700296 ], [ 6.7982683, 9.2701126 ], [ 6.7880545, 9.2701664 ], [ 6.7870794, 9.1870497 ], [ 6.7867074, 9.1553354 ], [ 6.7850229, 9.0117219 ], [ 6.7847829, 8.9912615 ], [ 6.7837954, 8.9071075 ], [ 6.783784, 8.9070302 ], [ 6.7831129, 8.8489431 ], [ 6.7922865, 8.8402611 ], [ 6.7900634, 8.7900562 ], [ 6.7812914, 8.7439273 ], [ 6.781214, 8.6870932 ], [ 6.7811685, 8.6832125 ], [ 6.7800331, 8.5864003 ], [ 6.7799621, 8.5802781 ], [ 6.7825343, 8.5715025 ], [ 6.7845637, 8.45755 ], [ 6.7982177, 8.45755 ], [ 6.8275001, 8.45755 ], [ 6.8278899, 8.45755 ], [ 6.8278416, 8.4571635 ], [ 6.827261, 8.4525185 ], [ 6.825925, 8.441831 ], [ 6.8248298, 8.4330689 ], [ 6.8247814, 8.432682 ], [ 6.825056, 8.4324074 ], [ 6.8280913, 8.4293717 ], [ 6.8318596, 8.425603 ], [ 6.8321352, 8.4253273 ], [ 6.8321352, 8.4249396 ], [ 6.8321352, 8.4174441 ], [ 6.8321352, 8.4170542 ], [ 6.8319419, 8.416716 ], [ 6.8294465, 8.412349 ], [ 6.8249747, 8.4045235 ], [ 6.8247814, 8.4041853 ], [ 6.8251507, 8.4040622 ], [ 6.8296562, 8.4025602 ], [ 6.8308925, 8.4021486 ], [ 6.8323998, 8.4016521 ], [ 6.8325864, 8.4015872 ], [ 6.8326787, 8.401553 ], [ 6.8330545, 8.4014273 ], [ 6.8333303, 8.4011516 ], [ 6.837375, 8.3971072 ], [ 6.8376508, 8.3968315 ], [ 6.8375867, 8.396447 ], [ 6.8367955, 8.3917 ], [ 6.8367314, 8.3913155 ], [ 6.8364557, 8.3910397 ], [ 6.8341548, 8.3887391 ], [ 6.8324269, 8.3870114 ], [ 6.8321352, 8.3867197 ], [ 6.8319166, 8.38637 ], [ 6.8302333, 8.3836764 ], [ 6.8277575, 8.3797147 ], [ 6.827539, 8.379365 ], [ 6.8274604, 8.378974 ], [ 6.8274175, 8.3787799 ], [ 6.8273778, 8.3785846 ], [ 6.8271858, 8.3776053 ], [ 6.8270699, 8.3770203 ], [ 6.8266965, 8.3751534 ], [ 6.8266196, 8.3747692 ], [ 6.8264449, 8.3744197 ], [ 6.826313, 8.3741478 ], [ 6.8257786, 8.3730856 ], [ 6.8252907, 8.3721112 ], [ 6.8239618, 8.3694531 ], [ 6.8232549, 8.3680343 ], [ 6.8231201, 8.3677697 ], [ 6.8229427, 8.3674154 ], [ 6.8227075, 8.3671018 ], [ 6.8178312, 8.3605998 ], [ 6.8149937, 8.3568164 ], [ 6.8146696, 8.3563843 ], [ 6.8143496, 8.3559842 ], [ 6.814296, 8.3559166 ], [ 6.8133823, 8.354775 ], [ 6.8123634, 8.3535018 ], [ 6.8114254, 8.352335 ], [ 6.8113022, 8.3521783 ], [ 6.8112504, 8.3521097 ], [ 6.8109927, 8.3517876 ], [ 6.8108476, 8.3514248 ], [ 6.8107318, 8.3511461 ], [ 6.8101099, 8.3495815 ], [ 6.8094633, 8.3479645 ], [ 6.8081984, 8.3448009 ], [ 6.8079425, 8.3441562 ], [ 6.8076526, 8.3434173 ], [ 6.8075416, 8.3431421 ], [ 6.8074628, 8.3429625 ], [ 6.8073154, 8.3425951 ], [ 6.8069916, 8.3423793 ], [ 6.8040315, 8.3404061 ], [ 6.8024583, 8.3393583 ], [ 6.8023008, 8.3392524 ], [ 6.8018003, 8.3389187 ], [ 6.8014205, 8.3386339 ], [ 6.7947261, 8.3336132 ], [ 6.791081, 8.3308795 ], [ 6.7907691, 8.3306456 ], [ 6.7903818, 8.3306778 ], [ 6.7801487, 8.3315307 ], [ 6.7797379, 8.3315649 ], [ 6.7793898, 8.331739 ], [ 6.7767231, 8.3330721 ], [ 6.7727323, 8.3350673 ], [ 6.7723842, 8.3352413 ], [ 6.7722396, 8.33488 ], [ 6.77069, 8.3310068 ], [ 6.7705455, 8.3306456 ], [ 6.7705178, 8.3302572 ], [ 6.7700132, 8.3231906 ], [ 6.7697389, 8.3193482 ], [ 6.769656, 8.3181869 ], [ 6.7696266, 8.3177757 ], [ 6.7695081, 8.3173806 ], [ 6.7669803, 8.3089557 ], [ 6.7668686, 8.3085833 ], [ 6.7665233, 8.3084353 ], [ 6.7649732, 8.3077708 ], [ 6.7643378, 8.3075062 ], [ 6.7642745, 8.3074713 ], [ 6.7641914, 8.30743 ], [ 6.7640195, 8.3073524 ], [ 6.7627194, 8.3068032 ], [ 6.7620779, 8.3065284 ], [ 6.7611654, 8.306134 ], [ 6.7608911, 8.3060184 ], [ 6.7608128, 8.3059875 ], [ 6.7604342, 8.3058252 ], [ 6.7600466, 8.3057865 ], [ 6.7568358, 8.3054654 ], [ 6.7536129, 8.305144 ], [ 6.7529188, 8.3050775 ], [ 6.7521216, 8.3050064 ], [ 6.7519237, 8.3049869 ], [ 6.7518261, 8.3049755 ], [ 6.7517299, 8.3049623 ], [ 6.751636, 8.3049462 ], [ 6.7512412, 8.3049059 ], [ 6.7511183, 8.304537 ], [ 6.7495259, 8.2997597 ], [ 6.749403, 8.2993908 ], [ 6.7497462, 8.299206 ], [ 6.7565226, 8.2955573 ], [ 6.7610098, 8.2931411 ], [ 6.761353, 8.2929564 ], [ 6.7614171, 8.2925718 ], [ 6.7631239, 8.2823321 ], [ 6.7631917, 8.2819252 ], [ 6.7631108, 8.2815208 ], [ 6.7621354, 8.2766444 ], [ 6.7617455, 8.2746878 ], [ 6.7615176, 8.2735103 ], [ 6.7614774, 8.2733153 ], [ 6.7614556, 8.2732189 ], [ 6.7614319, 8.2731235 ], [ 6.761353, 8.2727327 ], [ 6.7610536, 8.2724832 ], [ 6.7561547, 8.2684001 ], [ 6.7558379, 8.268136 ], [ 6.7554012, 8.2678241 ], [ 6.7552755, 8.2677331 ], [ 6.7513336, 8.2649181 ], [ 6.750771, 8.264513 ], [ 6.7501288, 8.2640451 ], [ 6.7499679, 8.26393 ], [ 6.7498063, 8.2638203 ], [ 6.7497249, 8.2637694 ], [ 6.749403, 8.2635403 ], [ 6.7490341, 8.2636632 ], [ 6.7442563, 8.265256 ], [ 6.7438874, 8.265379 ], [ 6.7436472, 8.2656981 ], [ 6.7435848, 8.2657746 ], [ 6.7434629, 8.2659318 ], [ 6.7427474, 8.2668964 ], [ 6.7421487, 8.2676969 ], [ 6.7394067, 8.2713533 ], [ 6.7303327, 8.283452 ], [ 6.7300987, 8.2837639 ], [ 6.7298103, 8.2835017 ], [ 6.7202753, 8.2748336 ], [ 6.7199869, 8.2745714 ], [ 6.7273925, 8.2524488 ], [ 6.7245831, 8.2497511 ], [ 6.7181487, 8.2433167 ], [ 6.7180483, 8.24294 ], [ 6.7145723, 8.2299071 ], [ 6.7144713, 8.2295284 ], [ 6.714444, 8.2291185 ], [ 6.7139709, 8.2220214 ], [ 6.7126591, 8.2023401 ], [ 6.7126331, 8.201951 ], [ 6.7123577, 8.2016756 ], [ 6.7000553, 8.1893727 ], [ 6.6997638, 8.1890812 ], [ 6.6994452, 8.1888536 ], [ 6.6915755, 8.1832328 ], [ 6.6912584, 8.1830063 ], [ 6.6910919, 8.1833544 ], [ 6.6910425, 8.1834384 ], [ 6.6909984, 8.1835211 ], [ 6.6909551, 8.1836072 ], [ 6.6908698, 8.1837849 ], [ 6.6904036, 8.1847774 ], [ 6.6903209, 8.1849568 ], [ 6.6902739, 8.1850647 ], [ 6.6901116, 8.1854038 ], [ 6.6900665, 8.18581 ], [ 6.6890144, 8.1952788 ], [ 6.6883185, 8.2015414 ], [ 6.688273, 8.201951 ], [ 6.6881143, 8.2023317 ], [ 6.6880837, 8.2024112 ], [ 6.6880086, 8.2025954 ], [ 6.6873156, 8.204249 ], [ 6.6847876, 8.2103157 ], [ 6.6844058, 8.2112359 ], [ 6.6839513, 8.2123433 ], [ 6.6838721, 8.2125249 ], [ 6.6838304, 8.212614 ], [ 6.6836767, 8.2129812 ], [ 6.6833449, 8.2131854 ], [ 6.6831739, 8.213299 ], [ 6.6830053, 8.2134042 ], [ 6.6822379, 8.2138696 ], [ 6.6814735, 8.2143377 ], [ 6.6760674, 8.2176644 ], [ 6.6720601, 8.2201308 ], [ 6.6717267, 8.220336 ], [ 6.6714505, 8.2206121 ], [ 6.6656272, 8.226435 ], [ 6.6652918, 8.2267704 ], [ 6.665021, 8.2271089 ], [ 6.6603832, 8.2329063 ], [ 6.6582579, 8.2355629 ], [ 6.657938, 8.2359629 ], [ 6.657545, 8.2364213 ], [ 6.6446571, 8.2514571 ], [ 6.6416464, 8.2549696 ], [ 6.6413913, 8.2552671 ], [ 6.6412226, 8.2556198 ], [ 6.6314843, 8.2759819 ], [ 6.6312795, 8.2764101 ], [ 6.6310721, 8.2769077 ], [ 6.6285467, 8.2829683 ], [ 6.6268331, 8.2870807 ], [ 6.6266832, 8.2874403 ], [ 6.6263976, 8.2877055 ], [ 6.6217976, 8.2919771 ], [ 6.6140995, 8.2991256 ], [ 6.6138139, 8.2993908 ], [ 6.6136771, 8.2997555 ], [ 6.6105113, 8.3081973 ], [ 6.6084351, 8.3137336 ], [ 6.6082983, 8.3140984 ], [ 6.6080361, 8.3143868 ], [ 6.599368, 8.3239218 ], [ 6.5991058, 8.3242102 ], [ 6.5987213, 8.3242743 ], [ 6.5926541, 8.3252856 ], [ 6.588482, 8.325981 ], [ 6.5880752, 8.3260489 ], [ 6.5877147, 8.3262491 ], [ 6.5801427, 8.3304563 ], [ 6.579802, 8.3306456 ], [ 6.5795803, 8.3309659 ], [ 6.5772197, 8.3343753 ], [ 6.5726048, 8.3410406 ], [ 6.5717521, 8.342272 ], [ 6.5715284, 8.3425951 ], [ 6.5712196, 8.3429657 ], [ 6.5700123, 8.3444145 ], [ 6.5670127, 8.348014 ], [ 6.5626398, 8.3532617 ], [ 6.562336, 8.3536263 ], [ 6.5620384, 8.3540478 ], [ 6.5544869, 8.3647465 ], [ 6.55153, 8.3689358 ], [ 6.5513053, 8.3692541 ], [ 6.5509289, 8.3693554 ], [ 6.5416275, 8.3718595 ], [ 6.5277812, 8.3755872 ], [ 6.5274048, 8.3756886 ], [ 6.5271947, 8.3760168 ], [ 6.5155145, 8.3942665 ], [ 6.5150949, 8.3949222 ], [ 6.5126967, 8.3986692 ], [ 6.5124776, 8.3989979 ], [ 6.5037205, 8.4121341 ], [ 6.5035043, 8.4124584 ], [ 6.5031611, 8.4126872 ], [ 6.4988978, 8.4155294 ], [ 6.4830904, 8.4260674 ], [ 6.4819435, 8.426832 ], [ 6.4814425, 8.427166 ], [ 6.4811261, 8.4274007 ], [ 6.4532588, 8.4480766 ], [ 6.4529457, 8.4483089 ], [ 6.4528225, 8.4486784 ], [ 6.4494303, 8.4588556 ], [ 6.4492688, 8.4593401 ], [ 6.4490961, 8.4599209 ], [ 6.4490405, 8.4601064 ], [ 6.4391565, 8.4933518 ], [ 6.4323073, 8.515916 ], [ 6.4323021, 8.5159331 ], [ 6.4314575, 8.5187154 ], [ 6.4313436, 8.5190907 ], [ 6.4312607, 8.5194808 ], [ 6.4311976, 8.5197731 ], [ 6.4307228, 8.5220169 ], [ 6.4291179, 8.529583 ], [ 6.4291101, 8.5296194 ], [ 6.4249899, 8.5490428 ], [ 6.4249086, 8.5494261 ], [ 6.4247547, 8.549875 ], [ 6.4235982, 8.5532483 ], [ 6.4140049, 8.5812286 ], [ 6.4138775, 8.5816002 ], [ 6.4137353, 8.5821215 ], [ 6.4081398, 8.6026388 ], [ 6.4080372, 8.6030149 ], [ 6.4056044, 8.6119347 ], [ 6.3982506, 8.6294003 ], [ 6.3840966, 8.6442623 ], [ 6.3798656, 8.6487045 ], [ 6.3752694, 8.6615744 ], [ 6.3665402, 8.6736977 ], [ 6.3587227, 8.6845551 ], [ 6.3430958, 8.6974249 ], [ 6.3237915, 8.7130518 ], [ 6.3153198, 8.7189455 ], [ 6.302649, 8.7277603 ], [ 6.2677174, 8.7387915 ], [ 6.2465749, 8.7387915 ], [ 6.2245126, 8.7351141 ], [ 6.2085361, 8.7323751 ] ] ] } }
]
}
