{
"type": "FeatureCollection",
"name": "Kano_state_boundary",
"crs": { "type": "name", "properties": { "name": "urn:ogc:def:crs:OGC:1.3:CRS84" } },
"features": [
{ "type": "Feature", "properties": { "state_code": "KN", "state_name": "Kano", "cap_city": "Kano", "geo_zone": "NWZ" }, "geometry": { "type": "Polygon", "coordinates": [ [ [ 7.7506579, 11.3714445 ], [ 7.7504481, 11.3716776 ], [ 7.7501914, 11.3720691 ], [ 7.7494256, 11.3732526 ], [ 7.7493414, 11.3733612 ], [ 7.749505, 11.3735243 ], [ 7.7495525, 11.373734 ], [ 7.7498853, 11.3743165 ], [ 7.7502893, 11.3767515 ], [ 7.7506478, 11.3791159 ], [ 7.7503626, 11.3817256 ], [ 7.7498872, 11.3843819 ], [ 7.748984, 11.3858731 ], [ 7.7481759, 11.3875973 ], [ 7.7450385, 11.3891817 ], [ 7.7399932, 11.3913674 ], [ 7.7309483, 11.3981947 ], [ 7.7195149, 11.4087761 ], [ 7.7223487, 11.4155199 ], [ 7.7056921, 11.4260284 ], [ 7.700968, 11.4238651 ], [ 7.6966405, 11.4215571 ], [ 7.6944776, 11.4203227 ], [ 7.6947716, 11.4241269 ], [ 7.6949498, 11.4302423 ], [ 7.6952076, 11.4314901 ], [ 7.6930618, 11.4339968 ], [ 7.6931156, 11.4351839 ], [ 7.6939674, 11.4539771 ], [ 7.6934144, 11.4557593 ], [ 7.6921072, 11.4605347 ], [ 7.6894762, 11.466146 ], [ 7.6874004, 11.4696057 ], [ 7.6862677, 11.4710404 ], [ 7.6827783, 11.4757569 ], [ 7.6751709, 11.4832521 ], [ 7.6793544, 11.4921789 ], [ 7.6800509, 11.5065518 ], [ 7.6826422, 11.5106752 ], [ 7.682048, 11.5144598 ], [ 7.6822966, 11.516549 ], [ 7.6817428, 11.5178867 ], [ 7.6807975, 11.5203506 ], [ 7.6796049, 11.5237403 ], [ 7.697987, 11.5353798 ], [ 7.7002753, 11.5395627 ], [ 7.7112035, 11.5490043 ], [ 7.7168767, 11.563395 ], [ 7.7170308, 11.5639155 ], [ 7.7185399, 11.569013 ], [ 7.7168684, 11.5716712 ], [ 7.7131929, 11.5732365 ], [ 7.7111649, 11.5758693 ], [ 7.7092706, 11.5783162 ], [ 7.7068237, 11.5821838 ], [ 7.7053068, 11.5860445 ], [ 7.7049562, 11.5912955 ], [ 7.7048767, 11.5924871 ], [ 7.7068712, 11.5950218 ], [ 7.7105891, 11.5974013 ], [ 7.7150279, 11.5982391 ], [ 7.7181403, 11.5996479 ], [ 7.7214916, 11.5997178 ], [ 7.7219831, 11.6034162 ], [ 7.7282157, 11.6053679 ], [ 7.7364617, 11.6085535 ], [ 7.7395447, 11.616753 ], [ 7.7455343, 11.6194071 ], [ 7.758155, 11.6237373 ], [ 7.7668541, 11.6286262 ], [ 7.779247, 11.6300924 ], [ 7.7837575, 11.6293753 ], [ 7.786824, 11.6298243 ], [ 7.7897629, 11.6284677 ], [ 7.7915941, 11.6271187 ], [ 7.7932754, 11.6255086 ], [ 7.7965471, 11.6253599 ], [ 7.7969933, 11.6266984 ], [ 7.7969731, 11.6285082 ], [ 7.7978856, 11.630565 ], [ 7.8012609, 11.6326143 ], [ 7.805024, 11.6344316 ], [ 7.8079172, 11.6345228 ], [ 7.8108239, 11.6363649 ], [ 7.8133774, 11.6377432 ], [ 7.8143931, 11.6381495 ], [ 7.8166238, 11.6375547 ], [ 7.8201668, 11.6349089 ], [ 7.8282125, 11.6358855 ], [ 7.8304384, 11.634559 ], [ 7.831198, 11.6327957 ], [ 7.83191, 11.6322617 ], [ 7.8323878, 11.6319034 ], [ 7.8356595, 11.6319034 ], [ 7.8396749, 11.6322009 ], [ 7.841162, 11.6329445 ], [ 7.8420543, 11.6354726 ], [ 7.843244, 11.6378521 ], [ 7.8438389, 11.6397854 ], [ 7.844856, 11.6418448 ], [ 7.8478085, 11.6444442 ], [ 7.8515722, 11.6455853 ], [ 7.8524645, 11.6464776 ], [ 7.8538029, 11.6482622 ], [ 7.8558849, 11.649452 ], [ 7.8578182, 11.6497494 ], [ 7.8605891, 11.64954 ], [ 7.8631262, 11.649044 ], [ 7.8659976, 11.6488571 ], [ 7.8667766, 11.6499649 ], [ 7.8658489, 11.6513853 ], [ 7.8659976, 11.6527237 ], [ 7.8671874, 11.6542109 ], [ 7.8678952, 11.6553907 ], [ 7.8689571, 11.6570646 ], [ 7.8698643, 11.658375 ], [ 7.8709053, 11.6592672 ], [ 7.8716204, 11.658895 ], [ 7.8726899, 11.6585237 ], [ 7.8736463, 11.6575672 ], [ 7.8752639, 11.6563501 ], [ 7.878936, 11.6543596 ], [ 7.8817616, 11.653616 ], [ 7.8851561, 11.6539442 ], [ 7.8891974, 11.6551032 ], [ 7.8917256, 11.6549545 ], [ 7.8933614, 11.6534673 ], [ 7.8956717, 11.650914 ], [ 7.8970265, 11.6488887 ], [ 7.901047, 11.649647 ], [ 7.902303, 11.6532185 ], [ 7.9009482, 11.6615286 ], [ 7.8928909, 11.6647409 ], [ 7.8918926, 11.6675341 ], [ 7.8968839, 11.6730507 ], [ 7.8976682, 11.6745171 ], [ 7.8965987, 11.6756344 ], [ 7.894443, 11.6789821 ], [ 7.8953152, 11.6833 ], [ 7.8935316, 11.6870974 ], [ 7.8916074, 11.6910661 ], [ 7.8923917, 11.6924625 ], [ 7.8944595, 11.692672 ], [ 7.8960985, 11.6943592 ], [ 7.8965976, 11.6966634 ], [ 7.8949577, 11.6983391 ], [ 7.8936029, 11.7001545 ], [ 7.8922962, 11.702261 ], [ 7.8883264, 11.7072065 ], [ 7.8865918, 11.7077536 ], [ 7.8825508, 11.7083934 ], [ 7.8805543, 11.7093011 ], [ 7.8778447, 11.711256 ], [ 7.8772746, 11.7123374 ], [ 7.8768465, 11.7180983 ], [ 7.8753451, 11.7212723 ], [ 7.8708789, 11.7337951 ], [ 7.8691806, 11.7385566 ], [ 7.8675017, 11.7432637 ], [ 7.8690466, 11.7455326 ], [ 7.8694031, 11.7500121 ], [ 7.8676205, 11.7564113 ], [ 7.8608467, 11.7619959 ], [ 7.8605825, 11.7679928 ], [ 7.8593295, 11.777216 ], [ 7.857506, 11.7949432 ], [ 7.8549752, 11.8019025 ], [ 7.8555321, 11.8109368 ], [ 7.8553231, 11.8172553 ], [ 7.8530009, 11.8243443 ], [ 7.8544732, 11.8323024 ], [ 7.8549188, 11.833262 ], [ 7.852334, 11.8359954 ], [ 7.855178, 11.8425236 ], [ 7.8555844, 11.8456234 ], [ 7.8603618, 11.8634879 ], [ 7.8651053, 11.873463 ], [ 7.8628416, 11.8742466 ], [ 7.8598724, 11.8768633 ], [ 7.8553689, 11.8814963 ], [ 7.8482096, 11.8861293 ], [ 7.84769, 11.8933413 ], [ 7.843712, 11.9019466 ], [ 7.8295268, 11.9220496 ], [ 7.8286425, 11.9309384 ], [ 7.8286495, 11.9388948 ], [ 7.8279867, 11.942976 ], [ 7.8262163, 11.9533294 ], [ 7.8317985, 11.9639925 ], [ 7.8333958, 11.9697403 ], [ 7.8293491, 11.9686467 ], [ 7.8346769, 11.9801906 ], [ 7.8448, 11.995 ], [ 7.855597, 12.0002312 ], [ 7.8567056, 12.0012279 ], [ 7.858478, 12.0041266 ], [ 7.8597359, 12.008163 ], [ 7.8629914, 12.0176964 ], [ 7.8655785, 12.0213919 ], [ 7.8698658, 12.027516 ], [ 7.8797908, 12.0443407 ], [ 7.87771, 12.0501611 ], [ 7.8757369, 12.0616 ], [ 7.8756421, 12.0650835 ], [ 7.8723622, 12.0756821 ], [ 7.8682251, 12.0826333 ], [ 7.8699364, 12.0863983 ], [ 7.8698175, 12.0902099 ], [ 7.8670367, 12.0930685 ], [ 7.8671793, 12.0947418 ], [ 7.869, 12.0955 ], [ 7.869461, 12.0963454 ], [ 7.8673219, 12.1013652 ], [ 7.8676159, 12.1042238 ], [ 7.8691758, 12.1070821 ], [ 7.8698175, 12.1096617 ], [ 7.8713177, 12.1128372 ], [ 7.8708871, 12.1143327 ], [ 7.8696036, 12.1155179 ], [ 7.8663236, 12.1174002 ], [ 7.8642114, 12.1183306 ], [ 7.8632171, 12.1216087 ], [ 7.8631863, 12.1319703 ], [ 7.8648392, 12.1349437 ], [ 7.865468, 12.139987 ], [ 7.8627852, 12.1410359 ], [ 7.8594785, 12.1443786 ], [ 7.8571254, 12.1451454 ], [ 7.8552002, 12.1470972 ], [ 7.8552675, 12.1501235 ], [ 7.8565985, 12.1507741 ], [ 7.8542217, 12.1551423 ], [ 7.8543201, 12.1566666 ], [ 7.8585421, 12.1593371 ], [ 7.8599775, 12.1629175 ], [ 7.8596286, 12.169507 ], [ 7.855838, 12.1727905 ], [ 7.8555085, 12.1767674 ], [ 7.859509, 12.1787976 ], [ 7.8601745, 12.1825613 ], [ 7.8616481, 12.1892058 ], [ 7.8609801, 12.1933073 ], [ 7.8628841, 12.197151 ], [ 7.8642626, 12.2015185 ], [ 7.8641873, 12.2072715 ], [ 7.8644027, 12.2096852 ], [ 7.8683283, 12.214145 ], [ 7.8695701, 12.2159516 ], [ 7.8707585, 12.2199471 ], [ 7.8707844, 12.2237299 ], [ 7.867523, 12.2265723 ], [ 7.8658644, 12.2291654 ], [ 7.8631549, 12.23258 ], [ 7.8674616, 12.2339394 ], [ 7.8764047, 12.2352413 ], [ 7.8764535, 12.2357532 ], [ 7.8781365, 12.2534248 ], [ 7.8736764, 12.2606461 ], [ 7.8701415, 12.2663691 ], [ 7.8645375, 12.2806802 ], [ 7.8769626, 12.2895763 ], [ 7.8850038, 12.2985213 ], [ 7.8866479, 12.3098188 ], [ 7.8923544, 12.3302649 ], [ 7.9027291, 12.3324752 ], [ 7.9185619, 12.3358483 ], [ 7.9226051, 12.3367097 ], [ 7.9336936, 12.3444401 ], [ 7.9448768, 12.3492343 ], [ 7.9503568, 12.3587664 ], [ 7.9518796, 12.3588616 ], [ 7.953523, 12.3581809 ], [ 7.9557819, 12.3595278 ], [ 7.9568289, 12.3617169 ], [ 7.9599698, 12.3631446 ], [ 7.961683, 12.3645723 ], [ 7.9626348, 12.364953 ], [ 7.9652998, 12.3644771 ], [ 7.967013, 12.3659048 ], [ 7.9677697, 12.3645055 ], [ 7.96806, 12.3627639 ], [ 7.9691069, 12.3630494 ], [ 7.9714938, 12.3654739 ], [ 7.9724382, 12.3685698 ], [ 7.9736184, 12.3694806 ], [ 7.9757854, 12.371153 ], [ 7.979291, 12.3721865 ], [ 7.9807187, 12.3728528 ], [ 7.9805283, 12.3749467 ], [ 7.9811946, 12.3753274 ], [ 7.9828126, 12.3749467 ], [ 7.9825271, 12.3724721 ], [ 7.9837644, 12.371901 ], [ 7.9861439, 12.3728528 ], [ 7.987286, 12.3727576 ], [ 7.987626, 12.3747706 ], [ 7.9891896, 12.3758033 ], [ 7.992616, 12.3804671 ], [ 7.9933774, 12.3813237 ], [ 7.9954714, 12.3818947 ], [ 7.9971335, 12.3829495 ], [ 7.9988436, 12.3840957 ], [ 7.998993, 12.3866537 ], [ 7.9992785, 12.3888428 ], [ 8.0007419, 12.3896518 ], [ 8.001499, 12.3908033 ], [ 8.0012772, 12.392174 ], [ 8.0024194, 12.3936017 ], [ 8.0130447, 12.3947128 ], [ 8.0302484, 12.3954028 ], [ 8.0335712, 12.4043651 ], [ 8.0479431, 12.4126372 ], [ 8.0551685, 12.4171877 ], [ 8.0770237, 12.4174767 ], [ 8.0772023, 12.4174888 ], [ 8.0786519, 12.4175155 ], [ 8.1081604, 12.4163658 ], [ 8.130166, 12.4411506 ], [ 8.1486182, 12.4396494 ], [ 8.155836, 12.4405357 ], [ 8.1567397, 12.4403005 ], [ 8.1587826, 12.4473244 ], [ 8.164964, 12.4514135 ], [ 8.162165, 12.4623929 ], [ 8.1628951, 12.4744828 ], [ 8.1688088, 12.4817463 ], [ 8.1714136, 12.4914843 ], [ 8.1716811, 12.4925364 ], [ 8.1721327, 12.4932093 ], [ 8.1730359, 12.4934414 ], [ 8.1737727, 12.4936966 ], [ 8.1742956, 12.4942071 ], [ 8.1750324, 12.4948105 ], [ 8.175793, 12.4957155 ], [ 8.1768124, 12.496471 ], [ 8.1783115, 12.4962177 ], [ 8.1789779, 12.4964348 ], [ 8.1799762, 12.4976879 ], [ 8.1807605, 12.4990105 ], [ 8.1816161, 12.5000083 ], [ 8.1826619, 12.5011686 ], [ 8.183684, 12.5017719 ], [ 8.1850625, 12.5020735 ], [ 8.1857042, 12.5021431 ], [ 8.1861796, 12.502468 ], [ 8.1863222, 12.503257 ], [ 8.1865836, 12.5036746 ], [ 8.1872967, 12.5039995 ], [ 8.1882236, 12.5044636 ], [ 8.1903865, 12.5051829 ], [ 8.1896022, 12.5060415 ], [ 8.188081, 12.5070392 ], [ 8.187059, 12.5077121 ], [ 8.1862271, 12.5079674 ], [ 8.1851813, 12.507805 ], [ 8.184397, 12.5073409 ], [ 8.1835176, 12.5066216 ], [ 8.1827332, 12.5075033 ], [ 8.1820677, 12.5083618 ], [ 8.182044, 12.5092668 ], [ 8.1813547, 12.5095916 ], [ 8.1806892, 12.5099165 ], [ 8.1801901, 12.5102181 ], [ 8.1798335, 12.5107054 ], [ 8.1805466, 12.5112855 ], [ 8.180808, 12.5119816 ], [ 8.1809506, 12.5127241 ], [ 8.1809031, 12.5133738 ], [ 8.1804822, 12.5140024 ], [ 8.1802138, 12.5144876 ], [ 8.1796149, 12.5149198 ], [ 8.1792096, 12.5154679 ], [ 8.1788823, 12.5161504 ], [ 8.1785976, 12.5169007 ], [ 8.1782411, 12.5175272 ], [ 8.1781816, 12.5180626 ], [ 8.1776231, 12.5181537 ], [ 8.1771478, 12.5179448 ], [ 8.1765298, 12.5175272 ], [ 8.1759594, 12.5173648 ], [ 8.1754875, 12.517471 ], [ 8.1751988, 12.5177128 ], [ 8.1748314, 12.5184806 ], [ 8.1745571, 12.5189426 ], [ 8.1743431, 12.5195458 ], [ 8.1748185, 12.5201306 ], [ 8.1752939, 12.5205018 ], [ 8.1756431, 12.5208504 ], [ 8.1756979, 12.5215691 ], [ 8.1755553, 12.52259 ], [ 8.1757692, 12.5234253 ], [ 8.1762125, 12.524271 ], [ 8.1763872, 12.5250263 ], [ 8.1769339, 12.5255831 ], [ 8.1773141, 12.5260472 ], [ 8.1776469, 12.5266969 ], [ 8.177837, 12.5273233 ], [ 8.1774226, 12.5278809 ], [ 8.1768863, 12.5282746 ], [ 8.1764414, 12.5289624 ], [ 8.1760069, 12.5295786 ], [ 8.1759594, 12.5302282 ], [ 8.176197, 12.5307386 ], [ 8.1767126, 12.531071 ], [ 8.1772904, 12.5315739 ], [ 8.177742, 12.532154 ], [ 8.1779559, 12.5327572 ], [ 8.1778133, 12.5333372 ], [ 8.1775756, 12.5338709 ], [ 8.1771478, 12.5343581 ], [ 8.1766486, 12.5346829 ], [ 8.1760544, 12.5350773 ], [ 8.1757777, 12.5357547 ], [ 8.1756741, 12.5362374 ], [ 8.1756266, 12.5369567 ], [ 8.1758168, 12.5373975 ], [ 8.1761733, 12.5377455 ], [ 8.1767348, 12.5378212 ], [ 8.176977, 12.5383441 ], [ 8.1768603, 12.5395173 ], [ 8.1770874, 12.540371 ], [ 8.1767768, 12.5415686 ], [ 8.1766266, 12.5424969 ], [ 8.1772272, 12.5435229 ], [ 8.1779279, 12.5450081 ], [ 8.1776777, 12.5458875 ], [ 8.1783784, 12.5465226 ], [ 8.1786286, 12.5475974 ], [ 8.1793293, 12.5488676 ], [ 8.1792292, 12.549747 ], [ 8.1792292, 12.5508707 ], [ 8.1792426, 12.5521208 ], [ 8.1805806, 12.5529714 ], [ 8.1803804, 12.5538508 ], [ 8.179688, 12.5547278 ], [ 8.1807808, 12.5570067 ], [ 8.1812312, 12.5580815 ], [ 8.1808809, 12.5591562 ], [ 8.1812112, 12.5605345 ], [ 8.1813503, 12.5617413 ], [ 8.1808308, 12.5624293 ], [ 8.1802302, 12.5630156 ], [ 8.179866, 12.5640881 ], [ 8.1947536, 12.5676073 ], [ 8.2282763, 12.5847341 ], [ 8.2323549, 12.584922 ], [ 8.236084, 12.5912059 ], [ 8.2461996, 12.5944157 ], [ 8.2562899, 12.5962124 ], [ 8.2788003, 12.604604 ], [ 8.2886126, 12.5998581 ], [ 8.2900572, 12.5887953 ], [ 8.2946257, 12.5766505 ], [ 8.2961486, 12.5656098 ], [ 8.2968397, 12.5621541 ], [ 8.2983964, 12.5531381 ], [ 8.299575, 12.5452416 ], [ 8.3008381, 12.5380839 ], [ 8.3012489, 12.5360814 ], [ 8.3004135, 12.5354843 ], [ 8.2983282, 12.534314 ], [ 8.297088, 12.5336125 ], [ 8.2990413, 12.5295344 ], [ 8.3000395, 12.527191 ], [ 8.3028689, 12.5281843 ], [ 8.305414, 12.5228865 ], [ 8.3076399, 12.5168172 ], [ 8.3111438, 12.5076792 ], [ 8.3204096, 12.5046049 ], [ 8.3287097, 12.5015962 ], [ 8.3354199, 12.4991637 ], [ 8.3449149, 12.4891233 ], [ 8.3450345, 12.4890075 ], [ 8.3453047, 12.4887613 ], [ 8.3546794, 12.4796702 ], [ 8.3582402, 12.4379144 ], [ 8.365614, 12.4317051 ], [ 8.3657741, 12.4327126 ], [ 8.3660368, 12.4339461 ], [ 8.3668248, 12.4337748 ], [ 8.3671675, 12.4356593 ], [ 8.3715647, 12.4349626 ], [ 8.3726031, 12.4359337 ], [ 8.3768819, 12.4356157 ], [ 8.379512, 12.4423944 ], [ 8.3812946, 12.4449475 ], [ 8.3838496, 12.4479647 ], [ 8.3848597, 12.4503436 ], [ 8.3848597, 12.4515621 ], [ 8.3848597, 12.453883 ], [ 8.3846221, 12.4559138 ], [ 8.3846815, 12.4571902 ], [ 8.3850974, 12.4591049 ], [ 8.3855728, 12.4631083 ], [ 8.3859887, 12.4642107 ], [ 8.3866423, 12.465255 ], [ 8.3867612, 12.4665895 ], [ 8.3873554, 12.4676918 ], [ 8.387296, 12.4686781 ], [ 8.3874148, 12.4703026 ], [ 8.3890786, 12.4708828 ], [ 8.3916336, 12.4712309 ], [ 8.3939748, 12.4716603 ], [ 8.3961614, 12.4725885 ], [ 8.3973023, 12.4748164 ], [ 8.3972072, 12.4777869 ], [ 8.3972785, 12.4815579 ], [ 8.3978727, 12.4832404 ], [ 8.3989423, 12.4842266 ], [ 8.4002495, 12.4852709 ], [ 8.402151, 12.4870693 ], [ 8.4036959, 12.4886937 ], [ 8.4056567, 12.4920005 ], [ 8.4079741, 12.4958874 ], [ 8.4094596, 12.4993681 ], [ 8.4102488, 12.5046956 ], [ 8.4284703, 12.5355524 ], [ 8.4327999, 12.5428086 ], [ 8.4515739, 12.5742703 ], [ 8.4584273, 12.5869069 ], [ 8.4818331, 12.5969922 ], [ 8.488668, 12.6005008 ], [ 8.4924328, 12.6018926 ], [ 8.4932884, 12.6010575 ], [ 8.4943723, 12.597105 ], [ 8.4959695, 12.5943771 ], [ 8.5077204, 12.5952679 ], [ 8.5319741, 12.6007404 ], [ 8.5430317, 12.601567 ], [ 8.5560186, 12.6025775 ], [ 8.5998162, 12.5971489 ], [ 8.6112248, 12.594588 ], [ 8.6245237, 12.594428 ], [ 8.6323336, 12.5937214 ], [ 8.6407475, 12.5929965 ], [ 8.6486676, 12.5835095 ], [ 8.6480652, 12.5752115 ], [ 8.6469112, 12.5679846 ], [ 8.64619, 12.5635849 ], [ 8.6457446, 12.5598269 ], [ 8.6608197, 12.5588648 ], [ 8.6831745, 12.5619311 ], [ 8.6895779, 12.5693161 ], [ 8.691922, 12.5722098 ], [ 8.7135445, 12.5677675 ], [ 8.7191162, 12.5665903 ], [ 8.7299837, 12.5591054 ], [ 8.7354491, 12.553347 ], [ 8.7375761, 12.5509705 ], [ 8.7281505, 12.5460036 ], [ 8.721849, 12.5400269 ], [ 8.7181065, 12.537965 ], [ 8.7144784, 12.5235025 ], [ 8.7103981, 12.5139992 ], [ 8.7049799, 12.5024589 ], [ 8.7001, 12.4986 ], [ 8.6978873, 12.4960943 ], [ 8.6970878, 12.4951047 ], [ 8.6932136, 12.4945843 ], [ 8.6874871, 12.482754 ], [ 8.6885569, 12.4684685 ], [ 8.6988539, 12.4545779 ], [ 8.6978581, 12.4514207 ], [ 8.6961032, 12.4466915 ], [ 8.6955309, 12.444803 ], [ 8.6955678, 12.4428249 ], [ 8.7018238, 12.4313209 ], [ 8.7034712, 12.429728 ], [ 8.7048973, 12.427314 ], [ 8.705753, 12.4250858 ], [ 8.7098854, 12.4159427 ], [ 8.713192, 12.417972 ], [ 8.7294797, 12.4254982 ], [ 8.7333806, 12.4234119 ], [ 8.7386979, 12.4172368 ], [ 8.7574242, 12.4212661 ], [ 8.7638445, 12.4199313 ], [ 8.7641314, 12.4195145 ], [ 8.7740435, 12.4033438 ], [ 8.7804431, 12.3871347 ], [ 8.7850071, 12.3926088 ], [ 8.7854283, 12.391578 ], [ 8.789, 12.3884 ], [ 8.7920597, 12.3855096 ], [ 8.7938, 12.3837 ], [ 8.795099, 12.3823006 ], [ 8.7945867, 12.3815273 ], [ 8.7934227, 12.3797703 ], [ 8.7911062, 12.3774405 ], [ 8.7864952, 12.37047 ], [ 8.7829576, 12.3662047 ], [ 8.7800275, 12.3411989 ], [ 8.7556305, 12.3439937 ], [ 8.7468644, 12.3319836 ], [ 8.7518082, 12.3285999 ], [ 8.7402334, 12.3157997 ], [ 8.7340369, 12.3058633 ], [ 8.725051, 12.3054909 ], [ 8.7248849, 12.302978 ], [ 8.724457, 12.3023046 ], [ 8.7241956, 12.3010738 ], [ 8.7235408, 12.2948033 ], [ 8.7280573, 12.2948148 ], [ 8.7316485, 12.2948061 ], [ 8.732797, 12.2945456 ], [ 8.7332893, 12.2943828 ], [ 8.7342723, 12.2943793 ], [ 8.7583404, 12.2934226 ], [ 8.7611073, 12.2876736 ], [ 8.7703319, 12.279249 ], [ 8.7746054, 12.2753549 ], [ 8.7879304, 12.2772585 ], [ 8.816008, 12.3020048 ], [ 8.8251451, 12.3023856 ], [ 8.8396232, 12.3081954 ], [ 8.8722491, 12.303997 ], [ 8.9054238, 12.3023008 ], [ 8.9098961, 12.3009879 ], [ 8.9115357, 12.2848709 ], [ 8.9134244, 12.2784885 ], [ 8.9174625, 12.2662737 ], [ 8.9205172, 12.266662 ], [ 8.9352135, 12.2310434 ], [ 8.9344, 12.2146 ], [ 8.9404497, 12.206936 ], [ 8.9437695, 12.2018134 ], [ 8.9445378, 12.1961103 ], [ 8.9522377, 12.1853319 ], [ 8.9521996, 12.1825155 ], [ 8.9506266, 12.1685557 ], [ 8.9466374, 12.1627632 ], [ 8.9431772, 12.1546281 ], [ 8.9420131, 12.1534461 ], [ 8.9312247, 12.155208 ], [ 8.9305401, 12.1479027 ], [ 8.9357881, 12.1420473 ], [ 8.9394771, 12.132868 ], [ 8.9397098, 12.1323378 ], [ 8.9391781, 12.1315423 ], [ 8.9387859, 12.13088 ], [ 8.938572, 12.1301481 ], [ 8.9386789, 12.1289978 ], [ 8.9389285, 12.127743 ], [ 8.9390355, 12.1265927 ], [ 8.9387859, 12.1256167 ], [ 8.9387146, 12.1247105 ], [ 8.9388928, 12.1237693 ], [ 8.9390431, 12.1226511 ], [ 8.9386076, 12.1216431 ], [ 8.9380303, 12.1209593 ], [ 8.9372885, 12.1200396 ], [ 8.9365755, 12.1191334 ], [ 8.9382868, 12.116031 ], [ 8.9384396, 12.1137791 ], [ 8.9364527, 12.1132587 ], [ 8.9340457, 12.1128364 ], [ 8.927834, 12.1103627 ], [ 8.9269, 12.1009 ], [ 8.9252236, 12.0963211 ], [ 8.9226584, 12.0912728 ], [ 8.915, 12.0762 ], [ 8.9239084, 12.0748308 ], [ 8.9457019, 12.0723076 ], [ 8.9488232, 12.0754605 ], [ 8.9573797, 12.0785284 ], [ 8.9628701, 12.0811625 ], [ 8.9665066, 12.0826422 ], [ 8.9724961, 12.0843582 ], [ 8.9779865, 12.0838275 ], [ 8.9819839, 12.0817702 ], [ 8.9850737, 12.0797947 ], [ 8.985945, 12.0744632 ], [ 8.9868563, 12.0706722 ], [ 8.9884682, 12.0684181 ], [ 8.9959551, 12.0644435 ], [ 9.0037272, 12.0629095 ], [ 9.0073884, 12.0627425 ], [ 9.0097924, 12.0641061 ], [ 9.0111515, 12.0662333 ], [ 9.0119315, 12.0685803 ], [ 9.0136547, 12.0696263 ], [ 9.0144866, 12.0699168 ], [ 9.0160599, 12.0695051 ], [ 9.0437865, 12.0757157 ], [ 9.0466386, 12.0740307 ], [ 9.0535908, 12.0739145 ], [ 9.0740855, 12.0735339 ], [ 9.0764702, 12.0604359 ], [ 9.0771452, 12.0596248 ], [ 9.0770072, 12.0584544 ], [ 9.0774826, 12.0559906 ], [ 9.0777678, 12.0539451 ], [ 9.0781006, 12.0516672 ], [ 9.0780055, 12.050319 ], [ 9.0777678, 12.0490174 ], [ 9.0779104, 12.0477622 ], [ 9.0780055, 12.046228 ], [ 9.0795742, 12.0461351 ], [ 9.0815211, 12.0461999 ], [ 9.0831301, 12.040567 ], [ 9.0837176, 12.0385594 ], [ 9.0829968, 12.0376739 ], [ 9.0824739, 12.0365581 ], [ 9.082664, 12.0345125 ], [ 9.0828066, 12.0327923 ], [ 9.0831394, 12.0314906 ], [ 9.0846941, 12.0274269 ], [ 9.0953086, 12.0239123 ], [ 9.0983033, 12.0229359 ], [ 9.1118035, 12.0282361 ], [ 9.1309818, 12.0345579 ], [ 9.1333395, 12.0353128 ], [ 9.1442728, 12.0261888 ], [ 9.1489437, 12.0193735 ], [ 9.1519379, 12.0276417 ], [ 9.1501553, 12.0311286 ], [ 9.146709, 12.0372887 ], [ 9.1454612, 12.0393807 ], [ 9.1454017, 12.041589 ], [ 9.1477191, 12.0455406 ], [ 9.147531, 12.0482286 ], [ 9.1492046, 12.0505963 ], [ 9.1528292, 12.0548383 ], [ 9.1562958, 12.0675327 ], [ 9.1722858, 12.0798107 ], [ 9.181874, 12.0854387 ], [ 9.1878404, 12.0854101 ], [ 9.1937824, 12.0845967 ], [ 9.1987125, 12.0827903 ], [ 9.1991869, 12.081564 ], [ 9.1991198, 12.080152 ], [ 9.1991193, 12.080119 ], [ 9.1991188, 12.080086 ], [ 9.1991184, 12.080053 ], [ 9.1991181, 12.0800201 ], [ 9.1991178, 12.0799871 ], [ 9.1991175, 12.0799541 ], [ 9.1991173, 12.0799164 ], [ 9.1991171, 12.0798787 ], [ 9.199117, 12.079841 ], [ 9.1991169, 12.0798033 ], [ 9.199117, 12.0797656 ], [ 9.1991171, 12.0797279 ], [ 9.1991172, 12.0796949 ], [ 9.1991174, 12.0796619 ], [ 9.1991176, 12.0796289 ], [ 9.1991179, 12.0795959 ], [ 9.1991182, 12.0795629 ], [ 9.1991185, 12.07953 ], [ 9.1991189, 12.0795017 ], [ 9.1991192, 12.0794781 ], [ 9.1991197, 12.0794451 ], [ 9.19912, 12.0794263 ], [ 9.1991203, 12.0794074 ], [ 9.1991207, 12.0793886 ], [ 9.199121, 12.0793698 ], [ 9.1991214, 12.0793509 ], [ 9.1991218, 12.0793321 ], [ 9.1991222, 12.0793132 ], [ 9.1991226, 12.0792944 ], [ 9.199123, 12.0792755 ], [ 9.1991237, 12.0792473 ], [ 9.1991244, 12.079219 ], [ 9.1991252, 12.0791907 ], [ 9.1991269, 12.0791295 ], [ 9.1991288, 12.0790683 ], [ 9.1991309, 12.079007 ], [ 9.1991332, 12.0789458 ], [ 9.1991356, 12.0788846 ], [ 9.1991382, 12.0788234 ], [ 9.1992382, 12.0765234 ], [ 9.1993289, 12.0752544 ], [ 9.1995007, 12.0739371 ], [ 9.1998673, 12.0721345 ], [ 9.2004169, 12.0683 ], [ 9.2139678, 12.0541124 ], [ 9.2185127, 12.0405 ], [ 9.2194014, 12.0366574 ], [ 9.2199006, 12.0340423 ], [ 9.2203284, 12.0320897 ], [ 9.2210414, 12.0305903 ], [ 9.2217188, 12.029614 ], [ 9.222931, 12.0281495 ], [ 9.2239649, 12.0262317 ], [ 9.2279652, 12.014366 ], [ 9.2230181, 11.9896091 ], [ 9.2109302, 11.975583 ], [ 9.209207, 11.9719791 ], [ 9.2079433, 11.9707248 ], [ 9.2051664, 11.9679683 ], [ 9.204394, 11.9658175 ], [ 9.2032056, 11.9644806 ], [ 9.2010461, 11.9619469 ], [ 9.2070146, 11.9565047 ], [ 9.2074556, 11.9463018 ], [ 9.207529, 11.9388318 ], [ 9.2070322, 11.9242406 ], [ 9.2045366, 11.9162872 ], [ 9.2026976, 11.9107693 ], [ 9.202028, 11.9046822 ], [ 9.2047242, 11.9050207 ], [ 9.2061053, 11.905194 ], [ 9.22655, 11.9088213 ], [ 9.2292026, 11.9010516 ], [ 9.2300003, 11.8946583 ], [ 9.2260281, 11.8933132 ], [ 9.2221658, 11.8909874 ], [ 9.2202049, 11.8879639 ], [ 9.212387, 11.8789854 ], [ 9.2155886, 11.8755552 ], [ 9.2123333, 11.8685964 ], [ 9.2060229, 11.8633978 ], [ 9.1982863, 11.8611794 ], [ 9.1965911, 11.8513 ], [ 9.1957194, 11.8484323 ], [ 9.1901927, 11.8376211 ], [ 9.1870672, 11.8345805 ], [ 9.1740449, 11.8292462 ], [ 9.1522982, 11.8294784 ], [ 9.1439349, 11.826556 ], [ 9.1422986, 11.8185142 ], [ 9.1389076, 11.7936994 ], [ 9.1403582, 11.7888523 ], [ 9.1415639, 11.7866655 ], [ 9.1427133, 11.7727691 ], [ 9.1482148, 11.7655526 ], [ 9.1415022, 11.7593646 ], [ 9.1528952, 11.74942 ], [ 9.1571595, 11.7415362 ], [ 9.1573635, 11.719223 ], [ 9.1657192, 11.7065722 ], [ 9.1712193, 11.7026191 ], [ 9.1727814, 11.7027008 ], [ 9.1742819, 11.7027794 ], [ 9.1777642, 11.7046871 ], [ 9.1826057, 11.7073394 ], [ 9.1821424, 11.7090074 ], [ 9.1817803, 11.7100199 ], [ 9.1844872, 11.7112072 ], [ 9.18632, 11.7116765 ], [ 9.1873069, 11.7118698 ], [ 9.1886657, 11.7128178 ], [ 9.1892932, 11.713637 ], [ 9.1902914, 11.7151544 ], [ 9.1904195, 11.7152402 ], [ 9.1908618, 11.7155361 ], [ 9.1911708, 11.7158805 ], [ 9.1915987, 11.7165508 ], [ 9.1921263, 11.7171792 ], [ 9.1929656, 11.7205734 ], [ 9.202529, 11.7304945 ], [ 9.2088643, 11.7318237 ], [ 9.2257546, 11.73574 ], [ 9.2363124, 11.7187875 ], [ 9.2464271, 11.702378 ], [ 9.24888, 11.6966804 ], [ 9.2485948, 11.6902008 ], [ 9.243702, 11.6897127 ], [ 9.2435099, 11.6837507 ], [ 9.2436482, 11.6827181 ], [ 9.2448229, 11.6793242 ], [ 9.2445672, 11.6784531 ], [ 9.2429646, 11.6786339 ], [ 9.2368266, 11.6793261 ], [ 9.2339438, 11.6796512 ], [ 9.2330018, 11.6766377 ], [ 9.2339716, 11.6755763 ], [ 9.2333441, 11.6731184 ], [ 9.2352412, 11.6726318 ], [ 9.2335132, 11.6630599 ], [ 9.2375718, 11.6618997 ], [ 9.2411703, 11.657135 ], [ 9.2413987, 11.6453554 ], [ 9.2544688, 11.6427005 ], [ 9.2739911, 11.6441089 ], [ 9.2777523, 11.6387413 ], [ 9.2688035, 11.6317054 ], [ 9.2675385, 11.6309882 ], [ 9.2691424, 11.6271381 ], [ 9.2795994, 11.6160566 ], [ 9.2819072, 11.6130941 ], [ 9.284308, 11.6112929 ], [ 9.2855152, 11.6102864 ], [ 9.2900361, 11.6068378 ], [ 9.296989, 11.6001715 ], [ 9.3116954, 11.588821 ], [ 9.3189729, 11.5806341 ], [ 9.3273606, 11.5771113 ], [ 9.3536853, 11.5724817 ], [ 9.3547885, 11.5694 ], [ 9.3603115, 11.5608175 ], [ 9.3528396, 11.5481214 ], [ 9.3432017, 11.531744 ], [ 9.3305057, 11.5166361 ], [ 9.3032981, 11.5013401 ], [ 9.2985901, 11.4986933 ], [ 9.2931935, 11.503976 ], [ 9.2907936, 11.5063252 ], [ 9.2901683, 11.5063502 ], [ 9.2900715, 11.5062822 ], [ 9.2899894, 11.506225 ], [ 9.2899744, 11.5062146 ], [ 9.2899594, 11.5062043 ], [ 9.2899444, 11.506194 ], [ 9.2898543, 11.5061322 ], [ 9.2898091, 11.5061015 ], [ 9.289794, 11.5060913 ], [ 9.289779, 11.5060811 ], [ 9.2897639, 11.5060709 ], [ 9.2897488, 11.5060608 ], [ 9.2897337, 11.5060506 ], [ 9.2897186, 11.5060405 ], [ 9.2895365, 11.5059197 ], [ 9.2842374, 11.5025537 ], [ 9.2762258, 11.492135 ], [ 9.2710009, 11.4875938 ], [ 9.2660878, 11.482087 ], [ 9.2604691, 11.4760812 ], [ 9.2525171, 11.4721663 ], [ 9.2501141, 11.464006 ], [ 9.2477318, 11.4572511 ], [ 9.241668, 11.454846 ], [ 9.2374388, 11.4535494 ], [ 9.2348891, 11.4524365 ], [ 9.2315187, 11.4495272 ], [ 9.2315105, 11.4495001 ], [ 9.2315023, 11.4494731 ], [ 9.2314941, 11.449446 ], [ 9.231483, 11.44941 ], [ 9.2314691, 11.449365 ], [ 9.2314608, 11.449338 ], [ 9.2314524, 11.449311 ], [ 9.2314467, 11.4492931 ], [ 9.2314411, 11.4492751 ], [ 9.2314354, 11.4492571 ], [ 9.2314269, 11.4492302 ], [ 9.2314184, 11.4492032 ], [ 9.2314098, 11.4491763 ], [ 9.2314012, 11.4491494 ], [ 9.2313925, 11.4491225 ], [ 9.2313838, 11.4490956 ], [ 9.2313751, 11.4490687 ], [ 9.2313664, 11.4490418 ], [ 9.2313576, 11.449015 ], [ 9.2313517, 11.4489971 ], [ 9.2313458, 11.4489792 ], [ 9.2313399, 11.4489613 ], [ 9.231334, 11.4489434 ], [ 9.2313281, 11.4489255 ], [ 9.2313221, 11.4489076 ], [ 9.2313161, 11.4488898 ], [ 9.2313102, 11.4488719 ], [ 9.2313042, 11.448854 ], [ 9.2312981, 11.4488362 ], [ 9.2312921, 11.4488183 ], [ 9.2312861, 11.4488004 ], [ 9.2312587, 11.4487202 ], [ 9.2312526, 11.4487024 ], [ 9.2312464, 11.4486845 ], [ 9.2312403, 11.4486667 ], [ 9.2312341, 11.4486489 ], [ 9.2312279, 11.4486311 ], [ 9.2312217, 11.4486133 ], [ 9.2312124, 11.4485866 ], [ 9.2312062, 11.4485688 ], [ 9.2311999, 11.4485511 ], [ 9.2311937, 11.4485333 ], [ 9.2311811, 11.4484977 ], [ 9.2311653, 11.4484534 ], [ 9.2311589, 11.4484356 ], [ 9.2311526, 11.4484179 ], [ 9.2311462, 11.4484001 ], [ 9.2311398, 11.4483824 ], [ 9.2311334, 11.4483647 ], [ 9.231127, 11.448347 ], [ 9.2311141, 11.4483115 ], [ 9.2310979, 11.4482673 ], [ 9.2310848, 11.4482319 ], [ 9.2310685, 11.4481877 ], [ 9.2310553, 11.4481524 ], [ 9.2310388, 11.4481082 ], [ 9.2310321, 11.4480906 ], [ 9.2310255, 11.448073 ], [ 9.2310188, 11.4480553 ], [ 9.2310121, 11.4480377 ], [ 9.2310054, 11.4480201 ], [ 9.2309987, 11.4480024 ], [ 9.2309886, 11.447976 ], [ 9.2309819, 11.4479584 ], [ 9.2309751, 11.4479408 ], [ 9.2309683, 11.4479232 ], [ 9.2309342, 11.4478354 ], [ 9.2309273, 11.4478178 ], [ 9.2309204, 11.4478002 ], [ 9.2309135, 11.4477827 ], [ 9.2308962, 11.4477388 ], [ 9.2308858, 11.4477125 ], [ 9.2308753, 11.4476863 ], [ 9.2308648, 11.44766 ], [ 9.2308543, 11.4476337 ], [ 9.2308225, 11.4475551 ], [ 9.2308119, 11.4475289 ], [ 9.2308047, 11.4475114 ], [ 9.2307976, 11.4474939 ], [ 9.2307904, 11.4474765 ], [ 9.2307797, 11.4474503 ], [ 9.2307725, 11.4474329 ], [ 9.2307652, 11.4474155 ], [ 9.230758, 11.447398 ], [ 9.2307508, 11.4473806 ], [ 9.2307435, 11.4473632 ], [ 9.2307363, 11.4473458 ], [ 9.2307199, 11.4473067 ], [ 9.2306924, 11.4472415 ], [ 9.2306819, 11.4472168 ], [ 9.2306702, 11.4471894 ], [ 9.2306255, 11.4470854 ], [ 9.2306143, 11.4470595 ], [ 9.2305345, 11.4468781 ], [ 9.230523, 11.4468523 ], [ 9.2305115, 11.4468264 ], [ 9.2304999, 11.4468006 ], [ 9.2304883, 11.4467748 ], [ 9.2304766, 11.446749 ], [ 9.2304649, 11.4467232 ], [ 9.2304532, 11.4466975 ], [ 9.2304415, 11.4466717 ], [ 9.2304297, 11.446646 ], [ 9.2304179, 11.4466202 ], [ 9.230406, 11.4465945 ], [ 9.2303981, 11.4465774 ], [ 9.2303902, 11.4465603 ], [ 9.2303822, 11.4465431 ], [ 9.2303703, 11.4465175 ], [ 9.2303623, 11.4465004 ], [ 9.2303543, 11.4464833 ], [ 9.2303463, 11.4464662 ], [ 9.2303383, 11.4464491 ], [ 9.2303302, 11.446432 ], [ 9.2303222, 11.446415 ], [ 9.2303141, 11.4463979 ], [ 9.230306, 11.4463808 ], [ 9.230298, 11.4463638 ], [ 9.2302898, 11.4463467 ], [ 9.2302817, 11.4463297 ], [ 9.2302736, 11.4463127 ], [ 9.2302654, 11.4462957 ], [ 9.2302573, 11.4462786 ], [ 9.2302491, 11.4462616 ], [ 9.2302409, 11.4462446 ], [ 9.2302327, 11.4462276 ], [ 9.2302245, 11.4462106 ], [ 9.2302121, 11.4461852 ], [ 9.2301997, 11.4461597 ], [ 9.2301873, 11.4461342 ], [ 9.2301748, 11.4461088 ], [ 9.2301246, 11.4460072 ], [ 9.230112, 11.4459819 ], [ 9.2300951, 11.4459481 ], [ 9.2300782, 11.4459144 ], [ 9.2300697, 11.4458975 ], [ 9.2300527, 11.4458638 ], [ 9.2300442, 11.4458469 ], [ 9.2300228, 11.4458048 ], [ 9.2299841, 11.4457292 ], [ 9.2299711, 11.445704 ], [ 9.2299581, 11.4456788 ], [ 9.22999, 11.4412917 ], [ 9.2294196, 11.4369587 ], [ 9.2297048, 11.4330449 ], [ 9.2285976, 11.4306238 ], [ 9.2287631, 11.4295692 ], [ 9.2286307, 11.428985 ], [ 9.2280017, 11.4272652 ], [ 9.2276375, 11.4261619 ], [ 9.2278858, 11.4256751 ], [ 9.2312735, 11.4235399 ], [ 9.2322004, 11.4211636 ], [ 9.2338404, 11.4196958 ], [ 9.2338404, 11.4159216 ], [ 9.2334126, 11.4134054 ], [ 9.2320578, 11.4124968 ], [ 9.2322717, 11.4094914 ], [ 9.2324856, 11.4056891 ], [ 9.2312022, 11.4020545 ], [ 9.2297761, 11.3991188 ], [ 9.229063, 11.3966025 ], [ 9.22671, 11.3939463 ], [ 9.2248561, 11.3924085 ], [ 9.2244283, 11.3873059 ], [ 9.2245709, 11.3847195 ], [ 9.2222377, 11.3737551 ], [ 9.2221445, 11.3737203 ], [ 9.2161581, 11.3665229 ], [ 9.2084227, 11.3579578 ], [ 9.1995971, 11.3374339 ], [ 9.1949717, 11.3266488 ], [ 9.1946377, 11.3266047 ], [ 9.1887017, 11.3228929 ], [ 9.1867658, 11.320564 ], [ 9.179179, 11.3192216 ], [ 9.178146, 11.3183151 ], [ 9.1823953, 11.3110527 ], [ 9.1813762, 11.3104722 ], [ 9.1818425, 11.3096963 ], [ 9.180609, 11.3089501 ], [ 9.1804263, 11.3085237 ], [ 9.1787969, 11.3084323 ], [ 9.1787402, 11.308501 ], [ 9.174776, 11.3062596 ], [ 9.1694936, 11.3081632 ], [ 9.1614368, 11.3145925 ], [ 9.1429566, 11.3156418 ], [ 9.1415306, 11.316369 ], [ 9.1411313, 11.3175436 ], [ 9.1414165, 11.318886 ], [ 9.1413024, 11.3202843 ], [ 9.1403327, 11.3215708 ], [ 9.1403897, 11.3231369 ], [ 9.1415306, 11.3241437 ], [ 9.1422262, 11.3262063 ], [ 9.1302393, 11.3288097 ], [ 9.1295767, 11.3289536 ], [ 9.1286959, 11.3274996 ], [ 9.1264286, 11.3278546 ], [ 9.1240754, 11.3277234 ], [ 9.1235794, 11.3263052 ], [ 9.1206385, 11.3247058 ], [ 9.1178577, 11.3238669 ], [ 9.1164316, 11.3218393 ], [ 9.1162034, 11.318886 ], [ 9.1148629, 11.3169451 ], [ 9.1112264, 11.3143581 ], [ 9.1068769, 11.3102329 ], [ 9.1018143, 11.3068069 ], [ 9.1005308, 11.308415 ], [ 9.0992473, 11.3104427 ], [ 9.0958247, 11.3116313 ], [ 9.0918317, 11.3132395 ], [ 9.088623, 11.3142183 ], [ 9.0849152, 11.3149175 ], [ 9.0831326, 11.3138687 ], [ 9.08299, 11.3117712 ], [ 9.0825131, 11.3106021 ], [ 9.0819918, 11.309324 ], [ 9.0799693, 11.3074626 ], [ 9.0773974, 11.3067966 ], [ 9.0752854, 11.3062498 ], [ 9.074022, 11.3041562 ], [ 9.0725412, 11.3017022 ], [ 9.0700463, 11.2996019 ], [ 9.068737, 11.2977957 ], [ 9.0655417, 11.2963789 ], [ 9.0625852, 11.2929974 ], [ 9.0558281, 11.2909144 ], [ 9.0536722, 11.2885688 ], [ 9.0511172, 11.2872869 ], [ 9.0475818, 11.2862753 ], [ 9.0448187, 11.2859467 ], [ 9.0420259, 11.2831496 ], [ 9.0403028, 11.2802943 ], [ 9.0378071, 11.27808 ], [ 9.0347767, 11.2769145 ], [ 9.0318651, 11.277439 ], [ 9.0286543, 11.2776182 ], [ 9.0266956, 11.2771476 ], [ 9.0214072, 11.2695138 ], [ 9.0187333, 11.2652597 ], [ 9.018971, 11.2621129 ], [ 9.0182312, 11.2596558 ], [ 9.0186257, 11.2590026 ], [ 9.0193869, 11.2577422 ], [ 9.0172853, 11.2565146 ], [ 9.0150154, 11.2554923 ], [ 9.0140648, 11.2533969 ], [ 9.0122057, 11.251597 ], [ 9.0099747, 11.2508468 ], [ 9.0093208, 11.2488043 ], [ 9.0080193, 11.2465422 ], [ 9.0056464, 11.2452469 ], [ 9.0035869, 11.2442834 ], [ 9.0026719, 11.2423674 ], [ 9.0003131, 11.2400838 ], [ 8.9998498, 11.2359297 ], [ 8.9988504, 11.234651 ], [ 8.9978509, 11.233415 ], [ 8.9965039, 11.2332871 ], [ 8.9957651, 11.2329461 ], [ 8.9956348, 11.2309429 ], [ 8.9955044, 11.2293233 ], [ 8.9956348, 11.2274905 ], [ 8.9937662, 11.2268511 ], [ 8.9918977, 11.2259134 ], [ 8.9897684, 11.2248052 ], [ 8.9882041, 11.2249331 ], [ 8.9868135, 11.2251036 ], [ 8.9852492, 11.2246774 ], [ 8.9847277, 11.2237823 ], [ 8.984467, 11.2223331 ], [ 8.9842063, 11.2208839 ], [ 8.9834241, 11.2205429 ], [ 8.9822943, 11.2208413 ], [ 8.9813383, 11.2214806 ], [ 8.9798174, 11.2216937 ], [ 8.9778619, 11.2206281 ], [ 8.9766945, 11.2193443 ], [ 8.9749939, 11.217474 ], [ 8.9740379, 11.2158542 ], [ 8.9732558, 11.213723 ], [ 8.9736401, 11.2120697 ], [ 8.9718982, 11.2102401 ], [ 8.9703443, 11.208608 ], [ 8.9688234, 11.2087359 ], [ 8.9675198, 11.2083096 ], [ 8.9668245, 11.207926 ], [ 8.9667829, 11.205968 ], [ 8.9653725, 11.2045329 ], [ 8.9641777, 11.2033171 ], [ 8.9632613, 11.2023846 ], [ 8.9613058, 11.202001 ], [ 8.9595242, 11.2014468 ], [ 8.9576122, 11.2013616 ], [ 8.955874, 11.2002959 ], [ 8.9547876, 11.1987613 ], [ 8.953962, 11.1973546 ], [ 8.9532233, 11.1956922 ], [ 8.9523542, 11.195138 ], [ 8.9522238, 11.1941149 ], [ 8.9527887, 11.193646 ], [ 8.9526584, 11.1924951 ], [ 8.9517893, 11.1921114 ], [ 8.9503988, 11.1919409 ], [ 8.9488344, 11.1921967 ], [ 8.9491386, 11.1934329 ], [ 8.948704, 11.1943707 ], [ 8.9464444, 11.1939444 ], [ 8.9446628, 11.1932198 ], [ 8.9433591, 11.1916425 ], [ 8.9418382, 11.1911736 ], [ 8.9402384, 11.1918793 ], [ 8.9381582, 11.19021 ], [ 8.9349724, 11.1885733 ], [ 8.9326159, 11.1857624 ], [ 8.9278355, 11.1819262 ], [ 8.9257601, 11.1802606 ], [ 8.9243261, 11.1800475 ], [ 8.9226314, 11.1788538 ], [ 8.9198938, 11.1774897 ], [ 8.9209367, 11.1738235 ], [ 8.9210236, 11.1722035 ], [ 8.9202849, 11.1710951 ], [ 8.9191877, 11.1702504 ], [ 8.9194158, 11.1693472 ], [ 8.9201111, 11.1686651 ], [ 8.9204587, 11.1676846 ], [ 8.9201545, 11.1666614 ], [ 8.9195363, 11.1650305 ], [ 8.9186771, 11.1637625 ], [ 8.9182743, 11.1633445 ], [ 8.9181127, 11.1628498 ], [ 8.9181733, 11.1621734 ], [ 8.918195, 11.1621385 ], [ 8.918456, 11.1617191 ], [ 8.9188845, 11.1611713 ], [ 8.918244, 11.1605075 ], [ 8.9179916, 11.1600936 ], [ 8.9179613, 11.1597099 ], [ 8.9183349, 11.1593667 ], [ 8.9189204, 11.1590335 ], [ 8.9195565, 11.1589931 ], [ 8.9196978, 11.158771 ], [ 8.9195431, 11.1585373 ], [ 8.9185901, 11.1576234 ], [ 8.9174603, 11.1563444 ], [ 8.9159394, 11.1548522 ], [ 8.9155282, 11.1546014 ], [ 8.9148719, 11.1545408 ], [ 8.9146692, 11.1543985 ], [ 8.9146629, 11.1541965 ], [ 8.9145287, 11.1537937 ], [ 8.9142926, 11.1534867 ], [ 8.9147508, 11.1530567 ], [ 8.9148517, 11.1527538 ], [ 8.914771, 11.1525721 ], [ 8.9146094, 11.1523399 ], [ 8.9143873, 11.1520875 ], [ 8.9142514, 11.1519097 ], [ 8.9141248, 11.1517442 ], [ 8.9137553, 11.1515087 ], [ 8.9131817, 11.1513376 ], [ 8.9129638, 11.1508355 ], [ 8.9129941, 11.1503206 ], [ 8.9131354, 11.1497654 ], [ 8.9125208, 11.1480789 ], [ 8.9123378, 11.1478067 ], [ 8.9123479, 11.1473423 ], [ 8.912247, 11.1466861 ], [ 8.91195, 11.1465128 ], [ 8.911689, 11.1464424 ], [ 8.9111263, 11.1464236 ], [ 8.9106999, 11.1461754 ], [ 8.9101874, 11.1454645 ], [ 8.9097824, 11.1435466 ], [ 8.9080711, 11.1422033 ], [ 8.9068658, 11.1407799 ], [ 8.9059773, 11.1398915 ], [ 8.9055432, 11.1396492 ], [ 8.9048769, 11.1386194 ], [ 8.9033365, 11.1376139 ], [ 8.902148, 11.1369595 ], [ 8.9009977, 11.1353752 ], [ 8.9016225, 11.1336704 ], [ 8.9011498, 11.13142 ], [ 8.8998781, 11.1308533 ], [ 8.8984848, 11.1286032 ], [ 8.8984467, 11.1264525 ], [ 8.8969191, 11.1244236 ], [ 8.8949297, 11.1228619 ], [ 8.8940194, 11.1213919 ], [ 8.8936392, 11.1194328 ], [ 8.8933539, 11.117054 ], [ 8.8910247, 11.1161678 ], [ 8.8889331, 11.1143486 ], [ 8.8885528, 11.1143486 ], [ 8.8876496, 11.1135557 ], [ 8.8864137, 11.1120164 ], [ 8.8848925, 11.1109436 ], [ 8.8837517, 11.1109902 ], [ 8.8832288, 11.1118765 ], [ 8.8826679, 11.1123429 ], [ 8.8814129, 11.112119 ], [ 8.8795305, 11.1109436 ], [ 8.8764168, 11.1098957 ], [ 8.8727447, 11.1066422 ], [ 8.8688515, 11.1025373 ], [ 8.8561807, 11.0984837 ], [ 8.8559811, 11.0993514 ], [ 8.8456338, 11.1008296 ], [ 8.836716, 11.0984461 ], [ 8.8326349, 11.0976115 ], [ 8.8273465, 11.096387 ], [ 8.8245763, 11.0958375 ], [ 8.8225442, 11.0966772 ], [ 8.8207614, 11.0964507 ], [ 8.8190503, 11.0964673 ], [ 8.8177668, 11.0968521 ], [ 8.8171964, 11.0977267 ], [ 8.8157947, 11.0987942 ], [ 8.8142016, 11.0991262 ], [ 8.8133816, 11.0998958 ], [ 8.8123834, 11.1009454 ], [ 8.8116703, 11.1019599 ], [ 8.8111712, 11.1027296 ], [ 8.8106721, 11.1032894 ], [ 8.8086934, 11.104094 ], [ 8.8052708, 11.1036742 ], [ 8.8050569, 11.1001057 ], [ 8.8098343, 11.0984964 ], [ 8.811894, 11.0971261 ], [ 8.8129181, 11.0918492 ], [ 8.8044176, 11.0791258 ], [ 8.8023538, 11.0743124 ], [ 8.8014364, 11.0742228 ], [ 8.8007463, 11.0742228 ], [ 8.7984664, 11.0744871 ], [ 8.7977107, 11.0779673 ], [ 8.795526, 11.0836798 ], [ 8.7940095, 11.0832883 ], [ 8.7926891, 11.0829005 ], [ 8.7926446, 11.0819793 ], [ 8.7931001, 11.0766703 ], [ 8.7933605, 11.0746621 ], [ 8.7942457, 11.0687565 ], [ 8.7904377, 11.0682173 ], [ 8.7918638, 11.0642052 ], [ 8.7938127, 11.0614994 ], [ 8.7919628, 11.0555351 ], [ 8.7884541, 11.05021 ], [ 8.7875558, 11.0474446 ], [ 8.7868453, 11.0452569 ], [ 8.7860649, 11.0428542 ], [ 8.7842445, 11.0372496 ], [ 8.7823955, 11.0276589 ], [ 8.781712, 11.025008 ], [ 8.7803753, 11.0192603 ], [ 8.7798105, 11.011535 ], [ 8.7829004, 10.9998112 ], [ 8.7868221, 10.9938617 ], [ 8.7848612, 10.9855788 ], [ 8.7841148, 10.9743099 ], [ 8.7865464, 10.9640241 ], [ 8.787074, 10.96322 ], [ 8.7882586, 10.9557896 ], [ 8.7897072, 10.9476805 ], [ 8.7886972, 10.9422503 ], [ 8.7772815, 10.9368075 ], [ 8.7732706, 10.938266 ], [ 8.7707475, 10.9418211 ], [ 8.7667174, 10.9417247 ], [ 8.7679228, 10.9363699 ], [ 8.7671801, 10.9300982 ], [ 8.7652489, 10.9265977 ], [ 8.7624265, 10.9245557 ], [ 8.759604, 10.9235347 ], [ 8.7576729, 10.9162417 ], [ 8.7560388, 10.9076357 ], [ 8.7539591, 10.903989 ], [ 8.7523251, 10.8966955 ], [ 8.7499483, 10.8856091 ], [ 8.7493541, 10.876127 ], [ 8.7496512, 10.869854 ], [ 8.7501362, 10.8668746 ], [ 8.7496986, 10.8656419 ], [ 8.7489415, 10.8643947 ], [ 8.7471415, 10.8635834 ], [ 8.7454302, 10.8618328 ], [ 8.7450736, 10.8594519 ], [ 8.7457867, 10.857211 ], [ 8.7661695, 10.8511366 ], [ 8.7663097, 10.8501797 ], [ 8.7678814, 10.8385801 ], [ 8.769371, 10.8292999 ], [ 8.774354, 10.8201399 ], [ 8.776845, 10.8155603 ], [ 8.779417, 10.80865 ], [ 8.7856445, 10.7972002 ], [ 8.791317, 10.7920356 ], [ 8.7921696, 10.7913713 ], [ 8.7976532, 10.7870998 ], [ 8.8072109, 10.7804203 ], [ 8.8156042, 10.7736998 ], [ 8.8215895, 10.7692404 ], [ 8.8289804, 10.7578201 ], [ 8.8308548, 10.7535677 ], [ 8.8311827, 10.7528238 ], [ 8.8320837, 10.7495388 ], [ 8.8341665, 10.7428398 ], [ 8.8379841, 10.7336397 ], [ 8.8464594, 10.7245903 ], [ 8.8512783, 10.7200899 ], [ 8.8552189, 10.7074003 ], [ 8.8548286, 10.7022563 ], [ 8.8544207, 10.6968803 ], [ 8.852459, 10.6863298 ], [ 8.8481753, 10.6799404 ], [ 8.8247466, 10.6752787 ], [ 8.8218802, 10.6722549 ], [ 8.7819053, 10.6010138 ], [ 8.7831768, 10.5969687 ], [ 8.7791945, 10.598132 ], [ 8.7706432, 10.5872848 ], [ 8.7651291, 10.584668 ], [ 8.7603755, 10.5818644 ], [ 8.7584642, 10.5731336 ], [ 8.7497274, 10.565042 ], [ 8.7360371, 10.5609298 ], [ 8.7281008, 10.5550111 ], [ 8.7194946, 10.5485926 ], [ 8.7111282, 10.5433585 ], [ 8.7035225, 10.5493403 ], [ 8.6839006, 10.5715533 ], [ 8.6664343, 10.5933028 ], [ 8.6608726, 10.6019002 ], [ 8.6563709, 10.6106749 ], [ 8.6495617, 10.6240655 ], [ 8.64393, 10.6304796 ], [ 8.6388121, 10.6305282 ], [ 8.6280803, 10.6346553 ], [ 8.6165948, 10.6390722 ], [ 8.6156075, 10.6397515 ], [ 8.6008545, 10.6438144 ], [ 8.5936465, 10.6450654 ], [ 8.587532, 10.6425327 ], [ 8.582732, 10.6413327 ], [ 8.5539346, 10.6361823 ], [ 8.5437287, 10.6317788 ], [ 8.5345425, 10.6326668 ], [ 8.5330567, 10.633424 ], [ 8.5304764, 10.634739 ], [ 8.5226456, 10.6375511 ], [ 8.5190313, 10.6416952 ], [ 8.5142123, 10.6433233 ], [ 8.5095439, 10.6479113 ], [ 8.5063304, 10.6504571 ], [ 8.5069199, 10.6535151 ], [ 8.5073994, 10.6558505 ], [ 8.5009973, 10.6605268 ], [ 8.4982288, 10.6646929 ], [ 8.4973829, 10.6797797 ], [ 8.4898368, 10.6974242 ], [ 8.4896638, 10.7028649 ], [ 8.4839554, 10.7092575 ], [ 8.4812343, 10.7158619 ], [ 8.4875492, 10.7196188 ], [ 8.5014297, 10.725784 ], [ 8.5206023, 10.7314014 ], [ 8.539379, 10.7334428 ], [ 8.5445879, 10.7358654 ], [ 8.5500384, 10.7384154 ], [ 8.5547967, 10.7401154 ], [ 8.5585169, 10.7420704 ], [ 8.5688987, 10.7478503 ], [ 8.571637, 10.7482724 ], [ 8.5715807, 10.7504852 ], [ 8.5714942, 10.753885 ], [ 8.5717537, 10.7589848 ], [ 8.5725324, 10.7635744 ], [ 8.5733975, 10.768674 ], [ 8.5729472, 10.7736536 ], [ 8.5664763, 10.7761532 ], [ 8.5628446, 10.7783148 ], [ 8.5592619, 10.7846335 ], [ 8.5586677, 10.7891571 ], [ 8.56253, 10.7964532 ], [ 8.5630544, 10.8164514 ], [ 8.5691519, 10.8173738 ], [ 8.5683507, 10.8190815 ], [ 8.5680863, 10.8199791 ], [ 8.5675254, 10.8209409 ], [ 8.5674589, 10.8213424 ], [ 8.5675951, 10.8237408 ], [ 8.5674347, 10.8254917 ], [ 8.5669712, 10.8271842 ], [ 8.5674589, 10.8274869 ], [ 8.5677821, 10.8277016 ], [ 8.5684001, 10.8279164 ], [ 8.5700024, 10.8282104 ], [ 8.5704651, 10.8280946 ], [ 8.5724913, 10.8276394 ], [ 8.5749981, 10.827132 ], [ 8.5750107, 10.8272484 ], [ 8.5746664, 10.8291603 ], [ 8.573845, 10.8312847 ], [ 8.573189, 10.8396326 ], [ 8.5739021, 10.8420837 ], [ 8.5755361, 10.845381 ], [ 8.5771999, 10.8484156 ], [ 8.579339, 10.8542514 ], [ 8.5814781, 10.8589199 ], [ 8.5850433, 10.8614876 ], [ 8.583741, 10.8879817 ], [ 8.58077, 10.897901 ], [ 8.58077, 10.9016937 ], [ 8.5780031, 10.9074116 ], [ 8.5684878, 10.9074679 ], [ 8.5704927, 10.9172201 ], [ 8.5714941, 10.9219103 ], [ 8.5735788, 10.9289703 ], [ 8.576827, 10.9360704 ], [ 8.5812798, 10.94205 ], [ 8.5833635, 10.94911 ], [ 8.5865717, 10.9573698 ], [ 8.5885334, 10.9679203 ], [ 8.5918226, 10.9738598 ], [ 8.5939064, 10.9809198 ], [ 8.5949087, 10.98561 ], [ 8.5971146, 10.9891796 ], [ 8.5981569, 10.9927101 ], [ 8.5989952, 11.0020599 ], [ 8.6075102, 11.0114175 ], [ 8.6099108, 11.0139605 ], [ 8.6147594, 11.01774 ], [ 8.6110516, 11.0318775 ], [ 8.6098672, 11.0403331 ], [ 8.6093918, 11.0454653 ], [ 8.6086788, 11.054213 ], [ 8.6079063, 11.0675674 ], [ 8.6073121, 11.0712412 ], [ 8.6015484, 11.0768976 ], [ 8.5954715, 11.0818717 ], [ 8.5946393, 11.0825156 ], [ 8.5932823, 11.0817022 ], [ 8.5924196, 11.0815554 ], [ 8.5915829, 11.0817234 ], [ 8.5906128, 11.0821284 ], [ 8.5899477, 11.0821339 ], [ 8.5896256, 11.0848808 ], [ 8.5892457, 11.08506 ], [ 8.58373, 11.0871533 ], [ 8.5740824, 11.0928303 ], [ 8.5705886, 11.0944164 ], [ 8.5592445, 11.0997661 ], [ 8.5554179, 11.1010722 ], [ 8.5464811, 11.1024949 ], [ 8.5416625, 11.1046015 ], [ 8.5339523, 11.1073276 ], [ 8.5196321, 11.1149074 ], [ 8.5132746, 11.1221569 ], [ 8.5060473, 11.1322356 ], [ 8.50822, 11.1419652 ], [ 8.5099313, 11.1511998 ], [ 8.5129973, 11.1539281 ], [ 8.5147755, 11.1573435 ], [ 8.5187017, 11.1623228 ], [ 8.5146454, 11.1630426 ], [ 8.5109291, 11.1604647 ], [ 8.5090043, 11.1586152 ], [ 8.5061081, 11.1582092 ], [ 8.5020878, 11.158895 ], [ 8.4975957, 11.1626027 ], [ 8.4918201, 11.1625327 ], [ 8.4873992, 11.1616233 ], [ 8.4834062, 11.1616233 ], [ 8.4779158, 11.1649811 ], [ 8.4732811, 11.16666 ], [ 8.4700724, 11.1693183 ], [ 8.4668637, 11.168129 ], [ 8.4646533, 11.1695981 ], [ 8.4618724, 11.1717666 ], [ 8.4574924, 11.1841093 ], [ 8.4512924, 11.1955093 ], [ 8.4505908, 11.1969141 ], [ 8.4478858, 11.2028395 ], [ 8.4475232, 11.2032158 ], [ 8.4471753, 11.2039779 ], [ 8.4460805, 11.2045406 ], [ 8.4434109, 11.2059128 ], [ 8.4377814, 11.2100207 ], [ 8.4378787, 11.2167917 ], [ 8.4338143, 11.2265834 ], [ 8.4280387, 11.2291012 ], [ 8.4211222, 11.2305699 ], [ 8.4169574, 11.2305889 ], [ 8.4168886, 11.230591 ], [ 8.4150704, 11.2306476 ], [ 8.4115182, 11.2299449 ], [ 8.4089481, 11.2296622 ], [ 8.4029274, 11.2278617 ], [ 8.3984388, 11.2277556 ], [ 8.3939261, 11.2276487 ], [ 8.389493, 11.2271605 ], [ 8.3876993, 11.2271063 ], [ 8.3743998, 11.226705 ], [ 8.3729338, 11.2266727 ], [ 8.3726305, 11.226666 ], [ 8.3694986, 11.2265968 ], [ 8.3659619, 11.2268126 ], [ 8.3593068, 11.2265795 ], [ 8.3557416, 11.2269875 ], [ 8.3533945, 11.2273663 ], [ 8.3458482, 11.2302513 ], [ 8.3361721, 11.2332795 ], [ 8.3351617, 11.2317282 ], [ 8.3340208, 11.2294902 ], [ 8.3306695, 11.2279515 ], [ 8.3251791, 11.2271822 ], [ 8.3229687, 11.228511 ], [ 8.3196174, 11.2303994 ], [ 8.3149826, 11.2328472 ], [ 8.3082088, 11.2354349 ], [ 8.2979079, 11.2342239 ], [ 8.2958629, 11.2378383 ], [ 8.2939805, 11.2424821 ], [ 8.2936383, 11.2455033 ], [ 8.2937452, 11.2494989 ], [ 8.2914307, 11.2511478 ], [ 8.2909644, 11.2523661 ], [ 8.2916774, 11.2560026 ], [ 8.289467, 11.2577509 ], [ 8.287827, 11.2589398 ], [ 8.2877557, 11.2620168 ], [ 8.2873718, 11.2646174 ], [ 8.2861157, 11.2682405 ], [ 8.2818375, 11.2719468 ], [ 8.2780239, 11.274904 ], [ 8.2766323, 11.2777508 ], [ 8.2742079, 11.2778906 ], [ 8.2730908, 11.2764921 ], [ 8.2695257, 11.2768417 ], [ 8.2660793, 11.2774245 ], [ 8.2630403, 11.2765368 ], [ 8.2607034, 11.2763228 ], [ 8.257275, 11.279668 ], [ 8.2564193, 11.2845163 ], [ 8.2548982, 11.2916019 ], [ 8.254708, 11.2957973 ], [ 8.2555637, 11.2984078 ], [ 8.2563242, 11.3012046 ], [ 8.2585109, 11.3022301 ], [ 8.260032, 11.3041879 ], [ 8.2621236, 11.3073577 ], [ 8.2634546, 11.3102477 ], [ 8.2644053, 11.3132309 ], [ 8.258606, 11.312858 ], [ 8.255681, 11.3150357 ], [ 8.2542517, 11.3172208 ], [ 8.2529397, 11.3189548 ], [ 8.2511713, 11.3221989 ], [ 8.2506009, 11.323765 ], [ 8.2487755, 11.3257227 ], [ 8.2410177, 11.3265617 ], [ 8.2373669, 11.3270651 ], [ 8.2267569, 11.3259464 ], [ 8.2167279, 11.3228944 ], [ 8.2067808, 11.3187017 ], [ 8.2002428, 11.3243576 ], [ 8.1972491, 11.3283038 ], [ 8.1934557, 11.3338203 ], [ 8.1873913, 11.3406096 ], [ 8.1754646, 11.3483801 ], [ 8.1674486, 11.3543435 ], [ 8.1652462, 11.3629682 ], [ 8.1543243, 11.36953 ], [ 8.1487544, 11.373382 ], [ 8.149932, 11.3753931 ], [ 8.1461338, 11.3773195 ], [ 8.1433301, 11.3779346 ], [ 8.137068, 11.3806931 ], [ 8.1229138, 11.3866728 ], [ 8.1223081, 11.3917381 ], [ 8.1206681, 11.3946738 ], [ 8.1187429, 11.3984483 ], [ 8.1172455, 11.4025023 ], [ 8.1137219, 11.4084843 ], [ 8.1285769, 11.4112801 ], [ 8.1405797, 11.4162891 ], [ 8.1433245, 11.4202676 ], [ 8.1425584, 11.437099 ], [ 8.1403895, 11.4567544 ], [ 8.1428852, 11.4603184 ], [ 8.1487474, 11.4686881 ], [ 8.1538813, 11.477423 ], [ 8.1534535, 11.4857383 ], [ 8.1524552, 11.4890225 ], [ 8.1560917, 11.4923765 ], [ 8.158965, 11.4952243 ], [ 8.1617031, 11.4971528 ], [ 8.1624732, 11.503106 ], [ 8.1617887, 11.5055375 ], [ 8.1583661, 11.5092266 ], [ 8.1500814, 11.5191704 ], [ 8.1209971, 11.5202081 ], [ 8.1144665, 11.5216975 ], [ 8.1139889, 11.5222855 ], [ 8.1118705, 11.5210897 ], [ 8.1099999, 11.5208583 ], [ 8.1085144, 11.5227214 ], [ 8.1068741, 11.5237475 ], [ 8.1054175, 11.5235001 ], [ 8.1040984, 11.5227665 ], [ 8.1029932, 11.5226617 ], [ 8.1021551, 11.5232799 ], [ 8.1015315, 11.5239892 ], [ 8.1007471, 11.5236049 ], [ 8.0994637, 11.5227316 ], [ 8.0983941, 11.5212993 ], [ 8.0975741, 11.5201116 ], [ 8.0963976, 11.519902 ], [ 8.0947932, 11.5196924 ], [ 8.0934028, 11.5195526 ], [ 8.0917985, 11.5194129 ], [ 8.0899802, 11.5190286 ], [ 8.0889463, 11.5186443 ], [ 8.0865933, 11.5173867 ], [ 8.0852218, 11.5159675 ], [ 8.0834986, 11.5138132 ], [ 8.0828665, 11.511569 ], [ 8.0829425, 11.5107492 ], [ 8.0824482, 11.5098921 ], [ 8.0817446, 11.5091095 ], [ 8.0816686, 11.5084202 ], [ 8.0818587, 11.507414 ], [ 8.082277, 11.5066501 ], [ 8.082239, 11.5059607 ], [ 8.0819158, 11.5055135 ], [ 8.0812503, 11.5054017 ], [ 8.0800578, 11.5052481 ], [ 8.0785122, 11.5051782 ], [ 8.0766112, 11.5049246 ], [ 8.0746523, 11.5048987 ], [ 8.0734924, 11.5046192 ], [ 8.0726748, 11.5041906 ], [ 8.0721424, 11.5036503 ], [ 8.0714388, 11.5028305 ], [ 8.0688453, 11.5023127 ], [ 8.0684079, 11.5021858 ], [ 8.0679611, 11.5018504 ], [ 8.0677001, 11.5012484 ], [ 8.0671744, 11.5003808 ], [ 8.0664685, 11.50022 ], [ 8.0657768, 11.5000663 ], [ 8.065185, 11.5000454 ], [ 8.0643365, 11.5003249 ], [ 8.063545, 11.5007092 ], [ 8.0625753, 11.5010445 ], [ 8.0618908, 11.5009188 ], [ 8.0613845, 11.5005834 ], [ 8.0611064, 11.4999755 ], [ 8.061085, 11.4994095 ], [ 8.0611349, 11.4989484 ], [ 8.0611563, 11.4985082 ], [ 8.0609353, 11.4981658 ], [ 8.0606786, 11.4977116 ], [ 8.0601296, 11.4974612 ], [ 8.0596104, 11.4973943 ], [ 8.0588643, 11.4975296 ], [ 8.0584611, 11.4975171 ], [ 8.0580665, 11.4974519 ], [ 8.057767, 11.4972935 ], [ 8.057363, 11.4970699 ], [ 8.0568353, 11.4966787 ], [ 8.0566547, 11.4962361 ], [ 8.0565596, 11.4957796 ], [ 8.0565501, 11.4953837 ], [ 8.0565216, 11.4949644 ], [ 8.0565113, 11.4945716 ], [ 8.0565826, 11.4942106 ], [ 8.0564994, 11.4939078 ], [ 8.0560122, 11.4933139 ], [ 8.0556913, 11.4931392 ], [ 8.0554655, 11.4929295 ], [ 8.0551209, 11.4926384 ], [ 8.0549426, 11.4922657 ], [ 8.0548356, 11.4918931 ], [ 8.0547643, 11.4913807 ], [ 8.0547604, 11.49092 ], [ 8.0544273, 11.4905282 ], [ 8.0540988, 11.4903558 ], [ 8.0538968, 11.4902161 ], [ 8.0535165, 11.4902394 ], [ 8.05316, 11.4902277 ], [ 8.0529104, 11.4900763 ], [ 8.0527559, 11.4899133 ], [ 8.0526728, 11.4897852 ], [ 8.05234, 11.4896687 ], [ 8.0519478, 11.489529 ], [ 8.0516745, 11.4894358 ], [ 8.0514368, 11.4892611 ], [ 8.0512942, 11.4890864 ], [ 8.05132, 11.4889108 ], [ 8.0513655, 11.4885041 ], [ 8.0513655, 11.4881664 ], [ 8.0511516, 11.4879568 ], [ 8.0507951, 11.4878054 ], [ 8.0502603, 11.4878753 ], [ 8.0498087, 11.4879801 ], [ 8.0495473, 11.4881082 ], [ 8.0489768, 11.4880267 ], [ 8.0486441, 11.4879684 ], [ 8.048347, 11.4878986 ], [ 8.0480499, 11.4878054 ], [ 8.0478479, 11.487654 ], [ 8.0477053, 11.4874327 ], [ 8.04742, 11.4870717 ], [ 8.0473844, 11.4868038 ], [ 8.0473, 11.4866 ], [ 8.0469566, 11.4864777 ], [ 8.0466713, 11.486536 ], [ 8.0463742, 11.4867922 ], [ 8.0460534, 11.4869203 ], [ 8.0458038, 11.487095 ], [ 8.045685, 11.4871882 ], [ 8.0454489, 11.4874557 ], [ 8.0446511, 11.4878636 ], [ 8.0442224, 11.4877437 ], [ 8.0440093, 11.4877937 ], [ 8.0437241, 11.4877006 ], [ 8.0431061, 11.4875608 ], [ 8.0425476, 11.4875026 ], [ 8.0424942, 11.4874874 ], [ 8.0421792, 11.4873978 ], [ 8.0417989, 11.4875375 ], [ 8.0415493, 11.4874909 ], [ 8.0413386, 11.487313 ], [ 8.0412028, 11.4871086 ], [ 8.0408363, 11.4869436 ], [ 8.0405511, 11.4870368 ], [ 8.0402302, 11.4871532 ], [ 8.0401233, 11.4873978 ], [ 8.0399688, 11.4877239 ], [ 8.0398618, 11.4880965 ], [ 8.0396717, 11.4885041 ], [ 8.0395647, 11.4891097 ], [ 8.0394696, 11.4897037 ], [ 8.0391725, 11.4908333 ], [ 8.0391, 11.4917 ], [ 8.0358303, 11.4933791 ], [ 8.0334523, 11.4935193 ], [ 8.0302864, 11.4941063 ], [ 8.027805, 11.4930162 ], [ 8.0256659, 11.4906684 ], [ 8.0225, 11.4888 ], [ 8.0199971, 11.4893266 ], [ 8.0123178, 11.4918423 ], [ 8.0090867, 11.4908271 ], [ 8.005986, 11.4919262 ], [ 8.0009, 11.4921 ], [ 7.9994831, 11.4895784 ], [ 7.9976007, 11.4893268 ], [ 7.996657, 11.4914107 ], [ 7.9957183, 11.4915908 ], [ 7.9949482, 11.4900815 ], [ 7.9954616, 11.4880691 ], [ 7.994777, 11.4868952 ], [ 7.9910122, 11.4876498 ], [ 7.9886149, 11.4847353 ], [ 7.9858783, 11.4845473 ], [ 7.9825413, 11.483038 ], [ 7.980231, 11.4842958 ], [ 7.9786909, 11.4832896 ], [ 7.9779208, 11.4790131 ], [ 7.974926, 11.4783423 ], [ 7.9737738, 11.4784017 ], [ 7.9713696, 11.4785257 ], [ 7.9684231, 11.4786777 ], [ 7.967653, 11.4763298 ], [ 7.9668023, 11.4754816 ], [ 7.964823, 11.4735085 ], [ 7.9626903, 11.4713823 ], [ 7.9591821, 11.4693698 ], [ 7.9568719, 11.4676088 ], [ 7.9564853, 11.4674136 ], [ 7.955983, 11.4671601 ], [ 7.9540482, 11.4661832 ], [ 7.9487432, 11.4661832 ], [ 7.9448533, 11.4643321 ], [ 7.9447952, 11.4643962 ], [ 7.944663, 11.464257 ], [ 7.9445346, 11.4640893 ], [ 7.9445275, 11.4639006 ], [ 7.9446074, 11.4638209 ], [ 7.9449197, 11.4635093 ], [ 7.9450552, 11.4632996 ], [ 7.9450266, 11.4631319 ], [ 7.9447771, 11.4630551 ], [ 7.9444419, 11.4630061 ], [ 7.9441211, 11.4631319 ], [ 7.9430559, 11.4630847 ], [ 7.9426807, 11.4631878 ], [ 7.9424953, 11.4631878 ], [ 7.9422376, 11.4629478 ], [ 7.9418262, 11.4616483 ], [ 7.9417623, 11.4609387 ], [ 7.9420132, 11.4603422 ], [ 7.9418811, 11.4596866 ], [ 7.9410184, 11.4592201 ], [ 7.9405304, 11.4590914 ], [ 7.9397948, 11.4591361 ], [ 7.9392002, 11.458699 ], [ 7.9383157, 11.4581348 ], [ 7.9376769, 11.4573658 ], [ 7.9376681, 11.4571141 ], [ 7.9376588, 11.4568472 ], [ 7.9372015, 11.4564438 ], [ 7.9369339, 11.4563545 ], [ 7.9367016, 11.456277 ], [ 7.9366662, 11.4560776 ], [ 7.9365514, 11.4554308 ], [ 7.9358203, 11.4551841 ], [ 7.9357711, 11.455179 ], [ 7.9351813, 11.4551181 ], [ 7.9346182, 11.4553388 ], [ 7.9333232, 11.454695 ], [ 7.9331918, 11.4543823 ], [ 7.9333841, 11.4540068 ], [ 7.932952, 11.4535729 ], [ 7.9326366, 11.4535098 ], [ 7.93139, 11.4532602 ], [ 7.9312586, 11.4530026 ], [ 7.9315401, 11.4526531 ], [ 7.9314946, 11.4525895 ], [ 7.9312838, 11.452295 ], [ 7.930658, 11.4514206 ], [ 7.9308081, 11.4507952 ], [ 7.930997, 11.4503273 ], [ 7.930829, 11.449175 ], [ 7.9301512, 11.4484406 ], [ 7.9294029, 11.4485635 ], [ 7.927486, 11.4475576 ], [ 7.9271535, 11.4471449 ], [ 7.9272125, 11.4470191 ], [ 7.927486, 11.4464355 ], [ 7.9272233, 11.4461412 ], [ 7.9265254, 11.4463292 ], [ 7.926191, 11.4463251 ], [ 7.9260479, 11.4460546 ], [ 7.9253678, 11.4456289 ], [ 7.9249851, 11.4455111 ], [ 7.9242928, 11.4447197 ], [ 7.9241511, 11.4444191 ], [ 7.9240138, 11.4439889 ], [ 7.9238532, 11.4439285 ], [ 7.9234353, 11.4437715 ], [ 7.9230213, 11.4434984 ], [ 7.9229431, 11.4432362 ], [ 7.9228232, 11.442835 ], [ 7.9223914, 11.4426523 ], [ 7.9216148, 11.4420682 ], [ 7.92144, 11.4416748 ], [ 7.9206699, 11.4410598 ], [ 7.9204949, 11.4409143 ], [ 7.9201444, 11.4407449 ], [ 7.9193489, 11.440434 ], [ 7.9191457, 11.4403967 ], [ 7.9191206, 11.4404259 ], [ 7.9189393, 11.4406367 ], [ 7.9187161, 11.4408362 ], [ 7.9184309, 11.4407383 ], [ 7.9183454, 11.4404588 ], [ 7.9184994, 11.4400315 ], [ 7.9184592, 11.4398791 ], [ 7.9182313, 11.4398158 ], [ 7.9180463, 11.4401049 ], [ 7.9179033, 11.4401653 ], [ 7.9177036, 11.4401094 ], [ 7.9176038, 11.4396481 ], [ 7.9177534, 11.4393755 ], [ 7.917739, 11.4391967 ], [ 7.9176142, 11.4390226 ], [ 7.9176766, 11.4389144 ], [ 7.9178782, 11.4388767 ], [ 7.9180791, 11.4388405 ], [ 7.9181613, 11.4384011 ], [ 7.9181903, 11.4382462 ], [ 7.9180917, 11.4379066 ], [ 7.9177822, 11.4376156 ], [ 7.9172085, 11.4373134 ], [ 7.9168412, 11.4369474 ], [ 7.9166871, 11.4365662 ], [ 7.9169248, 11.4361586 ], [ 7.9169842, 11.4355762 ], [ 7.9168412, 11.4353474 ], [ 7.9166871, 11.435285 ], [ 7.9158916, 11.4353271 ], [ 7.9152468, 11.4349971 ], [ 7.9146661, 11.4347 ], [ 7.9144984, 11.4342378 ], [ 7.9141015, 11.4340459 ], [ 7.913984, 11.4341233 ], [ 7.9139371, 11.4341541 ], [ 7.913341, 11.4345467 ], [ 7.9126755, 11.4344535 ], [ 7.9118911, 11.4338595 ], [ 7.9118174, 11.4337414 ], [ 7.9115346, 11.4332887 ], [ 7.9112665, 11.4333252 ], [ 7.9109892, 11.4334562 ], [ 7.9109567, 11.4334716 ], [ 7.9107027, 11.4335916 ], [ 7.9101576, 11.4333445 ], [ 7.909907, 11.4331583 ], [ 7.90955, 11.43351 ], [ 7.9093955, 11.4335217 ], [ 7.9088146, 11.4327931 ], [ 7.9082546, 11.4321123 ], [ 7.9077555, 11.4318677 ], [ 7.9072682, 11.4317512 ], [ 7.9069117, 11.4313901 ], [ 7.9066503, 11.4313784 ], [ 7.906674, 11.431658 ], [ 7.9065314, 11.4317628 ], [ 7.9058184, 11.4315415 ], [ 7.9054856, 11.4319259 ], [ 7.9051424, 11.4321409 ], [ 7.9049746, 11.4320307 ], [ 7.9039455, 11.4323275 ], [ 7.9033109, 11.4323126 ], [ 7.9033297, 11.4320817 ], [ 7.9033489, 11.4318467 ], [ 7.9029078, 11.4319132 ], [ 7.9026073, 11.4319585 ], [ 7.9019172, 11.4316694 ], [ 7.901915, 11.431611 ], [ 7.9019038, 11.4313062 ], [ 7.9015996, 11.4313062 ], [ 7.9014797, 11.4314921 ], [ 7.9014271, 11.4315736 ], [ 7.9006738, 11.4314263 ], [ 7.9004777, 11.4315858 ], [ 7.9000594, 11.4313062 ], [ 7.8998801, 11.4310551 ], [ 7.8996601, 11.4307471 ], [ 7.8995301, 11.4307811 ], [ 7.899354, 11.4308271 ], [ 7.8986143, 11.4310826 ], [ 7.8984052, 11.4309335 ], [ 7.8985514, 11.4304421 ], [ 7.8982994, 11.4303212 ], [ 7.8976446, 11.4302625 ], [ 7.8972833, 11.4298339 ], [ 7.8974417, 11.4291698 ], [ 7.8973248, 11.4288496 ], [ 7.8974806, 11.4286467 ], [ 7.8967889, 11.4276533 ], [ 7.8966368, 11.4275787 ], [ 7.8963706, 11.4279329 ], [ 7.8959523, 11.4279701 ], [ 7.8956291, 11.4277651 ], [ 7.895572, 11.4274856 ], [ 7.8951347, 11.4273365 ], [ 7.8947164, 11.4275042 ], [ 7.8942981, 11.427206 ], [ 7.8937847, 11.4272433 ], [ 7.8936706, 11.427001 ], [ 7.8930241, 11.4263673 ], [ 7.8930241, 11.4260691 ], [ 7.892948, 11.4251559 ], [ 7.8931002, 11.4241867 ], [ 7.8937657, 11.4230125 ], [ 7.8943171, 11.4222297 ], [ 7.8947074, 11.4212972 ], [ 7.8951917, 11.4208319 ], [ 7.8956671, 11.4200305 ], [ 7.8965616, 11.419073 ], [ 7.8966343, 11.418941 ], [ 7.8961855, 11.4183636 ], [ 7.8961434, 11.418276 ], [ 7.8956861, 11.4171789 ], [ 7.8949539, 11.416086 ], [ 7.8941927, 11.4137457 ], [ 7.8941485, 11.4136096 ], [ 7.8937738, 11.4131218 ], [ 7.8924532, 11.4107682 ], [ 7.8917401, 11.4107794 ], [ 7.8905755, 11.4090553 ], [ 7.8906364, 11.4083457 ], [ 7.8902917, 11.4076118 ], [ 7.8898806, 11.4070409 ], [ 7.8896821, 11.4066352 ], [ 7.8894212, 11.4061744 ], [ 7.8893, 11.4056 ], [ 7.8891182, 11.4052366 ], [ 7.8884249, 11.4044623 ], [ 7.8879511, 11.4040644 ], [ 7.8870029, 11.4032679 ], [ 7.8865474, 11.4025495 ], [ 7.8860462, 11.4020389 ], [ 7.8854282, 11.4012875 ], [ 7.8852991, 11.4017503 ], [ 7.8852559, 11.4019049 ], [ 7.8851133, 11.4021428 ], [ 7.8846018, 11.4015516 ], [ 7.883503, 11.4000177 ], [ 7.8833485, 11.3997905 ], [ 7.8826528, 11.3994601 ], [ 7.8828203, 11.398991 ], [ 7.8828558, 11.3988023 ], [ 7.882868, 11.3987376 ], [ 7.8829475, 11.3985777 ], [ 7.88304, 11.3984216 ], [ 7.8830083, 11.3982195 ], [ 7.8830271, 11.3980319 ], [ 7.8830112, 11.3977551 ], [ 7.8829063, 11.3975677 ], [ 7.8828211, 11.3972896 ], [ 7.8827929, 11.3972077 ], [ 7.8825925, 11.3967612 ], [ 7.8824489, 11.3961043 ], [ 7.8823129, 11.3956413 ], [ 7.8822978, 11.395564 ], [ 7.8822708, 11.3952029 ], [ 7.8822503, 11.3951082 ], [ 7.8820578, 11.3948356 ], [ 7.8816513, 11.394556 ], [ 7.8811665, 11.3941157 ], [ 7.8806032, 11.3935774 ], [ 7.8801539, 11.3930043 ], [ 7.8798616, 11.3923053 ], [ 7.8797903, 11.3919139 ], [ 7.8793253, 11.3919343 ], [ 7.8789816, 11.3919494 ], [ 7.8790283, 11.3914419 ], [ 7.879067, 11.3913434 ], [ 7.8791906, 11.3898802 ], [ 7.8792121, 11.389048 ], [ 7.879081, 11.3884111 ], [ 7.8790557, 11.3872488 ], [ 7.8789183, 11.3862289 ], [ 7.8776349, 11.3860574 ], [ 7.8764084, 11.3858934 ], [ 7.8750393, 11.3857163 ], [ 7.8741742, 11.385474 ], [ 7.872653, 11.3849614 ], [ 7.8693017, 11.3838383 ], [ 7.868717, 11.3832232 ], [ 7.8684461, 11.3829156 ], [ 7.8679897, 11.3824962 ], [ 7.8671341, 11.3820488 ], [ 7.8665757, 11.3819642 ], [ 7.866036, 11.3817832 ], [ 7.8658791, 11.3821607 ], [ 7.8652802, 11.3824822 ], [ 7.8648238, 11.382622 ], [ 7.8642392, 11.3829995 ], [ 7.863412, 11.3835727 ], [ 7.8604173, 11.3845373 ], [ 7.8599467, 11.3845233 ], [ 7.8597042, 11.3849148 ], [ 7.8592336, 11.3849148 ], [ 7.8593192, 11.3853202 ], [ 7.8586632, 11.385432 ], [ 7.8584635, 11.3852783 ], [ 7.8581498, 11.3852643 ], [ 7.8578362, 11.3854528 ], [ 7.8571269, 11.3854706 ], [ 7.8567456, 11.384843 ], [ 7.8564223, 11.3836034 ], [ 7.8562702, 11.3825409 ], [ 7.8562892, 11.3821308 ], [ 7.855947, 11.3815623 ], [ 7.8557283, 11.380854 ], [ 7.8557473, 11.3804905 ], [ 7.8557663, 11.3802575 ], [ 7.855712, 11.379826 ], [ 7.8558009, 11.379576 ], [ 7.8558899, 11.3793255 ], [ 7.8558709, 11.3788315 ], [ 7.8558519, 11.3782257 ], [ 7.8557853, 11.3780654 ], [ 7.8556703, 11.3780654 ], [ 7.8554019, 11.3780278 ], [ 7.8552804, 11.3779965 ], [ 7.8549772, 11.377974 ], [ 7.8543446, 11.3781193 ], [ 7.8540542, 11.3782098 ], [ 7.8537333, 11.3782867 ], [ 7.8535622, 11.3782798 ], [ 7.8532983, 11.3783007 ], [ 7.8530488, 11.3783077 ], [ 7.8528349, 11.3783217 ], [ 7.8526495, 11.3783217 ], [ 7.8525069, 11.3783357 ], [ 7.8523143, 11.3782798 ], [ 7.8522145, 11.3782588 ], [ 7.8521432, 11.3782378 ], [ 7.8520862, 11.3782448 ], [ 7.8520505, 11.3782448 ], [ 7.8519703, 11.3782471 ], [ 7.8513286, 11.378366 ], [ 7.851136, 11.378317 ], [ 7.8505799, 11.3783869 ], [ 7.8495034, 11.3782746 ], [ 7.8489256, 11.3780794 ], [ 7.8487331, 11.3781493 ], [ 7.8482126, 11.3779955 ], [ 7.847799, 11.3777229 ], [ 7.8468792, 11.3773803 ], [ 7.8460079, 11.3774316 ], [ 7.8455563, 11.3774456 ], [ 7.8451998, 11.3774968 ], [ 7.8449788, 11.3774711 ], [ 7.8442182, 11.3774595 ], [ 7.8438258, 11.3774978 ], [ 7.8434422, 11.3774294 ], [ 7.8431477, 11.3773164 ], [ 7.8430138, 11.3772956 ], [ 7.8428741, 11.3773104 ], [ 7.842645, 11.3773134 ], [ 7.8424874, 11.3773283 ], [ 7.8423982, 11.377361 ], [ 7.8423446, 11.3774026 ], [ 7.8422732, 11.3774235 ], [ 7.8421572, 11.3774443 ], [ 7.8420383, 11.3774651 ], [ 7.841842, 11.377474 ], [ 7.8416605, 11.377477 ], [ 7.8415059, 11.377477 ], [ 7.8413661, 11.377483 ], [ 7.8412263, 11.377477 ], [ 7.8411311, 11.3774621 ], [ 7.8410538, 11.3774354 ], [ 7.8409586, 11.3774056 ], [ 7.8408575, 11.3773699 ], [ 7.8407653, 11.3773432 ], [ 7.8406939, 11.3773164 ], [ 7.8405771, 11.3772767 ], [ 7.8404914, 11.377291 ], [ 7.84042, 11.3773517 ], [ 7.8403594, 11.3774481 ], [ 7.8402987, 11.3775123 ], [ 7.8401952, 11.3775409 ], [ 7.8400917, 11.3775801 ], [ 7.8399434, 11.3776977 ], [ 7.8398006, 11.3777453 ], [ 7.8396721, 11.3777501 ], [ 7.8394508, 11.3777001 ], [ 7.8392485, 11.3776354 ], [ 7.8390106, 11.3776021 ], [ 7.8387251, 11.3775355 ], [ 7.8385038, 11.3775183 ], [ 7.8380875, 11.3773956 ], [ 7.8375353, 11.3772329 ], [ 7.8373273, 11.3772038 ], [ 7.8368519, 11.3773144 ], [ 7.8365881, 11.3772841 ], [ 7.83624, 11.3773434 ], [ 7.8359383, 11.377385 ], [ 7.8355484, 11.3768385 ], [ 7.8354868, 11.3766507 ], [ 7.8353584, 11.3762872 ], [ 7.835327, 11.3762333 ], [ 7.8352215, 11.3760521 ], [ 7.8350195, 11.3756453 ], [ 7.8349855, 11.3755961 ], [ 7.834737, 11.3752365 ], [ 7.8345155, 11.3748125 ], [ 7.8342303, 11.3745934 ], [ 7.8340469, 11.3743118 ], [ 7.8339404, 11.3740342 ], [ 7.8337824, 11.3738434 ], [ 7.8336504, 11.3736008 ], [ 7.8334807, 11.3734719 ], [ 7.8331655, 11.3732327 ], [ 7.8330722, 11.373104 ], [ 7.8330271, 11.3728956 ], [ 7.8329342, 11.3724658 ], [ 7.8328629, 11.3718856 ], [ 7.8327417, 11.3718646 ], [ 7.8325491, 11.3718087 ], [ 7.8320583, 11.3716644 ], [ 7.8318361, 11.371599 ], [ 7.8305509, 11.370924 ], [ 7.8290814, 11.3704283 ], [ 7.8278216, 11.3699776 ], [ 7.8277266, 11.3699437 ], [ 7.8268044, 11.3695988 ], [ 7.8267179, 11.3697705 ], [ 7.8267015, 11.3698029 ], [ 7.8257444, 11.3712538 ], [ 7.8254562, 11.3710179 ], [ 7.8253433, 11.3708839 ], [ 7.8252839, 11.3707266 ], [ 7.8252639, 11.3705896 ], [ 7.8250842, 11.3707168 ], [ 7.8247885, 11.3708839 ], [ 7.8242669, 11.3712546 ], [ 7.8240971, 11.3712786 ], [ 7.8238661, 11.3713402 ], [ 7.8235336, 11.3715689 ], [ 7.8231699, 11.3715957 ], [ 7.82314, 11.3716535 ], [ 7.8230796, 11.3716682 ], [ 7.8226337, 11.3718392 ], [ 7.8225528, 11.3719149 ], [ 7.822498, 11.3719376 ], [ 7.822405, 11.3720111 ], [ 7.8223327, 11.3720658 ], [ 7.8222548, 11.3721841 ], [ 7.8218448, 11.3728307 ], [ 7.8215074, 11.3732702 ], [ 7.8213612, 11.3734936 ], [ 7.8212328, 11.3733433 ], [ 7.8210546, 11.3730171 ], [ 7.8208406, 11.3729064 ], [ 7.8200622, 11.372473 ], [ 7.8197131, 11.3723277 ], [ 7.8194924, 11.3722358 ], [ 7.8184365, 11.3734377 ], [ 7.8138588, 11.3774222 ], [ 7.8135331, 11.3775466 ], [ 7.8134714, 11.3783062 ], [ 7.8134999, 11.378474 ], [ 7.8120449, 11.3789152 ], [ 7.8117363, 11.3790087 ], [ 7.8112581, 11.3791751 ], [ 7.810039, 11.378936 ], [ 7.8097683, 11.3788829 ], [ 7.809447, 11.3786718 ], [ 7.8082282, 11.3783097 ], [ 7.8061604, 11.3774989 ], [ 7.8060807, 11.3770398 ], [ 7.806152, 11.376215 ], [ 7.8060665, 11.3758095 ], [ 7.8060642, 11.3753623 ], [ 7.8058526, 11.3743975 ], [ 7.8056814, 11.3738103 ], [ 7.8053962, 11.3734049 ], [ 7.8054105, 11.3725101 ], [ 7.805496, 11.3720208 ], [ 7.8055198, 11.3716957 ], [ 7.8051205, 11.3717097 ], [ 7.804764, 11.3720312 ], [ 7.8040774, 11.3723768 ], [ 7.8035661, 11.3725485 ], [ 7.8028397, 11.3726383 ], [ 7.8016333, 11.3736068 ], [ 7.8013338, 11.374113 ], [ 7.8004655, 11.3767392 ], [ 7.7984425, 11.3767361 ], [ 7.7984148, 11.3764035 ], [ 7.7983766, 11.3761216 ], [ 7.7982466, 11.375732 ], [ 7.7979276, 11.3749829 ], [ 7.797367, 11.3738909 ], [ 7.7966421, 11.3724579 ], [ 7.7961965, 11.3717705 ], [ 7.7954786, 11.3720118 ], [ 7.794943, 11.3714806 ], [ 7.7946055, 11.3710099 ], [ 7.7940873, 11.3703482 ], [ 7.7934649, 11.3692592 ], [ 7.7909218, 11.3644124 ], [ 7.7898878, 11.3612316 ], [ 7.7889965, 11.3598801 ], [ 7.7831077, 11.3611458 ], [ 7.7809686, 11.3621245 ], [ 7.7786218, 11.3641211 ], [ 7.7774703, 11.3649446 ], [ 7.7792279, 11.3660202 ], [ 7.7787882, 11.3665096 ], [ 7.7780395, 11.3674183 ], [ 7.7778018, 11.3675348 ], [ 7.7764471, 11.3685018 ], [ 7.7759717, 11.3690611 ], [ 7.7754726, 11.3702495 ], [ 7.7754845, 11.3704708 ], [ 7.7751279, 11.3719039 ], [ 7.775223, 11.3720903 ], [ 7.7749734, 11.3726728 ], [ 7.7749021, 11.3734534 ], [ 7.7751755, 11.3740126 ], [ 7.7751874, 11.3745136 ], [ 7.7754998, 11.37494 ], [ 7.7726096, 11.3764872 ], [ 7.7716874, 11.3774379 ], [ 7.7714498, 11.3777361 ], [ 7.7711833, 11.3781373 ], [ 7.7708888, 11.3783047 ], [ 7.770461, 11.3785097 ], [ 7.7696814, 11.3787334 ], [ 7.7695483, 11.3788359 ], [ 7.7693772, 11.3791249 ], [ 7.7689589, 11.3791155 ], [ 7.7684645, 11.3789757 ], [ 7.7683219, 11.3789757 ], [ 7.7675708, 11.3791528 ], [ 7.7669814, 11.3794697 ], [ 7.7666581, 11.379479 ], [ 7.7659356, 11.3793486 ], [ 7.7652226, 11.3793486 ], [ 7.7648042, 11.3792833 ], [ 7.7630264, 11.3778014 ], [ 7.7600052, 11.3754064 ], [ 7.7570876, 11.3771132 ], [ 7.7562676, 11.3757268 ], [ 7.7555902, 11.3741889 ], [ 7.7548164, 11.3724302 ], [ 7.7543186, 11.3724996 ], [ 7.7540222, 11.3724667 ], [ 7.7537517, 11.3723749 ], [ 7.7529037, 11.3720842 ], [ 7.7524875, 11.3719108 ], [ 7.7520713, 11.3716558 ], [ 7.7518423, 11.3715282 ], [ 7.7516238, 11.3714925 ], [ 7.7511764, 11.3714976 ], [ 7.7508747, 11.3714466 ], [ 7.7506579, 11.3714445 ] ] ] } }
]
}
