{
"type": "FeatureCollection",
"name": "Yobe_state_boundary",
"crs": { "type": "name", "properties": { "name": "urn:ogc:def:crs:OGC:1.3:CRS84" } },
"features": [
{ "type": "Feature", "properties": { "state_code": "YO", "state_name": "Yobe", "cap_city": "Damaturu", "geo_zone": "NEZ" }, "geometry": { "type": "Polygon", "coordinates": [ [ [ 11.5833073, 10.5938692 ], [ 11.5728951, 10.5924673 ], [ 11.5613117, 10.5916185 ], [ 11.5515289, 10.5879116 ], [ 11.5449944, 10.5824413 ], [ 11.5372763, 10.5759802 ], [ 11.5327358, 10.5712347 ], [ 11.5275898, 10.5676346 ], [ 11.5218735, 10.5689993 ], [ 11.52185, 10.5690049 ], [ 11.5165138, 10.5702782 ], [ 11.5127211, 10.5852709 ], [ 11.5133734, 10.5949774 ], [ 11.5123978, 10.5998373 ], [ 11.5134201, 10.6073294 ], [ 11.5170294, 10.6214369 ], [ 11.521451, 10.6394176 ], [ 11.5226609, 10.6485285 ], [ 11.5241852, 10.6600065 ], [ 11.5227194, 10.66148 ], [ 11.5180923, 10.678103 ], [ 11.5164604, 10.6839657 ], [ 11.5150709, 10.6949539 ], [ 11.5154686, 10.7036638 ], [ 11.5168571, 10.7205172 ], [ 11.5166149, 10.7321129 ], [ 11.5185642, 10.7399015 ], [ 11.5198269, 10.7449484 ], [ 11.5265179, 10.757864 ], [ 11.5269623, 10.7734833 ], [ 11.5284014, 10.7787905 ], [ 11.5284798, 10.781492 ], [ 11.5285091, 10.7825022 ], [ 11.528739, 10.7903976 ], [ 11.5302963, 10.7991352 ], [ 11.5326777, 10.8041353 ], [ 11.5321127, 10.8068846 ], [ 11.5321782, 10.807074 ], [ 11.5340767, 10.8125639 ], [ 11.534791, 10.8161316 ], [ 11.5361776, 10.8230534 ], [ 11.5364399, 10.8287745 ], [ 11.5344105, 10.83354 ], [ 11.5362962, 10.8367432 ], [ 11.5365885, 10.8372397 ], [ 11.538146, 10.83992 ], [ 11.5390749, 10.8509626 ], [ 11.5364885, 10.8636637 ], [ 11.5313902, 10.8710699 ], [ 11.5286741, 10.8768234 ], [ 11.5284176, 10.8797379 ], [ 11.5281286, 10.8830299 ], [ 11.5277872, 10.8869133 ], [ 11.5273771, 10.8915854 ], [ 11.5289049, 10.8934011 ], [ 11.529788, 10.8979206 ], [ 11.531004, 10.9041405 ], [ 11.5318737, 10.9180803 ], [ 11.5315056, 10.9232721 ], [ 11.5310516, 10.9296618 ], [ 11.5304526, 10.9341847 ], [ 11.5303621, 10.9348669 ], [ 11.5273066, 10.9423361 ], [ 11.5213421, 10.9532841 ], [ 11.519599, 10.9568434 ], [ 11.5170269, 10.9623985 ], [ 11.5149925, 10.9659198 ], [ 11.5131205, 10.9683379 ], [ 11.5109836, 10.9710982 ], [ 11.5092602, 10.9732399 ], [ 11.5085267, 10.974134 ], [ 11.5084942, 10.9741716 ], [ 11.5045739, 10.9790063 ], [ 11.4949703, 10.9908895 ], [ 11.4884834, 10.9959593 ], [ 11.4825411, 11.0027819 ], [ 11.4793563, 11.0080872 ], [ 11.4734156, 11.0175359 ], [ 11.4705458, 11.0216455 ], [ 11.4568968, 11.0364094 ], [ 11.4521828, 11.0422049 ], [ 11.4485617, 11.0466566 ], [ 11.4432592, 11.0505943 ], [ 11.4348536, 11.0559082 ], [ 11.4274654, 11.0640841 ], [ 11.4207973, 11.0708084 ], [ 11.4172525, 11.0737724 ], [ 11.4121199, 11.0802097 ], [ 11.4071913, 11.0833998 ], [ 11.4024563, 11.0879307 ], [ 11.4001389, 11.0890875 ], [ 11.3943548, 11.0919743 ], [ 11.3911402, 11.0901644 ], [ 11.3907535, 11.0902717 ], [ 11.3867292, 11.0908432 ], [ 11.3830364, 11.0924051 ], [ 11.3781049, 11.0943743 ], [ 11.3750146, 11.0967712 ], [ 11.3711963, 11.0984317 ], [ 11.3715012, 11.0989917 ], [ 11.3725862, 11.0998826 ], [ 11.3730621, 11.1008249 ], [ 11.3738235, 11.1015197 ], [ 11.3743184, 11.1017229 ], [ 11.3742328, 11.1027794 ], [ 11.3745469, 11.1037692 ], [ 11.3743375, 11.104306 ], [ 11.3741626, 11.1050346 ], [ 11.3727004, 11.1061087 ], [ 11.3746449, 11.1094559 ], [ 11.3749533, 11.1101412 ], [ 11.3744051, 11.110678 ], [ 11.3734685, 11.1117402 ], [ 11.3732114, 11.1139513 ], [ 11.3686801, 11.1185228 ], [ 11.3650214, 11.1223827 ], [ 11.3599965, 11.127455 ], [ 11.3571352, 11.134843 ], [ 11.3548763, 11.1441517 ], [ 11.347949, 11.1527213 ], [ 11.3415572, 11.1637591 ], [ 11.3193819, 11.1862312 ], [ 11.3114452, 11.1689156 ], [ 11.3097457, 11.1690764 ], [ 11.2754502, 11.1723213 ], [ 11.2485632, 11.1835739 ], [ 11.2237558, 11.1648305 ], [ 11.2008758, 11.1750904 ], [ 11.198166, 11.1799281 ], [ 11.1818959, 11.1990211 ], [ 11.1651277, 11.2011534 ], [ 11.1337863, 11.2077738 ], [ 11.0918664, 11.2260974 ], [ 11.0774435, 11.2867177 ], [ 10.981716, 11.17882 ], [ 10.9663395, 11.1959042 ], [ 10.94558, 11.2189703 ], [ 10.9260397, 11.2512144 ], [ 10.9478363, 11.2657659 ], [ 10.944269, 11.2757696 ], [ 10.9206333, 11.2678682 ], [ 10.9189918, 11.2681275 ], [ 10.917944, 11.2687667 ], [ 10.9170399, 11.2708963 ], [ 10.9280398, 11.2844202 ], [ 10.9317869, 11.3066837 ], [ 10.9330956, 11.3148929 ], [ 10.9102792, 11.3309085 ], [ 10.9207244, 11.3864471 ], [ 10.9207244, 11.3939518 ], [ 10.9207244, 11.4259205 ], [ 10.922183, 11.4287062 ], [ 10.9238729, 11.4319334 ], [ 10.925561, 11.4351568 ], [ 10.9298172, 11.4432859 ], [ 10.9300747, 11.4463768 ], [ 10.9305134, 11.4516307 ], [ 10.9311619, 11.4593983 ], [ 10.9325619, 11.4611157 ], [ 10.9334297, 11.4621801 ], [ 10.9344092, 11.4677939 ], [ 10.9346497, 11.469172 ], [ 10.9355898, 11.4745598 ], [ 10.9350204, 11.4781199 ], [ 10.9356098, 11.4814997 ], [ 10.9336758, 11.4863577 ], [ 10.9346733, 11.4956131 ], [ 10.9306002, 11.5008297 ], [ 10.9300299, 11.5043898 ], [ 10.9296503, 11.5090799 ], [ 10.9295422, 11.5104125 ], [ 10.9292698, 11.5137701 ], [ 10.9296598, 11.5160303 ], [ 10.9288902, 11.5184698 ], [ 10.9283199, 11.5220299 ], [ 10.9278905, 11.5247412 ], [ 10.9277401, 11.5256004 ], [ 10.9293306, 11.5346757 ], [ 10.9394949, 11.5540355 ], [ 10.9324562, 11.5670438 ], [ 10.9321299, 11.5711803 ], [ 10.9307804, 11.5771904 ], [ 10.9301996, 11.5807505 ], [ 10.9300537, 11.5812132 ], [ 10.9286604, 11.5856304 ], [ 10.9286284, 11.586003 ], [ 10.9282528, 11.5906494 ], [ 10.9279003, 11.5950098 ], [ 10.92733, 11.5985804 ], [ 10.9271498, 11.6043997 ], [ 10.9269695, 11.6102104 ], [ 10.9275599, 11.6135902 ], [ 10.9271028, 11.6156223 ], [ 10.9273495, 11.6317954 ], [ 10.927879, 11.6403994 ], [ 10.9287109, 11.65271 ], [ 10.9289311, 11.6574967 ], [ 10.9281926, 11.6602854 ], [ 10.928611, 11.663209 ], [ 10.9286881, 11.6664866 ], [ 10.9208841, 11.7183927 ], [ 10.926534, 11.7392834 ], [ 10.9277237, 11.776641 ], [ 10.9242297, 11.7845582 ], [ 10.9080122, 11.8213065 ], [ 10.9053568, 11.8273235 ], [ 10.8775171, 11.8289891 ], [ 10.8740481, 11.8344047 ], [ 10.8657539, 11.8473529 ], [ 10.8604965, 11.8555601 ], [ 10.840747, 11.8729302 ], [ 10.8170004, 11.8861303 ], [ 10.8166199, 11.89083 ], [ 10.8163502, 11.894162 ], [ 10.816298, 11.8948072 ], [ 10.8162403, 11.8955202 ], [ 10.8148899, 11.9015198 ], [ 10.8145885, 11.9059712 ], [ 10.8127899, 11.9169102 ], [ 10.8064003, 11.92836 ], [ 10.8046598, 11.9321098 ], [ 10.8027201, 11.9347401 ], [ 10.8019578, 11.9363869 ], [ 10.8032778, 11.9372275 ], [ 10.8031827, 11.9382042 ], [ 10.8030639, 11.9392041 ], [ 10.8037056, 11.9405993 ], [ 10.803754, 11.9415517 ], [ 10.8032065, 11.9425294 ], [ 10.8026996, 11.9431876 ], [ 10.8015427, 11.9431572 ], [ 10.8003543, 11.9433897 ], [ 10.7999046, 11.9439204 ], [ 10.7997839, 11.9445292 ], [ 10.799665, 11.9456686 ], [ 10.7998314, 11.9463429 ], [ 10.8007346, 11.946901 ], [ 10.8014001, 11.9475753 ], [ 10.8018279, 11.9474823 ], [ 10.8027311, 11.9475288 ], [ 10.8034679, 11.94718 ], [ 10.8033966, 11.9463894 ], [ 10.8036785, 11.9458028 ], [ 10.8044899, 11.9457383 ], [ 10.8055543, 11.9454476 ], [ 10.8067717, 11.9472963 ], [ 10.8064864, 11.9481799 ], [ 10.8055928, 11.9491435 ], [ 10.8049178, 11.9500634 ], [ 10.804894, 11.9508307 ], [ 10.8056308, 11.9526445 ], [ 10.8069812, 11.9547387 ], [ 10.807247, 11.955458 ], [ 10.8069489, 11.9564231 ], [ 10.807247, 11.9573182 ], [ 10.8081027, 11.9574577 ], [ 10.8088148, 11.957097 ], [ 10.8097189, 11.9571787 ], [ 10.8105745, 11.9566904 ], [ 10.811145, 11.9558998 ], [ 10.8118342, 11.9550395 ], [ 10.8126661, 11.9543651 ], [ 10.8136639, 11.9545801 ], [ 10.8140447, 11.9550627 ], [ 10.8140447, 11.9558068 ], [ 10.8137357, 11.9565974 ], [ 10.8139258, 11.9579228 ], [ 10.8132841, 11.9588528 ], [ 10.8128087, 11.9596667 ], [ 10.812167, 11.9606898 ], [ 10.8115253, 11.9615733 ], [ 10.811122, 11.9625728 ], [ 10.8115728, 11.9636427 ], [ 10.8110261, 11.964224 ], [ 10.8102418, 11.9647356 ], [ 10.8096739, 11.9654409 ], [ 10.809814, 11.9658749 ], [ 10.8103179, 11.9663925 ], [ 10.8110737, 11.966898 ], [ 10.8107296, 11.967622 ], [ 10.8109114, 11.9681652 ], [ 10.8128325, 11.9690371 ], [ 10.8138045, 11.9688609 ], [ 10.8140684, 11.9684558 ], [ 10.8146864, 11.9684791 ], [ 10.8156609, 11.9689441 ], [ 10.8170008, 11.9696296 ], [ 10.8182447, 11.9699287 ], [ 10.8186978, 11.970481 ], [ 10.8188547, 11.971039 ], [ 10.8187121, 11.9713738 ], [ 10.8182843, 11.9717644 ], [ 10.8181274, 11.9722109 ], [ 10.8177566, 11.972727 ], [ 10.8173145, 11.9731316 ], [ 10.8171434, 11.9739826 ], [ 10.8169865, 11.9750428 ], [ 10.8169758, 11.9761051 ], [ 10.8172004, 11.9766332 ], [ 10.8176711, 11.9768145 ], [ 10.8182985, 11.9770796 ], [ 10.8183271, 11.9776515 ], [ 10.8185552, 11.9786002 ], [ 10.818698, 11.9794151 ], [ 10.8188404, 11.9797441 ], [ 10.819311, 11.9799115 ], [ 10.8199813, 11.9798696 ], [ 10.8206658, 11.9798278 ], [ 10.8207942, 11.979479 ], [ 10.8210794, 11.9787955 ], [ 10.8215072, 11.9782095 ], [ 10.8215642, 11.9777073 ], [ 10.8217496, 11.9770656 ], [ 10.8221347, 11.9767587 ], [ 10.8227764, 11.9766192 ], [ 10.8232613, 11.9767866 ], [ 10.8236606, 11.9772051 ], [ 10.8237176, 11.9776515 ], [ 10.8234752, 11.9780142 ], [ 10.8235754, 11.9784667 ], [ 10.8239743, 11.9791721 ], [ 10.8240456, 11.979758 ], [ 10.8238032, 11.9801347 ], [ 10.8234182, 11.9805811 ], [ 10.8230331, 11.9808182 ], [ 10.8226338, 11.9806648 ], [ 10.8221775, 11.9806927 ], [ 10.821935, 11.9809298 ], [ 10.8217211, 11.9812228 ], [ 10.8212362, 11.9816134 ], [ 10.8203236, 11.9822132 ], [ 10.8196105, 11.9824922 ], [ 10.8189117, 11.982562 ], [ 10.8184554, 11.9827294 ], [ 10.8183698, 11.983134 ], [ 10.8185267, 11.9835804 ], [ 10.8187977, 11.983971 ], [ 10.8194251, 11.9843058 ], [ 10.8200954, 11.9846405 ], [ 10.8208512, 11.9849614 ], [ 10.821607, 11.9850172 ], [ 10.8223486, 11.9851985 ], [ 10.8228049, 11.9855333 ], [ 10.8225197, 11.9859518 ], [ 10.8219493, 11.9865238 ], [ 10.8216213, 11.9871655 ], [ 10.8215928, 11.9877932 ], [ 10.8219335, 11.9882753 ], [ 10.8217069, 11.9897601 ], [ 10.8207739, 11.9914077 ], [ 10.8201952, 11.992829 ], [ 10.8200811, 11.9943077 ], [ 10.8204376, 11.9950749 ], [ 10.8225565, 11.9971967 ], [ 10.8228335, 11.9976974 ], [ 10.8225494, 11.9985912 ], [ 10.8216565, 11.9991862 ], [ 10.82056, 11.9999168 ], [ 10.818207, 11.9994983 ], [ 10.818207, 12.0029158 ], [ 10.8170578, 12.0039047 ], [ 10.815589, 12.0060808 ], [ 10.8156277, 12.0069869 ], [ 10.8151999, 12.0079869 ], [ 10.8157601, 12.0088705 ], [ 10.8176191, 12.0097365 ], [ 10.8183841, 12.0099027 ], [ 10.8189688, 12.0100283 ], [ 10.8193253, 12.0096516 ], [ 10.8194461, 12.0089085 ], [ 10.8205041, 12.0074123 ], [ 10.8222915, 12.0067782 ], [ 10.8227907, 12.0070851 ], [ 10.8243866, 12.0087976 ], [ 10.8257177, 12.0116803 ], [ 10.826193, 12.0133541 ], [ 10.8245768, 12.01447 ], [ 10.8226754, 12.014842 ], [ 10.822862, 12.0200559 ], [ 10.8230925, 12.0264925 ], [ 10.8258917, 12.0451105 ], [ 10.8259107, 12.0480039 ], [ 10.8256531, 12.0496423 ], [ 10.8223629, 12.0607508 ], [ 10.8217918, 12.0656049 ], [ 10.8266863, 12.0958846 ], [ 10.8244101, 12.1032747 ], [ 10.8237558, 12.10845 ], [ 10.8232204, 12.1094316 ], [ 10.8192051, 12.1121382 ], [ 10.8044189, 12.117057 ], [ 10.7994953, 12.1280418 ], [ 10.8031515, 12.1447638 ], [ 10.7949017, 12.1847422 ], [ 10.7921168, 12.2303491 ], [ 10.7895081, 12.2410793 ], [ 10.7895081, 12.253186 ], [ 10.7893916, 12.2749783 ], [ 10.7894446, 12.2750095 ], [ 10.7890163, 12.2783646 ], [ 10.7879455, 12.2821479 ], [ 10.7850188, 12.2872162 ], [ 10.7816637, 12.2908568 ], [ 10.7759387, 12.3097315 ], [ 10.7720705, 12.3295754 ], [ 10.7679236, 12.3508479 ], [ 10.766092, 12.3602418 ], [ 10.7642615, 12.3696319 ], [ 10.760716, 12.3970967 ], [ 10.7505082, 12.4761714 ], [ 10.7397555, 12.4836657 ], [ 10.7151732, 12.5007989 ], [ 10.6912596, 12.5143618 ], [ 10.6512846, 12.5293524 ], [ 10.6423836, 12.531157 ], [ 10.6142465, 12.5324657 ], [ 10.605502, 12.5280637 ], [ 10.5982147, 12.5220032 ], [ 10.5977013, 12.5238548 ], [ 10.595933, 12.5246344 ], [ 10.5940506, 12.5254697 ], [ 10.5926245, 12.5259152 ], [ 10.5909703, 12.5259152 ], [ 10.5897153, 12.5256924 ], [ 10.5891449, 12.5267504 ], [ 10.5890878, 12.5279198 ], [ 10.5904231, 12.5290638 ], [ 10.590628, 12.5308711 ], [ 10.592417, 12.5326722 ], [ 10.5939935, 12.5333212 ], [ 10.5962182, 12.5334883 ], [ 10.5981577, 12.5341565 ], [ 10.5988992, 12.5357713 ], [ 10.5981006, 12.5376088 ], [ 10.5969027, 12.5387782 ], [ 10.5956478, 12.5399475 ], [ 10.5943358, 12.5401702 ], [ 10.5927956, 12.5399475 ], [ 10.5915977, 12.5391679 ], [ 10.5902857, 12.5382213 ], [ 10.5890878, 12.5371077 ], [ 10.5876618, 12.5372747 ], [ 10.5864638, 12.5375531 ], [ 10.5860075, 12.5386111 ], [ 10.5863498, 12.540727 ], [ 10.5870016, 12.5425045 ], [ 10.5894871, 12.5449032 ], [ 10.59194, 12.5474645 ], [ 10.5943358, 12.5501372 ], [ 10.5954196, 12.5521973 ], [ 10.5951344, 12.5540904 ], [ 10.5946781, 12.5557608 ], [ 10.5942788, 12.5573755 ], [ 10.5944647, 12.5580813 ], [ 10.5946309, 12.5587124 ], [ 10.5964464, 12.5586004 ], [ 10.5980436, 12.5579879 ], [ 10.5992986, 12.558322 ], [ 10.5998663, 12.5587838 ], [ 10.6006676, 12.5594356 ], [ 10.6018084, 12.5608275 ], [ 10.60255, 12.5626092 ], [ 10.601946, 12.5646758 ], [ 10.6007817, 12.5647249 ], [ 10.5995838, 12.5643352 ], [ 10.5995438, 12.5643439 ], [ 10.5980436, 12.5646693 ], [ 10.5964464, 12.5650033 ], [ 10.5947351, 12.5655044 ], [ 10.5929668, 12.5655601 ], [ 10.5910273, 12.5651147 ], [ 10.5896012, 12.565226 ], [ 10.5878329, 12.5658385 ], [ 10.5864638, 12.5665623 ], [ 10.5857223, 12.5680099 ], [ 10.5854371, 12.5699029 ], [ 10.5859505, 12.5715731 ], [ 10.5868631, 12.5732434 ], [ 10.5876641, 12.5747728 ], [ 10.5885174, 12.5762498 ], [ 10.5900005, 12.5784211 ], [ 10.5911984, 12.579646 ], [ 10.5926815, 12.5809821 ], [ 10.5931949, 12.5822069 ], [ 10.5930809, 12.5836544 ], [ 10.5922822, 12.5852689 ], [ 10.5915526, 12.5873938 ], [ 10.5920873, 12.5887856 ], [ 10.5929147, 12.5900115 ], [ 10.5944641, 12.5905833 ], [ 10.5964844, 12.5907573 ], [ 10.5964968, 12.6168699 ], [ 10.5887948, 12.6421572 ], [ 10.5854744, 12.6434531 ], [ 10.5828124, 12.6456795 ], [ 10.581006, 12.6478131 ], [ 10.5816715, 12.6506888 ], [ 10.5827173, 12.6539355 ], [ 10.5824321, 12.6564401 ], [ 10.582337, 12.6596868 ], [ 10.583668, 12.661542 ], [ 10.5868054, 12.6635827 ], [ 10.5891822, 12.6637682 ], [ 10.5921527, 12.6641195 ], [ 10.5923196, 12.6641392 ], [ 10.5941141, 12.6640882 ], [ 10.5963126, 12.6633044 ], [ 10.5980279, 12.6802232 ], [ 10.5982699, 12.6833678 ], [ 10.5987225, 12.6861435 ], [ 10.5995631, 12.6898024 ], [ 10.6001451, 12.6930827 ], [ 10.6001451, 12.6951644 ], [ 10.5962808, 12.69733 ], [ 10.5938059, 12.6986258 ], [ 10.5933853, 12.7002977 ], [ 10.5933228, 12.7010319 ], [ 10.5947855, 12.7010319 ], [ 10.5964476, 12.7015508 ], [ 10.5975439, 12.7023255 ], [ 10.5986156, 12.7030827 ], [ 10.5986156, 12.7060969 ], [ 10.5841171, 12.7114296 ], [ 10.5806756, 12.7360999 ], [ 10.5763974, 12.7453359 ], [ 10.5730101, 12.7615054 ], [ 10.5721392, 12.7700565 ], [ 10.5686582, 12.7856899 ], [ 10.5690128, 12.7939972 ], [ 10.5684186, 12.7941421 ], [ 10.5677649, 12.7937655 ], [ 10.5672599, 12.7937944 ], [ 10.5664874, 12.7941421 ], [ 10.5657447, 12.7944028 ], [ 10.565299, 12.7950692 ], [ 10.5643186, 12.7961412 ], [ 10.56417, 12.7969234 ], [ 10.5637838, 12.7972131 ], [ 10.5628331, 12.7979085 ], [ 10.56212, 12.7979954 ], [ 10.561407, 12.7977057 ], [ 10.5608771, 12.7980273 ], [ 10.5606048, 12.7984589 ], [ 10.5611099, 12.7989515 ], [ 10.5604266, 12.7993281 ], [ 10.5605157, 12.7999655 ], [ 10.5605157, 12.8009505 ], [ 10.560278, 12.8017617 ], [ 10.5597135, 12.8025439 ], [ 10.5595947, 12.803442 ], [ 10.5596838, 12.8052093 ], [ 10.5589889, 12.8054686 ], [ 10.5588222, 12.8059625 ], [ 10.5590005, 12.8063681 ], [ 10.5592679, 12.8067158 ], [ 10.5586737, 12.8075559 ], [ 10.5584063, 12.8086568 ], [ 10.5580795, 12.809468 ], [ 10.5567722, 12.8098736 ], [ 10.555881, 12.8099895 ], [ 10.5549897, 12.810424 ], [ 10.5538013, 12.8107717 ], [ 10.5530585, 12.8111193 ], [ 10.5528208, 12.8121622 ], [ 10.5521078, 12.8127706 ], [ 10.5512462, 12.8132341 ], [ 10.5506817, 12.8132921 ], [ 10.5501166, 12.8137489 ], [ 10.549939, 12.8145088 ], [ 10.549523, 12.8153489 ], [ 10.5488397, 12.816247 ], [ 10.5479484, 12.8175506 ], [ 10.5470274, 12.8186225 ], [ 10.5462846, 12.8192598 ], [ 10.5462846, 12.8196364 ], [ 10.5466709, 12.8201 ], [ 10.5467006, 12.8205924 ], [ 10.5461064, 12.8205924 ], [ 10.5455716, 12.8205055 ], [ 10.5448586, 12.8203027 ], [ 10.5442049, 12.8199261 ], [ 10.5434622, 12.8195785 ], [ 10.5425709, 12.8198972 ], [ 10.5416202, 12.8204766 ], [ 10.5406694, 12.8212877 ], [ 10.5399267, 12.821925 ], [ 10.5391542, 12.8220409 ], [ 10.5385303, 12.8224754 ], [ 10.5376985, 12.8236052 ], [ 10.5373716, 12.8235473 ], [ 10.5368666, 12.8231128 ], [ 10.5363021, 12.8225334 ], [ 10.5358267, 12.821925 ], [ 10.5352919, 12.8212298 ], [ 10.534668, 12.8206214 ], [ 10.5340441, 12.8199841 ], [ 10.5335093, 12.8195206 ], [ 10.5327072, 12.819086 ], [ 10.5323209, 12.8185646 ], [ 10.5319347, 12.8179273 ], [ 10.5312514, 12.8169713 ], [ 10.5301224, 12.8165946 ], [ 10.5288152, 12.8166236 ], [ 10.5280427, 12.8168264 ], [ 10.5273891, 12.8170292 ], [ 10.5270326, 12.8174927 ], [ 10.527092, 12.818159 ], [ 10.5271832, 12.8189563 ], [ 10.5270326, 12.8195495 ], [ 10.5265572, 12.8196944 ], [ 10.5262007, 12.8191729 ], [ 10.5258739, 12.8185646 ], [ 10.5256065, 12.8178403 ], [ 10.524834, 12.8176376 ], [ 10.523913, 12.8179273 ], [ 10.5229326, 12.8181011 ], [ 10.5221007, 12.818159 ], [ 10.5211203, 12.8178693 ], [ 10.5200507, 12.8178983 ], [ 10.5190703, 12.8180142 ], [ 10.517971, 12.8182169 ], [ 10.5166935, 12.8184487 ], [ 10.5156537, 12.8188253 ], [ 10.5144058, 12.8188832 ], [ 10.5138601, 12.8191865 ], [ 10.5133363, 12.8194626 ], [ 10.5128015, 12.8195785 ], [ 10.5121182, 12.8193178 ], [ 10.5112269, 12.8187094 ], [ 10.5101276, 12.8180721 ], [ 10.5090283, 12.8173479 ], [ 10.5076914, 12.8166816 ], [ 10.5063841, 12.8159573 ], [ 10.5049581, 12.8150303 ], [ 10.5038588, 12.8141322 ], [ 10.5031167, 12.8141377 ], [ 10.5021653, 12.8142481 ], [ 10.5008581, 12.8145957 ], [ 10.4996103, 12.8152041 ], [ 10.4984535, 12.8155356 ], [ 10.4969568, 12.815751 ], [ 10.4959262, 12.8158994 ], [ 10.4950647, 12.8158704 ], [ 10.4944407, 12.8153779 ], [ 10.4937574, 12.8147985 ], [ 10.4937119, 12.8141612 ], [ 10.4938168, 12.8130313 ], [ 10.4938376, 12.8117769 ], [ 10.494622, 12.8108035 ], [ 10.4960481, 12.8103168 ], [ 10.4992567, 12.8096911 ], [ 10.5019663, 12.8092739 ], [ 10.5028932, 12.8085786 ], [ 10.5029645, 12.8070489 ], [ 10.5016098, 12.8055193 ], [ 10.4997131, 12.803832 ], [ 10.4962905, 12.8031089 ], [ 10.4933813, 12.8023857 ], [ 10.4909284, 12.8018851 ], [ 10.4888178, 12.8012732 ], [ 10.4867072, 12.7993263 ], [ 10.4841973, 12.7991038 ], [ 10.4827142, 12.798937 ], [ 10.4821438, 12.7968788 ], [ 10.4815734, 12.7941531 ], [ 10.4808051, 12.7926918 ], [ 10.4806607, 12.7913717 ], [ 10.4790635, 12.7904817 ], [ 10.4773522, 12.7904261 ], [ 10.4752185, 12.7900393 ], [ 10.4719473, 12.7935597 ], [ 10.4695943, 12.795159 ], [ 10.4649595, 12.7990529 ], [ 10.4603961, 12.8014169 ], [ 10.4562922, 12.8041385 ], [ 10.4562744, 12.8041429 ], [ 10.4501756, 12.8070181 ], [ 10.4472649, 12.8094034 ], [ 10.4425249, 12.812721 ], [ 10.4407577, 12.8143172 ], [ 10.4360378, 12.8176359 ], [ 10.4352546, 12.8181866 ], [ 10.4332083, 12.8198553 ], [ 10.4315112, 12.8204293 ], [ 10.4283117, 12.8223799 ], [ 10.4244138, 12.8234923 ], [ 10.419375, 12.8246047 ], [ 10.4161425, 12.8268295 ], [ 10.4140509, 12.8278492 ], [ 10.4095826, 12.8305374 ], [ 10.4024931, 12.8336219 ], [ 10.3853951, 12.8411305 ], [ 10.3310097, 12.847262 ], [ 10.325251, 12.8114622 ], [ 10.314901, 12.8145495 ], [ 10.2982046, 12.817086 ], [ 10.2905165, 12.8154514 ], [ 10.2955194, 12.8355325 ], [ 10.3038315, 12.8553876 ], [ 10.3046627, 12.8610603 ], [ 10.3025016, 12.8634913 ], [ 10.2983455, 12.8664896 ], [ 10.2946882, 12.8714327 ], [ 10.2901165, 12.8754843 ], [ 10.2889716, 12.9056346 ], [ 10.2723415, 12.9169723 ], [ 10.2718666, 12.9175925 ], [ 10.2718369, 12.9177894 ], [ 10.271825, 12.9179516 ], [ 10.2718369, 12.9180616 ], [ 10.2718369, 12.9181775 ], [ 10.2717893, 12.9183367 ], [ 10.2717507, 12.9184786 ], [ 10.2717299, 12.918606 ], [ 10.2717002, 12.9186292 ], [ 10.2715487, 12.9186118 ], [ 10.2714982, 12.9186611 ], [ 10.2714269, 12.9189159 ], [ 10.2716752, 12.9201132 ], [ 10.2741008, 12.9344542 ], [ 10.2719349, 12.9367886 ], [ 10.2707238, 12.9389099 ], [ 10.2709332, 12.9414892 ], [ 10.2704188, 12.9448027 ], [ 10.2639756, 12.954847 ], [ 10.2676, 12.9553 ], [ 10.2741, 12.9573 ], [ 10.2773, 12.9584 ], [ 10.2793, 12.9602 ], [ 10.2834, 12.9621 ], [ 10.2846074, 12.9642623 ], [ 10.2825024, 12.976516 ], [ 10.2820115, 12.9793739 ], [ 10.2814781, 12.9800168 ], [ 10.2791726, 12.9809201 ], [ 10.2654109, 12.9835511 ], [ 10.2636521, 12.985265 ], [ 10.2624637, 12.9904991 ], [ 10.2603181, 12.9975256 ], [ 10.2564774, 12.9992143 ], [ 10.2423033, 13.0053652 ], [ 10.2403662, 13.0062568 ], [ 10.2389283, 13.0068357 ], [ 10.2371813, 13.0076231 ], [ 10.2360405, 13.008121 ], [ 10.2354225, 13.0083757 ], [ 10.2348402, 13.0086884 ], [ 10.2346958, 13.0087951 ], [ 10.226472, 13.006898 ], [ 10.2255811, 13.0102 ], [ 10.2243343, 13.0148212 ], [ 10.2207665, 13.0141295 ], [ 10.2083311, 13.0097944 ], [ 10.202855, 13.0081826 ], [ 10.1980634, 13.0071266 ], [ 10.1861984, 13.0044588 ], [ 10.1819201, 13.0035695 ], [ 10.1744475, 13.0022356 ], [ 10.1698206, 13.0003799 ], [ 10.1686199, 12.9997535 ], [ 10.168206, 12.9995443 ], [ 10.163506, 12.9972443 ], [ 10.1628304, 12.9969308 ], [ 10.1546304, 12.9933308 ], [ 10.1490044, 12.9876478 ], [ 10.1438182, 12.9866829 ], [ 10.1421872, 12.9881728 ], [ 10.139886, 12.9891929 ], [ 10.1397978, 12.9892143 ], [ 10.1397771, 12.9892192 ], [ 10.139751, 12.9892252 ], [ 10.1397302, 12.9892299 ], [ 10.1397042, 12.9892358 ], [ 10.1396833, 12.9892404 ], [ 10.1395568, 12.9892667 ], [ 10.1395161, 12.9892751 ], [ 10.1394951, 12.9892792 ], [ 10.1394715, 12.9892837 ], [ 10.1394479, 12.9892881 ], [ 10.1394243, 12.9892925 ], [ 10.1394006, 12.9892967 ], [ 10.139377, 12.9893009 ], [ 10.1393533, 12.9893051 ], [ 10.1393318, 12.9893087 ], [ 10.1393103, 12.9893124 ], [ 10.1392888, 12.9893159 ], [ 10.1392673, 12.9893194 ], [ 10.1392457, 12.9893228 ], [ 10.1392134, 12.9893278 ], [ 10.1391918, 12.9893311 ], [ 10.1391433, 12.9893382 ], [ 10.1390947, 12.989345 ], [ 10.139046, 12.9893515 ], [ 10.1388999, 12.989369 ], [ 10.1388348, 12.9893759 ], [ 10.1387996, 12.9893794 ], [ 10.1387643, 12.9893827 ], [ 10.1387291, 12.9893858 ], [ 10.1386993, 12.9893883 ], [ 10.138574, 12.9893976 ], [ 10.1385522, 12.989399 ], [ 10.1385305, 12.9894003 ], [ 10.1385087, 12.9894016 ], [ 10.1384869, 12.9894028 ], [ 10.1384651, 12.9894039 ], [ 10.1384434, 12.989405 ], [ 10.1383671, 12.9894083 ], [ 10.1383453, 12.9894091 ], [ 10.1382199, 12.9894124 ], [ 10.1381981, 12.9894127 ], [ 10.1381818, 12.989413 ], [ 10.1381654, 12.9894132 ], [ 10.1381491, 12.9894133 ], [ 10.1381327, 12.9894134 ], [ 10.1381164, 12.9894135 ], [ 10.1381, 12.9894136 ], [ 10.1364106, 12.9894136 ], [ 10.1302686, 12.9882851 ], [ 10.1272303, 12.9870802 ], [ 10.1266889, 12.9868755 ], [ 10.1264334, 12.9867858 ], [ 10.1229335, 12.9855858 ], [ 10.1178488, 12.9846292 ], [ 10.1154488, 12.9845292 ], [ 10.1147, 12.9845136 ], [ 10.109339, 12.9845136 ], [ 10.0986233, 12.9855136 ], [ 10.103655, 12.9662998 ], [ 10.0972627, 12.9664204 ], [ 10.0887495, 12.9835726 ], [ 10.0824828, 12.9817741 ], [ 10.0810155, 12.9813531 ], [ 10.0781994, 12.9807366 ], [ 10.0743473, 12.9806136 ], [ 10.0709082, 12.9796663 ], [ 10.0689998, 12.9791407 ], [ 10.0665732, 12.9784723 ], [ 10.0637498, 12.9777514 ], [ 10.0622169, 12.9772259 ], [ 10.0611199, 12.9766535 ], [ 10.0608438, 12.9765124 ], [ 10.0596608, 12.975921 ], [ 10.0573725, 12.9743057 ], [ 10.0572714, 12.9742348 ], [ 10.0572511, 12.9742208 ], [ 10.057178, 12.9741705 ], [ 10.0571175, 12.974129 ], [ 10.05695, 12.9740169 ], [ 10.056883, 12.9739721 ], [ 10.0608804, 12.9656908 ], [ 10.0511722, 12.9528417 ], [ 10.039008, 12.9617166 ], [ 10.0320866, 12.9651751 ], [ 10.0290834, 12.9650772 ], [ 10.0206936, 12.9638136 ], [ 10.0193343, 12.9638136 ], [ 10.0191677, 12.9638136 ], [ 10.0148699, 12.9612406 ], [ 10.0098762, 12.958251 ], [ 10.0061673, 12.9570717 ], [ 10.0061515, 12.9570685 ], [ 10.0026, 12.9567136 ], [ 10.0023961, 12.9566717 ], [ 9.9970256, 12.9555701 ], [ 9.9930563, 12.9556943 ], [ 9.9879989, 12.9564168 ], [ 9.9818033, 12.953199 ], [ 9.9758613, 12.949655 ], [ 9.9738648, 12.9485895 ], [ 9.9716544, 12.9475008 ], [ 9.9687547, 12.9462268 ], [ 9.9644086, 12.9443689 ], [ 9.9604429, 12.9417062 ], [ 9.9593183, 12.9405817 ], [ 9.9574495, 12.9389543 ], [ 9.9573177, 12.9388563 ], [ 9.9573002, 12.9388432 ], [ 9.9572779, 12.9388267 ], [ 9.957244, 12.9388014 ], [ 9.9572243, 12.9387869 ], [ 9.9572008, 12.9387698 ], [ 9.9570864, 12.9386868 ], [ 9.9570287, 12.9386458 ], [ 9.9569771, 12.9386092 ], [ 9.9567718, 12.9384661 ], [ 9.9546429, 12.9370062 ], [ 9.9537202, 12.9360836 ], [ 9.953678, 12.9360193 ], [ 9.9532894, 12.934886 ], [ 9.952411, 12.9320911 ], [ 9.952259, 12.9316072 ], [ 9.9522359, 12.9315354 ], [ 9.9522195, 12.9314845 ], [ 9.952209, 12.9314518 ], [ 9.9521905, 12.9313943 ], [ 9.9521829, 12.9313707 ], [ 9.9521149, 12.9311688 ], [ 9.9520886, 12.9310928 ], [ 9.9520185, 12.9308941 ], [ 9.9519596, 12.9307333 ], [ 9.9508493, 12.928313 ], [ 9.9491708, 12.9256994 ], [ 9.948859, 12.9247072 ], [ 9.9487622, 12.9244095 ], [ 9.948747, 12.9243639 ], [ 9.9487179, 12.9242794 ], [ 9.9486475, 12.9240765 ], [ 9.948641, 12.9240575 ], [ 9.9485936, 12.923926 ], [ 9.9485494, 12.9238063 ], [ 9.9485412, 12.9237849 ], [ 9.9484246, 12.9234818 ], [ 9.9465876, 12.9201209 ], [ 9.9448804, 12.9169977 ], [ 9.9430842, 12.9112794 ], [ 9.9430624, 12.9112098 ], [ 9.9296731, 12.9185379 ], [ 9.9109635, 12.8774785 ], [ 9.9177121, 12.8723013 ], [ 9.9165078, 12.8686081 ], [ 9.9153669, 12.8633806 ], [ 9.910233, 12.8585424 ], [ 9.9053273, 12.8565403 ], [ 9.8996801, 12.8550944 ], [ 9.896399, 12.8527199 ], [ 9.8581939, 12.8202077 ], [ 9.8161854, 12.8074733 ], [ 9.8044567, 12.8091633 ], [ 9.8002926, 12.8097582 ], [ 9.79742, 12.8096763 ], [ 9.7961667, 12.810493 ], [ 9.7953651, 12.8114733 ], [ 9.7944971, 12.8129505 ], [ 9.7929437, 12.814519 ], [ 9.79203, 12.8147779 ], [ 9.7902805, 12.8144524 ], [ 9.7883174, 12.8146535 ], [ 9.7869564, 12.8144061 ], [ 9.7861664, 12.8137588 ], [ 9.7853479, 12.8127309 ], [ 9.7852486, 12.8115957 ], [ 9.7858672, 12.8100966 ], [ 9.785891, 12.8081217 ], [ 9.7859148, 12.8065274 ], [ 9.7867651, 12.8042273 ], [ 9.7863606, 12.8015623 ], [ 9.7862178, 12.8011028 ], [ 9.7855991, 12.7991114 ], [ 9.7844189, 12.7987241 ], [ 9.7822374, 12.7996492 ], [ 9.7814385, 12.8000868 ], [ 9.7809042, 12.8003794 ], [ 9.7801554, 12.8012119 ], [ 9.7796453, 12.8020114 ], [ 9.7791275, 12.802887 ], [ 9.7783737, 12.8036332 ], [ 9.7773504, 12.8041767 ], [ 9.7776537, 12.7992822 ], [ 9.7651839, 12.7962162 ], [ 9.7483307, 12.7981987 ], [ 9.7167197, 12.8093559 ], [ 9.7142685, 12.8102211 ], [ 9.7145475, 12.8107312 ], [ 9.7145085, 12.8115993 ], [ 9.7142286, 12.8126323 ], [ 9.7140801, 12.8135422 ], [ 9.7139926, 12.8139191 ], [ 9.7130218, 12.8136682 ], [ 9.7124815, 12.8138932 ], [ 9.7119561, 12.813779 ], [ 9.7116512, 12.8139138 ], [ 9.7112321, 12.8139993 ], [ 9.7048267, 12.8226066 ], [ 9.6807335, 12.8208536 ], [ 9.6619904, 12.8338078 ], [ 9.6786519, 12.8531251 ], [ 9.6959436, 12.8731403 ], [ 9.7045817, 12.8830026 ], [ 9.7113177, 12.890693 ], [ 9.7198883, 12.9004776 ], [ 9.7348605, 12.9175697 ], [ 9.7434712, 12.927399 ], [ 9.7618457, 12.9483726 ], [ 9.7748894, 12.9632603 ], [ 9.7918507, 12.9826181 ], [ 9.8083563, 13.0014544 ], [ 9.8197132, 13.014414 ], [ 9.842815, 13.0407742 ], [ 9.8516868, 13.0508965 ], [ 9.8695099, 13.0712319 ], [ 9.8730545, 13.0752773 ], [ 9.8829895, 13.0853588 ], [ 9.8929462, 13.0954617 ], [ 9.9091086, 13.1118608 ], [ 9.9124362, 13.1096218 ], [ 9.9167699, 13.1072586 ], [ 9.9196088, 13.1072919 ], [ 9.9227155, 13.1089822 ], [ 9.9234464, 13.110764 ], [ 9.9238119, 13.1118147 ], [ 9.9260048, 13.111632 ], [ 9.9286089, 13.1116777 ], [ 9.9295226, 13.1126371 ], [ 9.9323551, 13.1143275 ], [ 9.9333212, 13.1145111 ], [ 9.9335268, 13.1148309 ], [ 9.9362908, 13.1160188 ], [ 9.9372273, 13.1176977 ], [ 9.9385351, 13.1193881 ], [ 9.9402255, 13.1196965 ], [ 9.9452318, 13.1215677 ], [ 9.9452509, 13.1246705 ], [ 9.9456816, 13.1268705 ], [ 9.9484869, 13.1287075 ], [ 9.9528609, 13.132152 ], [ 9.9534396, 13.1331723 ], [ 9.9568507, 13.1347561 ], [ 9.9605475, 13.1396121 ], [ 9.9597632, 13.1527848 ], [ 9.9620925, 13.1556314 ], [ 9.9819371, 13.1687373 ], [ 9.9947023, 13.1763913 ], [ 10.0117633, 13.1856661 ], [ 10.0261176, 13.1933605 ], [ 10.041261, 13.2017008 ], [ 10.0525267, 13.2078245 ], [ 10.0713502, 13.2180561 ], [ 10.0955202, 13.2311931 ], [ 10.1110554, 13.2396365 ], [ 10.1164423, 13.2425642 ], [ 10.1375535, 13.2540014 ], [ 10.1483326, 13.2597218 ], [ 10.1730537, 13.269722 ], [ 10.2244467, 13.2804388 ], [ 10.2328542, 13.2819699 ], [ 10.258248, 13.2865473 ], [ 10.2724374, 13.2891049 ], [ 10.2883023, 13.2919647 ], [ 10.3207063, 13.2978057 ], [ 10.3374996, 13.3008327 ], [ 10.3692604, 13.3052406 ], [ 10.4119434, 13.309721 ], [ 10.4638882, 13.3186092 ], [ 10.5140134, 13.3336277 ], [ 10.5828922, 13.3546311 ], [ 10.6095476, 13.3631512 ], [ 10.6446648, 13.374609 ], [ 10.6613505, 13.3773287 ], [ 10.6773546, 13.3799373 ], [ 10.6859486, 13.3813381 ], [ 10.6930005, 13.3824875 ], [ 10.7049999, 13.3844433 ], [ 10.7169075, 13.3856521 ], [ 10.7234469, 13.3863159 ], [ 10.7347477, 13.3873089 ], [ 10.7497215, 13.3886108 ], [ 10.7654057, 13.3888031 ], [ 10.7758648, 13.3888865 ], [ 10.7914522, 13.3891224 ], [ 10.808535, 13.3884086 ], [ 10.8236627, 13.3875624 ], [ 10.8347206, 13.3869438 ], [ 10.8786106, 13.3805542 ], [ 10.8833332, 13.3783321 ], [ 10.9066658, 13.3724995 ], [ 10.9320533, 13.3691702 ], [ 10.9651138, 13.3718832 ], [ 10.9848412, 13.3732706 ], [ 10.9967252, 13.3762766 ], [ 11.0009245, 13.3764425 ], [ 11.0026948, 13.3752433 ], [ 11.0050172, 13.3737585 ], [ 11.0079867, 13.3722547 ], [ 11.009757, 13.3723689 ], [ 11.0110515, 13.3730732 ], [ 11.0126685, 13.3744666 ], [ 11.0214439, 13.3760454 ], [ 11.0554332, 13.3695741 ], [ 11.0839536, 13.3637898 ], [ 11.1058855, 13.3605459 ], [ 11.1269436, 13.3616657 ], [ 11.1432829, 13.3634129 ], [ 11.1559265, 13.3647648 ], [ 11.1711102, 13.3663883 ], [ 11.1798449, 13.3681864 ], [ 11.1944427, 13.3708324 ], [ 11.2130547, 13.3730555 ], [ 11.2386093, 13.3752766 ], [ 11.2518906, 13.3759861 ], [ 11.272704, 13.3769842 ], [ 11.2879385, 13.3775762 ], [ 11.3171434, 13.3786528 ], [ 11.3335781, 13.3794164 ], [ 11.3924999, 13.3811092 ], [ 11.4272225, 13.3788029 ], [ 11.4361014, 13.377458 ], [ 11.4521604, 13.3774202 ], [ 11.4633331, 13.373333 ], [ 11.4916649, 13.3658333 ], [ 11.5180397, 13.3587745 ], [ 11.5311108, 13.3552761 ], [ 11.5329685, 13.3547469 ], [ 11.5387747, 13.3530931 ], [ 11.5410845, 13.3523799 ], [ 11.5470384, 13.3505417 ], [ 11.5601682, 13.3464879 ], [ 11.5943798, 13.3358827 ], [ 11.5959338, 13.3354038 ], [ 11.6151608, 13.3295092 ], [ 11.6543662, 13.3149249 ], [ 11.6665093, 13.3118766 ], [ 11.6933569, 13.3051369 ], [ 11.7493223, 13.2931359 ], [ 11.8197212, 13.2730541 ], [ 11.829443, 13.26861 ], [ 11.894855, 13.2350741 ], [ 11.9458065, 13.2063405 ], [ 11.9765565, 13.1889977 ], [ 11.9941609, 13.1791294 ], [ 12.0077763, 13.1713886 ], [ 12.0247596, 13.1579942 ], [ 12.0339054, 13.1519644 ], [ 12.0511614, 13.1405877 ], [ 12.0608905, 13.1341734 ], [ 12.0789111, 13.1264363 ], [ 12.0903068, 13.1215436 ], [ 12.1062978, 13.1172087 ], [ 12.1168454, 13.1143494 ], [ 12.1337692, 13.1143494 ], [ 12.1409274, 13.1143494 ], [ 12.1546498, 13.1162701 ], [ 12.1629638, 13.1174964 ], [ 12.1718213, 13.1232357 ], [ 12.1745992, 13.1236489 ], [ 12.1779273, 13.1241439 ], [ 12.1788966, 13.1232488 ], [ 12.1791818, 13.1225543 ], [ 12.1788966, 13.1219294 ], [ 12.1783262, 13.1213044 ], [ 12.1783844, 13.1205383 ], [ 12.1793957, 13.1197072 ], [ 12.1801088, 13.1183183 ], [ 12.180394, 13.1172767 ], [ 12.1812496, 13.1170684 ], [ 12.1816061, 13.1178322 ], [ 12.1816061, 13.1190128 ], [ 12.1818914, 13.119985 ], [ 12.1823192, 13.1202627 ], [ 12.1828896, 13.1200544 ], [ 12.1838166, 13.1198461 ], [ 12.1844583, 13.1202627 ], [ 12.1846009, 13.1211655 ], [ 12.1848148, 13.1222071 ], [ 12.1858131, 13.1232488 ], [ 12.1870226, 13.1245243 ], [ 12.1886652, 13.1245681 ], [ 12.189093, 13.1237348 ], [ 12.1901592, 13.1233508 ], [ 12.1929435, 13.1231099 ], [ 12.1941556, 13.1240821 ], [ 12.1951539, 13.1254014 ], [ 12.1950113, 13.1261653 ], [ 12.1940843, 13.1273458 ], [ 12.1946548, 13.1282485 ], [ 12.1952965, 13.129429 ], [ 12.1958669, 13.1294984 ], [ 12.1965087, 13.1290124 ], [ 12.1964374, 13.1281791 ], [ 12.1960095, 13.1273458 ], [ 12.1970791, 13.1269986 ], [ 12.1978634, 13.1274847 ], [ 12.1980773, 13.1285263 ], [ 12.1982913, 13.1296373 ], [ 12.1995747, 13.1304011 ], [ 12.200573, 13.130054 ], [ 12.2014286, 13.1293596 ], [ 12.2015712, 13.1282485 ], [ 12.2017851, 13.1272069 ], [ 12.2027834, 13.1265819 ], [ 12.2044234, 13.1258181 ], [ 12.204566, 13.1248459 ], [ 12.2051364, 13.1240821 ], [ 12.2059208, 13.1242904 ], [ 12.206206, 13.1251931 ], [ 12.2075608, 13.1254709 ], [ 12.2080599, 13.1247765 ], [ 12.2088442, 13.1237348 ], [ 12.2096999, 13.1231793 ], [ 12.2092721, 13.1222766 ], [ 12.2082738, 13.1215821 ], [ 12.2077034, 13.1204016 ], [ 12.2077747, 13.1192905 ], [ 12.2091243, 13.1178726 ], [ 12.2112617, 13.1161963 ], [ 12.2126946, 13.1151239 ], [ 12.2142633, 13.1146378 ], [ 12.2165451, 13.1144989 ], [ 12.2171887, 13.115204 ], [ 12.2193259, 13.1148462 ], [ 12.2211798, 13.1139434 ], [ 12.2215363, 13.1127628 ], [ 12.2217502, 13.1119989 ], [ 12.2226925, 13.1115437 ], [ 12.2235328, 13.11186 ], [ 12.2233189, 13.1125545 ], [ 12.2226059, 13.1134573 ], [ 12.2230337, 13.1140128 ], [ 12.2237468, 13.1137351 ], [ 12.2248163, 13.1139434 ], [ 12.225672, 13.1144989 ], [ 12.2265276, 13.1147073 ], [ 12.2267415, 13.1138045 ], [ 12.2267415, 13.1129017 ], [ 12.2272406, 13.1122767 ], [ 12.228768, 13.1114365 ], [ 12.2286254, 13.1104643 ], [ 12.2300215, 13.1102628 ], [ 12.2331963, 13.1062652 ], [ 12.2335154, 13.1104017 ], [ 12.2340858, 13.1115128 ], [ 12.236033, 13.1141111 ], [ 12.2364389, 13.1157489 ], [ 12.2383641, 13.1171378 ], [ 12.2412875, 13.1172767 ], [ 12.247491, 13.117485 ], [ 12.250557, 13.1176239 ], [ 12.2538345, 13.1172553 ], [ 12.2566179, 13.1177628 ], [ 12.2586144, 13.1176934 ], [ 12.259187, 13.1163889 ], [ 12.2597552, 13.1147073 ], [ 12.2600404, 13.1134573 ], [ 12.2640591, 13.1139624 ], [ 12.2677291, 13.1101475 ], [ 12.2807505, 13.096611 ], [ 12.2868356, 13.0951335 ], [ 12.3361373, 13.0831623 ], [ 12.3592215, 13.0829065 ], [ 12.3761443, 13.0790171 ], [ 12.3947424, 13.074313 ], [ 12.4295759, 13.0730276 ], [ 12.4254467, 13.0548832 ], [ 12.4191719, 13.0458531 ], [ 12.4101876, 13.0287645 ], [ 12.4084764, 13.0234849 ], [ 12.4076207, 13.0070894 ], [ 12.4094746, 12.9956954 ], [ 12.4148937, 12.9844397 ], [ 12.4126177, 12.9668424 ], [ 12.4109035, 12.9609533 ], [ 12.4101035, 12.9587532 ], [ 12.4099876, 12.9584432 ], [ 12.4096338, 12.9575235 ], [ 12.4086423, 12.9544268 ], [ 12.4055215, 12.9430878 ], [ 12.4031121, 12.9364219 ], [ 12.3975161, 12.9243764 ], [ 12.3957668, 12.9196531 ], [ 12.3945412, 12.9163846 ], [ 12.3983876, 12.9044054 ], [ 12.4050772, 12.8967682 ], [ 12.4083081, 12.887785 ], [ 12.4092435, 12.859631 ], [ 12.4313178, 12.8521052 ], [ 12.4601606, 12.8141823 ], [ 12.4737822, 12.8069965 ], [ 12.4766871, 12.8033869 ], [ 12.4760166, 12.8013196 ], [ 12.4775286, 12.800594 ], [ 12.4812472, 12.8036124 ], [ 12.4849877, 12.8016478 ], [ 12.4907477, 12.7739661 ], [ 12.4974161, 12.7651985 ], [ 12.4975907, 12.7385085 ], [ 12.4992021, 12.7097669 ], [ 12.4994205, 12.7058723 ], [ 12.5017205, 12.7010723 ], [ 12.5033215, 12.6957302 ], [ 12.5039215, 12.6913302 ], [ 12.5022273, 12.6837142 ], [ 12.5008963, 12.6749954 ], [ 12.4984244, 12.668688 ], [ 12.4970934, 12.6646066 ], [ 12.4921497, 12.6573714 ], [ 12.4875862, 12.6529188 ], [ 12.4851144, 12.647724 ], [ 12.4834398, 12.6436532 ], [ 12.478044, 12.6421917 ], [ 12.4761651, 12.6388528 ], [ 12.473444, 12.6370392 ], [ 12.4685193, 12.6261992 ], [ 12.4679899, 12.6216146 ], [ 12.4646101, 12.6136923 ], [ 12.4615669, 12.6116656 ], [ 12.4542574, 12.6104326 ], [ 12.442638, 12.6084726 ], [ 12.4275271, 12.6024685 ], [ 12.4419095, 12.5854753 ], [ 12.4412709, 12.5788755 ], [ 12.4363166, 12.5740311 ], [ 12.4389811, 12.5671591 ], [ 12.443758, 12.5610754 ], [ 12.4427363, 12.5590372 ], [ 12.4400074, 12.554359 ], [ 12.4382765, 12.5512819 ], [ 12.4381545, 12.5510684 ], [ 12.4364996, 12.5482182 ], [ 12.4286766, 12.5389732 ], [ 12.4273391, 12.5368881 ], [ 12.425132, 12.534099 ], [ 12.418952, 12.5247305 ], [ 12.4188087, 12.5244146 ], [ 12.4009986, 12.5243001 ], [ 12.3861684, 12.5266851 ], [ 12.3769534, 12.5198542 ], [ 12.3752489, 12.511034 ], [ 12.3736698, 12.5062688 ], [ 12.3711166, 12.5023637 ], [ 12.3692551, 12.4971672 ], [ 12.3674096, 12.4922661 ], [ 12.3631484, 12.4868675 ], [ 12.3606415, 12.4813709 ], [ 12.3579853, 12.4722694 ], [ 12.3530999, 12.4597637 ], [ 12.3473315, 12.4562104 ], [ 12.3422157, 12.4530591 ], [ 12.3421931, 12.4530487 ], [ 12.3421705, 12.4530384 ], [ 12.342148, 12.4530281 ], [ 12.3421254, 12.4530178 ], [ 12.3421027, 12.4530076 ], [ 12.3420575, 12.4529872 ], [ 12.331379, 12.4475525 ], [ 12.3244153, 12.4434217 ], [ 12.3005017, 12.43514 ], [ 12.2867919, 12.4246108 ], [ 12.283244, 12.4095341 ], [ 12.2873155, 12.3440384 ], [ 12.2861574, 12.3298915 ], [ 12.2699958, 12.3325233 ], [ 12.2684367, 12.3234585 ], [ 12.2846363, 12.3152163 ], [ 12.2831008, 12.2871938 ], [ 12.2848585, 12.2662333 ], [ 12.2502719, 12.2127185 ], [ 12.2635576, 12.1785133 ], [ 12.2364373, 12.1373489 ], [ 12.2379618, 12.0896308 ], [ 12.2447954, 12.0686271 ], [ 12.251561, 12.0491146 ], [ 12.2568424, 12.0360688 ], [ 12.2687102, 12.0047654 ], [ 12.2805792, 11.9953642 ], [ 12.2740865, 11.9773557 ], [ 12.2629237, 11.935942 ], [ 12.2576864, 11.8974861 ], [ 12.2561227, 11.8856006 ], [ 12.2591836, 11.872047 ], [ 12.2614732, 11.8606125 ], [ 12.2679302, 11.8466784 ], [ 12.2681474, 11.845576 ], [ 12.2682681, 11.8448939 ], [ 12.2683327, 11.8444464 ], [ 12.2693327, 11.8368464 ], [ 12.2693648, 11.8365881 ], [ 12.2697866, 11.8329793 ], [ 12.2702648, 11.8288881 ], [ 12.2703044, 11.8285126 ], [ 12.2703151, 11.8283907 ], [ 12.2703363, 11.8281352 ], [ 12.2703461, 11.827992 ], [ 12.2703604, 11.8277551 ], [ 12.2703677, 11.8276069 ], [ 12.2703725, 11.8275082 ], [ 12.2703766, 11.8273698 ], [ 12.2703801, 11.8272776 ], [ 12.2703809, 11.8272263 ], [ 12.2703848, 11.82697 ], [ 12.2703863, 11.8268738 ], [ 12.2703861, 11.8268476 ], [ 12.2703834, 11.82647 ], [ 12.2608471, 11.8205404 ], [ 12.2569653, 11.8183672 ], [ 12.2528883, 11.817239 ], [ 12.2476383, 11.8127497 ], [ 12.2443017, 11.8093451 ], [ 12.242889, 11.8019134 ], [ 12.2393668, 11.7894869 ], [ 12.2357528, 11.7675051 ], [ 12.2376238, 11.7603518 ], [ 12.2296831, 11.7581791 ], [ 12.2212698, 11.7560193 ], [ 12.2195395, 11.7437375 ], [ 12.216771, 11.7337422 ], [ 12.2156463, 11.724763 ], [ 12.2161001, 11.7157053 ], [ 12.2136326, 11.7034498 ], [ 12.2119343, 11.6981121 ], [ 12.2106562, 11.6945001 ], [ 12.210573, 11.69427 ], [ 12.2084925, 11.6886354 ], [ 12.208435, 11.6884113 ], [ 12.1985757, 11.6706535 ], [ 12.1970275, 11.6633163 ], [ 12.1958002, 11.6575 ], [ 12.1989383, 11.6424845 ], [ 12.2165733, 11.6356319 ], [ 12.2187734, 11.634777 ], [ 12.2237195, 11.632855 ], [ 12.2412617, 11.6523095 ], [ 12.2748444, 11.6940215 ], [ 12.2826719, 11.6804178 ], [ 12.2913699, 11.6631271 ], [ 12.3011136, 11.6449094 ], [ 12.3007548, 11.6161626 ], [ 12.2999588, 11.6086191 ], [ 12.313554, 11.605639 ], [ 12.3233464, 11.5981886 ], [ 12.3299064, 11.5936252 ], [ 12.3484656, 11.5830781 ], [ 12.3485569, 11.5829524 ], [ 12.3625563, 11.5636805 ], [ 12.3735444, 11.5497565 ], [ 12.3506855, 11.5050446 ], [ 12.349716, 11.4983724 ], [ 12.3436488, 11.4790932 ], [ 12.3262062, 11.4651787 ], [ 12.3221296, 11.4604634 ], [ 12.3219298, 11.4602353 ], [ 12.3220656, 11.4508977 ], [ 12.3118895, 11.4474671 ], [ 12.303174, 11.4445289 ], [ 12.2937512, 11.4378353 ], [ 12.2810957, 11.4285505 ], [ 12.2703058, 11.4203517 ], [ 12.269855, 11.4200092 ], [ 12.2674022, 11.4182057 ], [ 12.2633507, 11.4143195 ], [ 12.2631201, 11.4141022 ], [ 12.2607984, 11.4119525 ], [ 12.2593356, 11.4101402 ], [ 12.255572, 11.4054773 ], [ 12.2526023, 11.4033285 ], [ 12.2460893, 11.3994459 ], [ 12.2452986, 11.3984833 ], [ 12.2448117, 11.3979151 ], [ 12.2406117, 11.3932151 ], [ 12.2405049, 11.3930966 ], [ 12.2404936, 11.3930842 ], [ 12.2404823, 11.3930718 ], [ 12.240471, 11.3930594 ], [ 12.2404596, 11.393047 ], [ 12.2404483, 11.3930347 ], [ 12.2404369, 11.3930223 ], [ 12.2404256, 11.39301 ], [ 12.2404142, 11.3929976 ], [ 12.2404028, 11.3929853 ], [ 12.2403914, 11.392973 ], [ 12.2403054, 11.3928809 ], [ 12.2402939, 11.3928687 ], [ 12.2402824, 11.3928565 ], [ 12.2402709, 11.3928443 ], [ 12.2402593, 11.3928321 ], [ 12.2402478, 11.3928199 ], [ 12.2402362, 11.3928077 ], [ 12.2402246, 11.3927955 ], [ 12.240213, 11.3927834 ], [ 12.2402014, 11.3927712 ], [ 12.2401898, 11.3927591 ], [ 12.2401782, 11.392747 ], [ 12.2401666, 11.3927348 ], [ 12.2401257, 11.3926924 ], [ 12.2400846, 11.3926502 ], [ 12.2400435, 11.392608 ], [ 12.24002, 11.3925841 ], [ 12.2399965, 11.3925603 ], [ 12.2399729, 11.3925365 ], [ 12.2399552, 11.3925186 ], [ 12.2399433, 11.3925067 ], [ 12.2399315, 11.3924948 ], [ 12.2399196, 11.3924829 ], [ 12.2399018, 11.3924651 ], [ 12.2398899, 11.3924533 ], [ 12.2398779, 11.3924414 ], [ 12.239866, 11.3924296 ], [ 12.2398481, 11.3924118 ], [ 12.2398302, 11.3923941 ], [ 12.2398122, 11.3923764 ], [ 12.2398002, 11.3923647 ], [ 12.2397882, 11.3923529 ], [ 12.2397762, 11.3923411 ], [ 12.2397582, 11.3923235 ], [ 12.2397039, 11.3922708 ], [ 12.2396099, 11.3921806 ], [ 12.2395581, 11.3921314 ], [ 12.239503, 11.3920795 ], [ 12.2394908, 11.392068 ], [ 12.2394785, 11.3920566 ], [ 12.2394662, 11.3920451 ], [ 12.2394478, 11.3920279 ], [ 12.2352559, 11.3881302 ], [ 12.233708, 11.3858371 ], [ 12.2336514, 11.3857537 ], [ 12.2335943, 11.3856706 ], [ 12.2335223, 11.3855673 ], [ 12.2334788, 11.3855055 ], [ 12.2334642, 11.3854849 ], [ 12.2334544, 11.3854712 ], [ 12.2334447, 11.3854575 ], [ 12.2334349, 11.3854439 ], [ 12.2333317, 11.3853008 ], [ 12.233287, 11.3852398 ], [ 12.233227, 11.3851587 ], [ 12.2332117, 11.3851383 ], [ 12.2331968, 11.3851183 ], [ 12.2331766, 11.3850914 ], [ 12.2331513, 11.3850579 ], [ 12.2331361, 11.3850378 ], [ 12.2331259, 11.3850244 ], [ 12.2331158, 11.385011 ], [ 12.2331056, 11.3849976 ], [ 12.2330954, 11.3849843 ], [ 12.2330852, 11.3849709 ], [ 12.233075, 11.3849575 ], [ 12.2329979, 11.3848577 ], [ 12.2329875, 11.3848445 ], [ 12.2329772, 11.3848312 ], [ 12.2329669, 11.3848179 ], [ 12.2329565, 11.3848047 ], [ 12.2329461, 11.3847915 ], [ 12.2329357, 11.3847783 ], [ 12.2329201, 11.3847584 ], [ 12.2329045, 11.3847386 ], [ 12.2328888, 11.3847189 ], [ 12.2328731, 11.3846991 ], [ 12.2328574, 11.3846794 ], [ 12.2328416, 11.3846597 ], [ 12.2327783, 11.3845811 ], [ 12.2327624, 11.3845615 ], [ 12.2326986, 11.3844833 ], [ 12.2304965, 11.3818025 ], [ 12.2276217, 11.377935 ], [ 12.2206267, 11.358808 ], [ 12.2018995, 11.3565502 ], [ 12.1998301, 11.3474903 ], [ 12.1989603, 11.3416796 ], [ 12.1988001, 11.3344002 ], [ 12.1979303, 11.3285904 ], [ 12.1970596, 11.3227797 ], [ 12.1965799, 11.3180599 ], [ 12.1941996, 11.3115501 ], [ 12.1869001, 11.3018599 ], [ 12.1821146, 11.2990465 ], [ 12.176736, 11.2952758 ], [ 12.1749297, 11.2940095 ], [ 12.1672001, 11.2891397 ], [ 12.151255, 11.2797984 ], [ 12.1473256, 11.2781033 ], [ 12.1304125, 11.2692655 ], [ 12.1218596, 11.2645397 ], [ 12.1129591, 11.2600584 ], [ 12.1074896, 11.2560797 ], [ 12.1032225, 11.2478418 ], [ 12.1022512, 11.2432448 ], [ 12.1018496, 11.2372503 ], [ 12.1024537, 11.2324319 ], [ 12.103935, 11.226595 ], [ 12.1059799, 11.2211504 ], [ 12.1065186, 11.2168477 ], [ 12.1069403, 11.21348 ], [ 12.1086903, 11.2079897 ], [ 12.1107502, 11.1999302 ], [ 12.1128197, 11.1918802 ], [ 12.1136803, 11.1876863 ], [ 12.1142452, 11.183361 ], [ 12.1144104, 11.1791 ], [ 12.1139297, 11.1743803 ], [ 12.1152096, 11.1641598 ], [ 12.1146498, 11.1557903 ], [ 12.1171103, 11.1488304 ], [ 12.1205139, 11.1401803 ], [ 12.1224955, 11.1389761 ], [ 12.1308498, 11.1338991 ], [ 12.1530604, 11.1195524 ], [ 12.1530864, 11.1167476 ], [ 12.1537303, 11.1112386 ], [ 12.1581913, 11.1014429 ], [ 12.1653709, 11.0899281 ], [ 12.1653833, 11.089906 ], [ 12.1653916, 11.0898912 ], [ 12.1653998, 11.0898764 ], [ 12.1654081, 11.0898616 ], [ 12.1654735, 11.0897429 ], [ 12.1655381, 11.0896238 ], [ 12.1656017, 11.0895041 ], [ 12.1656645, 11.089384 ], [ 12.1657264, 11.0892634 ], [ 12.1657873, 11.0891424 ], [ 12.1657987, 11.0891197 ], [ 12.16581, 11.0890969 ], [ 12.1658268, 11.0890627 ], [ 12.1658437, 11.0890285 ], [ 12.1658604, 11.0889943 ], [ 12.1658771, 11.08896 ], [ 12.1658937, 11.0889257 ], [ 12.1659102, 11.0888914 ], [ 12.1659321, 11.0888455 ], [ 12.1660096, 11.0886807 ], [ 12.1660349, 11.0886255 ], [ 12.1660478, 11.088598 ], [ 12.1660602, 11.0885704 ], [ 12.1660855, 11.0885152 ], [ 12.1661597, 11.0883488 ], [ 12.1662322, 11.0881818 ], [ 12.1662558, 11.0881259 ], [ 12.1662678, 11.088098 ], [ 12.1662794, 11.0880699 ], [ 12.1663721, 11.0878456 ], [ 12.1663816, 11.087822 ], [ 12.1663911, 11.0877984 ], [ 12.1664068, 11.0877592 ], [ 12.1664224, 11.0877199 ], [ 12.1664379, 11.0876806 ], [ 12.1664534, 11.0876412 ], [ 12.1664687, 11.0876018 ], [ 12.1664839, 11.0875623 ], [ 12.16649, 11.0875466 ], [ 12.166496, 11.0875308 ], [ 12.1665021, 11.087515 ], [ 12.1665081, 11.0874992 ], [ 12.1665141, 11.0874834 ], [ 12.1665201, 11.0874676 ], [ 12.1665261, 11.0874517 ], [ 12.1665321, 11.0874359 ], [ 12.166538, 11.0874201 ], [ 12.1666083, 11.0872297 ], [ 12.166614, 11.0872138 ], [ 12.1666198, 11.0871979 ], [ 12.1666255, 11.087182 ], [ 12.1666341, 11.0871581 ], [ 12.1666397, 11.0871421 ], [ 12.1666454, 11.0871262 ], [ 12.1666511, 11.0871103 ], [ 12.1666581, 11.0870904 ], [ 12.1666652, 11.0870704 ], [ 12.1666722, 11.0870505 ], [ 12.1666792, 11.0870305 ], [ 12.1666861, 11.0870106 ], [ 12.1666931, 11.0869906 ], [ 12.166726, 11.0868946 ], [ 12.1667315, 11.0868786 ], [ 12.1667369, 11.0868626 ], [ 12.1667423, 11.0868466 ], [ 12.1667504, 11.0868225 ], [ 12.1668061, 11.0866539 ], [ 12.1668191, 11.0866137 ], [ 12.1668321, 11.0865734 ], [ 12.1668449, 11.0865331 ], [ 12.1668576, 11.0864928 ], [ 12.1668703, 11.0864525 ], [ 12.1668828, 11.0864121 ], [ 12.1668878, 11.0863959 ], [ 12.1668927, 11.0863798 ], [ 12.1668977, 11.0863636 ], [ 12.1669051, 11.0863394 ], [ 12.16691, 11.0863232 ], [ 12.166915, 11.086307 ], [ 12.1669199, 11.0862908 ], [ 12.1669272, 11.0862665 ], [ 12.1669914, 11.0860474 ], [ 12.1670122, 11.0859742 ], [ 12.1670395, 11.0858765 ], [ 12.1670793, 11.0857296 ], [ 12.1670859, 11.0857051 ], [ 12.1670923, 11.0856805 ], [ 12.1671116, 11.0856069 ], [ 12.167118, 11.0855823 ], [ 12.1671222, 11.0855659 ], [ 12.1671264, 11.0855495 ], [ 12.1671306, 11.0855331 ], [ 12.1671615, 11.0854099 ], [ 12.167339, 11.0846116 ], [ 12.1673526, 11.0845418 ], [ 12.167385, 11.0843768 ], [ 12.1674459, 11.0840298 ], [ 12.1674864, 11.083769 ], [ 12.1674912, 11.0837411 ], [ 12.1674932, 11.083725 ], [ 12.1675937, 11.0829189 ], [ 12.1675988, 11.0828655 ], [ 12.1676212, 11.0826317 ], [ 12.1676478, 11.0822804 ], [ 12.1676627, 11.0820144 ], [ 12.1676651, 11.0819732 ], [ 12.1676676, 11.0819286 ], [ 12.1676804, 11.0815765 ], [ 12.1676863, 11.0812242 ], [ 12.167686, 11.0811091 ], [ 12.1676858, 11.0810426 ], [ 12.1676627, 11.0801676 ], [ 12.1676613, 11.0801422 ], [ 12.16766, 11.0801168 ], [ 12.1676585, 11.0800914 ], [ 12.1676571, 11.0800661 ], [ 12.1676556, 11.0800407 ], [ 12.1676546, 11.0800238 ], [ 12.1676536, 11.0800069 ], [ 12.1676526, 11.07999 ], [ 12.167651, 11.0799646 ], [ 12.1676494, 11.0799393 ], [ 12.1676477, 11.0799139 ], [ 12.167646, 11.0798886 ], [ 12.1676443, 11.0798632 ], [ 12.1676425, 11.0798379 ], [ 12.1676407, 11.0798125 ], [ 12.1676389, 11.0797872 ], [ 12.1676376, 11.0797703 ], [ 12.1676364, 11.0797534 ], [ 12.1676351, 11.0797365 ], [ 12.1676338, 11.0797196 ], [ 12.1676325, 11.0797027 ], [ 12.1676312, 11.0796858 ], [ 12.1676292, 11.0796605 ], [ 12.1676278, 11.0796436 ], [ 12.1676264, 11.0796267 ], [ 12.167625, 11.0796098 ], [ 12.1676229, 11.0795845 ], [ 12.1676207, 11.0795592 ], [ 12.1676185, 11.0795339 ], [ 12.167617, 11.079517 ], [ 12.1676155, 11.0795001 ], [ 12.167614, 11.0794833 ], [ 12.1676046, 11.0793821 ], [ 12.167603, 11.0793652 ], [ 12.1676013, 11.0793483 ], [ 12.1675997, 11.0793315 ], [ 12.167592, 11.0792556 ], [ 12.1675729, 11.0790788 ], [ 12.1657131, 11.0721634 ], [ 12.165708, 11.0721476 ], [ 12.1657029, 11.0721319 ], [ 12.1656977, 11.0721161 ], [ 12.16569, 11.0720925 ], [ 12.1656823, 11.0720689 ], [ 12.1656028, 11.0718332 ], [ 12.1655202, 11.071599 ], [ 12.1654343, 11.0713659 ], [ 12.1654256, 11.0713427 ], [ 12.1653991, 11.071273 ], [ 12.1632036, 11.0650476 ], [ 12.1631087, 11.0647467 ], [ 12.1630085, 11.0644475 ], [ 12.1630002, 11.0644236 ], [ 12.1629919, 11.0643998 ], [ 12.1629669, 11.0643283 ], [ 12.1629585, 11.0643045 ], [ 12.1629501, 11.0642807 ], [ 12.1629245, 11.0642094 ], [ 12.1629159, 11.0641857 ], [ 12.1629102, 11.0641698 ], [ 12.1629044, 11.064154 ], [ 12.1628987, 11.0641382 ], [ 12.16289, 11.0641145 ], [ 12.1628638, 11.0640435 ], [ 12.1628549, 11.0640198 ], [ 12.1627832, 11.063831 ], [ 12.1627589, 11.0637683 ], [ 12.1627343, 11.0637056 ], [ 12.1627094, 11.063643 ], [ 12.1627001, 11.0636196 ], [ 12.1626922, 11.0636001 ], [ 12.1626843, 11.0635805 ], [ 12.1626764, 11.063561 ], [ 12.1626685, 11.0635414 ], [ 12.1626606, 11.0635219 ], [ 12.1626526, 11.0635024 ], [ 12.1626462, 11.0634868 ], [ 12.1626398, 11.0634712 ], [ 12.1626334, 11.0634556 ], [ 12.1626043, 11.0633856 ], [ 12.1625946, 11.0633622 ], [ 12.1625848, 11.0633389 ], [ 12.162575, 11.0633156 ], [ 12.1625651, 11.0632923 ], [ 12.1625154, 11.0631761 ], [ 12.1625053, 11.0631529 ], [ 12.1624952, 11.0631297 ], [ 12.1624341, 11.0629908 ], [ 12.1624238, 11.0629677 ], [ 12.1623717, 11.0628524 ], [ 12.1623612, 11.0628294 ], [ 12.1623542, 11.0628141 ], [ 12.1623471, 11.0627988 ], [ 12.1623401, 11.0627834 ], [ 12.1623295, 11.0627605 ], [ 12.1623189, 11.0627375 ], [ 12.1623082, 11.0627146 ], [ 12.162301, 11.0626993 ], [ 12.1622939, 11.062684 ], [ 12.1622868, 11.0626687 ], [ 12.162276, 11.0626458 ], [ 12.1622217, 11.0625316 ], [ 12.1622107, 11.0625087 ], [ 12.1621666, 11.0624177 ], [ 12.1621554, 11.0623949 ], [ 12.1621443, 11.0623722 ], [ 12.1621331, 11.0623495 ], [ 12.1620539, 11.062191 ], [ 12.1620425, 11.0621685 ], [ 12.162008, 11.0621008 ], [ 12.1620002, 11.0620858 ], [ 12.1619925, 11.0620708 ], [ 12.1619848, 11.0620558 ], [ 12.1619263, 11.0619435 ], [ 12.1619184, 11.0619286 ], [ 12.1619106, 11.0619137 ], [ 12.1619027, 11.0618987 ], [ 12.161867, 11.0618317 ], [ 12.1618591, 11.0618168 ], [ 12.1618511, 11.0618019 ], [ 12.1618431, 11.061787 ], [ 12.1618351, 11.0617722 ], [ 12.1618271, 11.0617573 ], [ 12.1618191, 11.0617425 ], [ 12.161811, 11.0617276 ], [ 12.1618029, 11.0617128 ], [ 12.1617949, 11.0616979 ], [ 12.1617827, 11.0616757 ], [ 12.1617706, 11.0616535 ], [ 12.1617584, 11.0616313 ], [ 12.1617216, 11.0615648 ], [ 12.1617093, 11.0615427 ], [ 12.1616969, 11.0615206 ], [ 12.1616845, 11.0614985 ], [ 12.1616721, 11.0614764 ], [ 12.1616596, 11.0614544 ], [ 12.1616472, 11.0614323 ], [ 12.1616221, 11.0613883 ], [ 12.1615969, 11.0613443 ], [ 12.1615716, 11.0613004 ], [ 12.1615462, 11.0612566 ], [ 12.1615206, 11.0612128 ], [ 12.161495, 11.0611692 ], [ 12.1614821, 11.0611473 ], [ 12.1614692, 11.0611255 ], [ 12.1614562, 11.0611038 ], [ 12.1614432, 11.061082 ], [ 12.1614302, 11.0610602 ], [ 12.1614172, 11.0610385 ], [ 12.1613251, 11.0608869 ], [ 12.1613118, 11.0608653 ], [ 12.1612985, 11.0608438 ], [ 12.1612896, 11.0608294 ], [ 12.1612807, 11.060815 ], [ 12.1612718, 11.0608007 ], [ 12.1612584, 11.0607792 ], [ 12.1610813, 11.0605012 ], [ 12.1610675, 11.0604799 ], [ 12.1610536, 11.0604587 ], [ 12.1610444, 11.0604445 ], [ 12.1610351, 11.0604304 ], [ 12.1610258, 11.0604163 ], [ 12.1610119, 11.0603951 ], [ 12.1609979, 11.0603739 ], [ 12.1609886, 11.0603598 ], [ 12.1609792, 11.0603457 ], [ 12.1609699, 11.0603317 ], [ 12.1609558, 11.0603105 ], [ 12.1609417, 11.0602895 ], [ 12.1608992, 11.0602263 ], [ 12.160885, 11.0602053 ], [ 12.1608708, 11.0601843 ], [ 12.1608135, 11.0601006 ], [ 12.1607991, 11.0600797 ], [ 12.1607895, 11.0600658 ], [ 12.1607798, 11.0600519 ], [ 12.1607702, 11.060038 ], [ 12.1607557, 11.0600171 ], [ 12.1607412, 11.0599963 ], [ 12.1607267, 11.0599755 ], [ 12.1607121, 11.0599548 ], [ 12.1607024, 11.0599409 ], [ 12.1606926, 11.0599271 ], [ 12.1606829, 11.0599133 ], [ 12.1606682, 11.0598926 ], [ 12.1606191, 11.0598237 ], [ 12.1606093, 11.0598099 ], [ 12.1605994, 11.0597962 ], [ 12.1605895, 11.0597825 ], [ 12.1605648, 11.0597482 ], [ 12.1605499, 11.0597276 ], [ 12.160535, 11.0597071 ], [ 12.1604449, 11.0595843 ], [ 12.1604297, 11.0595639 ], [ 12.1604146, 11.0595436 ], [ 12.1603537, 11.0594623 ], [ 12.1603384, 11.0594421 ], [ 12.1603231, 11.0594218 ], [ 12.1603128, 11.0594083 ], [ 12.1603026, 11.0593949 ], [ 12.1602923, 11.0593814 ], [ 12.1602769, 11.0593612 ], [ 12.1602615, 11.0593411 ], [ 12.1602512, 11.0593276 ], [ 12.1602408, 11.0593142 ], [ 12.1602305, 11.0593008 ], [ 12.1602202, 11.0592874 ], [ 12.1602098, 11.059274 ], [ 12.1601994, 11.0592606 ], [ 12.16015, 11.0591972 ], [ 12.1601003, 11.059134 ], [ 12.1600563, 11.0590785 ], [ 12.1599147, 11.058903 ], [ 12.1598986, 11.0588833 ], [ 12.1576965, 11.0562025 ], [ 12.1531923, 11.0505233 ], [ 12.1531767, 11.0505036 ], [ 12.153161, 11.0504839 ], [ 12.1531453, 11.0504642 ], [ 12.1531295, 11.0504445 ], [ 12.153119, 11.0504314 ], [ 12.1531085, 11.0504183 ], [ 12.153098, 11.0504052 ], [ 12.1530822, 11.0503856 ], [ 12.1530663, 11.050366 ], [ 12.1530557, 11.050353 ], [ 12.1530451, 11.0503399 ], [ 12.1530345, 11.0503269 ], [ 12.1530186, 11.0503074 ], [ 12.1527109, 11.0499423 ], [ 12.1526726, 11.0498969 ], [ 12.1526364, 11.0498563 ], [ 12.1525652, 11.0497743 ], [ 12.1523307, 11.0495145 ], [ 12.1523145, 11.0494969 ], [ 12.1522916, 11.0494728 ], [ 12.1519879, 11.0491536 ], [ 12.1519445, 11.0491079 ], [ 12.1519088, 11.0490726 ], [ 12.1515802, 11.0487468 ], [ 12.151553, 11.0487214 ], [ 12.1513433, 11.0485228 ], [ 12.1512512, 11.0484389 ], [ 12.1511631, 11.0483587 ], [ 12.1508213, 11.0480567 ], [ 12.1508021, 11.0480404 ], [ 12.150783, 11.048024 ], [ 12.1507702, 11.0480131 ], [ 12.1507574, 11.0480022 ], [ 12.1507446, 11.0479913 ], [ 12.1507318, 11.0479805 ], [ 12.150719, 11.0479696 ], [ 12.1507061, 11.0479588 ], [ 12.1505708, 11.0478457 ], [ 12.1505513, 11.0478297 ], [ 12.1505222, 11.0478057 ], [ 12.1504931, 11.0477818 ], [ 12.1504638, 11.047758 ], [ 12.1504411, 11.0477395 ], [ 12.1504183, 11.047721 ], [ 12.1503955, 11.0477026 ], [ 12.1503759, 11.0476868 ], [ 12.1503628, 11.0476763 ], [ 12.1503497, 11.0476658 ], [ 12.1503366, 11.0476554 ], [ 12.1502579, 11.0475928 ], [ 12.1502382, 11.0475772 ], [ 12.1502184, 11.0475617 ], [ 12.1501887, 11.0475384 ], [ 12.150159, 11.0475152 ], [ 12.1501292, 11.047492 ], [ 12.150106, 11.0474741 ], [ 12.1500827, 11.0474561 ], [ 12.1500595, 11.0474382 ], [ 12.1500395, 11.0474229 ], [ 12.1500195, 11.0474077 ], [ 12.1499995, 11.0473924 ], [ 12.149778, 11.0472265 ], [ 12.1497578, 11.0472116 ], [ 12.1497375, 11.0471967 ], [ 12.1497172, 11.0471819 ], [ 12.1496968, 11.047167 ], [ 12.1496765, 11.0471522 ], [ 12.1496561, 11.0471374 ], [ 12.1496357, 11.0471227 ], [ 12.1496153, 11.047108 ], [ 12.1495949, 11.0470933 ], [ 12.1495744, 11.0470786 ], [ 12.1495539, 11.047064 ], [ 12.1494512, 11.0469912 ], [ 12.1494375, 11.0469816 ], [ 12.1494238, 11.046972 ], [ 12.1494031, 11.0469575 ], [ 12.1493894, 11.0469479 ], [ 12.1493687, 11.0469335 ], [ 12.149348, 11.0469192 ], [ 12.1493273, 11.0469049 ], [ 12.1493066, 11.0468906 ], [ 12.1492858, 11.0468763 ], [ 12.1491609, 11.0467913 ], [ 12.14914, 11.0467773 ], [ 12.1491191, 11.0467632 ], [ 12.1491017, 11.0467515 ], [ 12.1490842, 11.0467399 ], [ 12.1490563, 11.0467213 ], [ 12.1490353, 11.0467074 ], [ 12.1490143, 11.0466935 ], [ 12.1489933, 11.0466796 ], [ 12.1487819, 11.0465426 ], [ 12.1487607, 11.046529 ], [ 12.1487394, 11.0465155 ], [ 12.1487181, 11.046502 ], [ 12.1486933, 11.0464864 ], [ 12.1486684, 11.0464707 ], [ 12.1486435, 11.0464551 ], [ 12.1486257, 11.046444 ], [ 12.1486079, 11.0464328 ], [ 12.14859, 11.0464218 ], [ 12.1485686, 11.0464085 ], [ 12.1485472, 11.0463952 ], [ 12.1484397, 11.0463294 ], [ 12.1484182, 11.0463164 ], [ 12.1484038, 11.0463077 ], [ 12.1483894, 11.046299 ], [ 12.148375, 11.0462903 ], [ 12.1483534, 11.0462773 ], [ 12.1483318, 11.0462644 ], [ 12.1483174, 11.0462558 ], [ 12.1483029, 11.0462472 ], [ 12.1482885, 11.0462386 ], [ 12.148274, 11.04623 ], [ 12.1482596, 11.0462214 ], [ 12.1482451, 11.0462129 ], [ 12.1482234, 11.0462001 ], [ 12.1481363, 11.0461491 ], [ 12.1481145, 11.0461365 ], [ 12.1480927, 11.0461239 ], [ 12.1480052, 11.0460737 ], [ 12.1479833, 11.0460612 ], [ 12.1479687, 11.0460529 ], [ 12.1479541, 11.0460446 ], [ 12.1479394, 11.0460363 ], [ 12.1479028, 11.0460157 ], [ 12.1478662, 11.0459952 ], [ 12.1478294, 11.0459748 ], [ 12.1477927, 11.0459544 ], [ 12.1477559, 11.0459341 ], [ 12.147719, 11.0459139 ], [ 12.1476969, 11.0459018 ], [ 12.1476747, 11.0458898 ], [ 12.1476525, 11.0458778 ], [ 12.1476303, 11.0458658 ], [ 12.1476081, 11.0458538 ], [ 12.1475859, 11.0458419 ], [ 12.1475637, 11.04583 ], [ 12.1475414, 11.0458182 ], [ 12.1475191, 11.0458063 ], [ 12.1473851, 11.045736 ], [ 12.1473627, 11.0457244 ], [ 12.1473403, 11.0457128 ], [ 12.1473179, 11.0457012 ], [ 12.1472992, 11.0456916 ], [ 12.1472804, 11.045682 ], [ 12.1472617, 11.0456725 ], [ 12.147243, 11.0456629 ], [ 12.1472242, 11.0456534 ], [ 12.1472055, 11.0456439 ], [ 12.1471829, 11.0456325 ], [ 12.1471604, 11.0456212 ], [ 12.1471378, 11.0456099 ], [ 12.1471152, 11.0455986 ], [ 12.1467975, 11.045444 ], [ 12.1467823, 11.0454368 ], [ 12.1467671, 11.0454296 ], [ 12.1467519, 11.0454224 ], [ 12.1467291, 11.0454117 ], [ 12.1467062, 11.045401 ], [ 12.1422707, 11.0433311 ], [ 12.1362062, 11.040501 ], [ 12.1359762, 11.0403956 ], [ 12.1359609, 11.0403887 ], [ 12.1359455, 11.0403819 ], [ 12.1359301, 11.040375 ], [ 12.135907, 11.0403647 ], [ 12.1358839, 11.0403544 ], [ 12.1358684, 11.0403476 ], [ 12.135853, 11.0403408 ], [ 12.1358376, 11.040334 ], [ 12.1358144, 11.0403238 ], [ 12.1357989, 11.0403171 ], [ 12.1357835, 11.0403103 ], [ 12.135768, 11.0403036 ], [ 12.1357448, 11.0402935 ], [ 12.1356053, 11.0402338 ], [ 12.135582, 11.040224 ], [ 12.1355587, 11.0402142 ], [ 12.1354886, 11.040185 ], [ 12.1353951, 11.0401465 ], [ 12.1353716, 11.040137 ], [ 12.1353013, 11.0401085 ], [ 12.1352778, 11.0400991 ], [ 12.1352621, 11.0400929 ], [ 12.1352465, 11.0400867 ], [ 12.1352308, 11.0400804 ], [ 12.1352073, 11.0400711 ], [ 12.1351837, 11.0400618 ], [ 12.1351602, 11.0400526 ], [ 12.1351445, 11.0400465 ], [ 12.1351288, 11.0400403 ], [ 12.1351131, 11.0400342 ], [ 12.1350895, 11.0400251 ], [ 12.1350659, 11.0400159 ], [ 12.1350501, 11.0400099 ], [ 12.1350344, 11.0400039 ], [ 12.1350187, 11.0399978 ], [ 12.1349004, 11.0399531 ], [ 12.1348767, 11.0399443 ], [ 12.1348569, 11.0399369 ], [ 12.1348371, 11.0399296 ], [ 12.1348174, 11.0399223 ], [ 12.1347976, 11.039915 ], [ 12.1347778, 11.0399078 ], [ 12.134758, 11.0399006 ], [ 12.1347342, 11.0398919 ], [ 12.1345436, 11.039824 ], [ 12.1345197, 11.0398156 ], [ 12.134448, 11.0397908 ], [ 12.1344161, 11.0397799 ], [ 12.1343762, 11.0397663 ], [ 12.1343522, 11.0397582 ], [ 12.1343203, 11.0397474 ], [ 12.1342883, 11.0397367 ], [ 12.1342563, 11.0397261 ], [ 12.1342243, 11.0397155 ], [ 12.1341922, 11.039705 ], [ 12.1341601, 11.0396945 ], [ 12.1341441, 11.0396893 ], [ 12.1341281, 11.0396842 ], [ 12.134112, 11.039679 ], [ 12.1339915, 11.0396406 ], [ 12.1339754, 11.0396356 ], [ 12.1339593, 11.0396306 ], [ 12.1339432, 11.0396255 ], [ 12.1339271, 11.0396205 ], [ 12.133911, 11.0396156 ], [ 12.1338949, 11.0396106 ], [ 12.1338707, 11.0396031 ], [ 12.1338505, 11.039597 ], [ 12.1338304, 11.0395908 ], [ 12.1338102, 11.0395847 ], [ 12.13379, 11.0395786 ], [ 12.1337698, 11.0395726 ], [ 12.1337496, 11.0395665 ], [ 12.1337254, 11.0395593 ], [ 12.1337012, 11.0395521 ], [ 12.1336769, 11.0395449 ], [ 12.1336526, 11.0395378 ], [ 12.1336283, 11.0395307 ], [ 12.1336041, 11.0395237 ], [ 12.1335798, 11.0395167 ], [ 12.1335554, 11.0395097 ], [ 12.1335392, 11.039505 ], [ 12.133523, 11.0395004 ], [ 12.1335068, 11.0394958 ], [ 12.1334825, 11.0394889 ], [ 12.1334581, 11.0394821 ], [ 12.1334337, 11.0394752 ], [ 12.1334094, 11.0394685 ], [ 12.133385, 11.0394617 ], [ 12.1333606, 11.039455 ], [ 12.1333362, 11.0394483 ], [ 12.1333118, 11.0394417 ], [ 12.1332874, 11.0394351 ], [ 12.133263, 11.0394285 ], [ 12.1332385, 11.039422 ], [ 12.1332141, 11.0394155 ], [ 12.1331896, 11.039409 ], [ 12.1331652, 11.0394025 ], [ 12.1331407, 11.0393961 ], [ 12.1331162, 11.0393898 ], [ 12.1330182, 11.0393646 ], [ 12.1329937, 11.0393585 ], [ 12.1329732, 11.0393533 ], [ 12.1329528, 11.0393482 ], [ 12.1329323, 11.0393431 ], [ 12.1329119, 11.039338 ], [ 12.1328914, 11.039333 ], [ 12.1328709, 11.039328 ], [ 12.1283709, 11.038228 ], [ 12.1283546, 11.038224 ], [ 12.1283382, 11.03822 ], [ 12.1283218, 11.0382161 ], [ 12.1283054, 11.0382121 ], [ 12.1282891, 11.0382082 ], [ 12.1282727, 11.0382043 ], [ 12.1282481, 11.0381984 ], [ 12.1282276, 11.0381936 ], [ 12.1282071, 11.0381888 ], [ 12.1281866, 11.038184 ], [ 12.1281661, 11.0381792 ], [ 12.1281456, 11.0381744 ], [ 12.128125, 11.0381697 ], [ 12.1281004, 11.0381641 ], [ 12.1277836, 11.0380948 ], [ 12.1276886, 11.0380758 ], [ 12.1274816, 11.0380344 ], [ 12.1274655, 11.0380312 ], [ 12.1273577, 11.0380117 ], [ 12.1271962, 11.0379821 ], [ 12.127172, 11.0379781 ], [ 12.1271464, 11.0379734 ], [ 12.1269744, 11.0379455 ], [ 12.1268434, 11.0379242 ], [ 12.1268263, 11.0379214 ], [ 12.1266236, 11.0378922 ], [ 12.1265139, 11.0378763 ], [ 12.1261835, 11.0378346 ], [ 12.1261584, 11.0378317 ], [ 12.1260077, 11.037815 ], [ 12.0943433, 11.0384695 ], [ 12.0664835, 11.0460076 ], [ 12.0566949, 11.0485203 ], [ 12.042539, 11.0492593 ], [ 12.0363965, 11.0452133 ], [ 12.0352771, 11.0443901 ], [ 12.0347577, 11.0436399 ], [ 12.031663, 11.038158 ], [ 12.0312867, 11.0375222 ], [ 12.0283483, 11.0327828 ], [ 12.023158, 11.0243143 ], [ 12.0196091, 11.0198519 ], [ 12.0169867, 11.0156222 ], [ 12.0128878, 11.0110165 ], [ 12.0099664, 11.0086958 ], [ 12.0038072, 11.0038029 ], [ 12.0004923, 10.9996233 ], [ 11.9999922, 10.9990201 ], [ 11.9988816, 10.9977388 ], [ 11.9936988, 10.9917586 ], [ 11.9827852, 10.9921335 ], [ 11.9745618, 10.9868797 ], [ 11.9671689, 10.9682734 ], [ 11.9603196, 10.9624706 ], [ 11.9596892, 10.9619609 ], [ 11.9595863, 10.9618822 ], [ 11.9474863, 10.9526822 ], [ 11.9474662, 10.9526669 ], [ 11.9474461, 10.9526517 ], [ 11.947426, 10.9526365 ], [ 11.9474059, 10.9526214 ], [ 11.9473858, 10.9526063 ], [ 11.9473656, 10.9525912 ], [ 11.9471628, 10.9524418 ], [ 11.9471424, 10.952427 ], [ 11.9471219, 10.9524122 ], [ 11.9471015, 10.9523975 ], [ 11.947081, 10.9523828 ], [ 11.9470605, 10.9523681 ], [ 11.94704, 10.9523535 ], [ 11.9470195, 10.9523389 ], [ 11.9470058, 10.9523291 ], [ 11.9469921, 10.9523194 ], [ 11.9469784, 10.9523097 ], [ 11.9468752, 10.9522374 ], [ 11.9468545, 10.952223 ], [ 11.9468338, 10.9522086 ], [ 11.946813, 10.9521943 ], [ 11.9467992, 10.9521848 ], [ 11.9467853, 10.9521752 ], [ 11.9467715, 10.9521657 ], [ 11.9467507, 10.9521515 ], [ 11.9467299, 10.9521373 ], [ 11.946716, 10.9521278 ], [ 11.9467021, 10.9521184 ], [ 11.9466882, 10.9521089 ], [ 11.9466673, 10.9520948 ], [ 11.9466464, 10.9520807 ], [ 11.9466254, 10.9520666 ], [ 11.9464573, 10.9519551 ], [ 11.9464432, 10.9519459 ], [ 11.9464292, 10.9519368 ], [ 11.9464151, 10.9519276 ], [ 11.9463092, 10.9518591 ], [ 11.9462879, 10.9518455 ], [ 11.9462738, 10.9518365 ], [ 11.9462596, 10.9518275 ], [ 11.9462454, 10.9518184 ], [ 11.9461814, 10.951778 ], [ 11.9461601, 10.9517646 ], [ 11.9461387, 10.9517512 ], [ 11.9461173, 10.9517378 ], [ 11.946103, 10.9517289 ], [ 11.9460887, 10.9517201 ], [ 11.9460744, 10.9517112 ], [ 11.946053, 10.9516979 ], [ 11.9460315, 10.9516847 ], [ 11.94601, 10.9516714 ], [ 11.9459957, 10.9516627 ], [ 11.9459813, 10.9516539 ], [ 11.945967, 10.9516451 ], [ 11.9459526, 10.9516364 ], [ 11.9459382, 10.9516276 ], [ 11.9459239, 10.9516189 ], [ 11.9459059, 10.951608 ], [ 11.9458879, 10.9515971 ], [ 11.945859, 10.9515798 ], [ 11.9458374, 10.9515668 ], [ 11.9458157, 10.9515539 ], [ 11.945794, 10.951541 ], [ 11.9457723, 10.9515281 ], [ 11.945598, 10.9514261 ], [ 11.9454226, 10.9513261 ], [ 11.9454006, 10.9513137 ], [ 11.9453786, 10.9513014 ], [ 11.9452239, 10.9512159 ], [ 11.9452017, 10.9512038 ], [ 11.9451795, 10.9511917 ], [ 11.9451129, 10.9511557 ], [ 11.9450906, 10.9511438 ], [ 11.9450758, 10.9511359 ], [ 11.9450609, 10.9511279 ], [ 11.945046, 10.95112 ], [ 11.9450163, 10.9511042 ], [ 11.9449567, 10.9510728 ], [ 11.9449343, 10.9510611 ], [ 11.9449119, 10.9510494 ], [ 11.9448895, 10.9510377 ], [ 11.9447321, 10.950957 ], [ 11.9447096, 10.9509456 ], [ 11.944687, 10.9509342 ], [ 11.9446719, 10.9509267 ], [ 11.9446569, 10.9509191 ], [ 11.9446418, 10.9509116 ], [ 11.944574, 10.9508778 ], [ 11.9444378, 10.9508112 ], [ 11.944415, 10.9508002 ], [ 11.9443923, 10.9507892 ], [ 11.9442096, 10.9507026 ], [ 11.9441867, 10.9506919 ], [ 11.944049, 10.9506286 ], [ 11.944026, 10.9506181 ], [ 11.944003, 10.9506077 ], [ 11.9410049, 10.9492537 ], [ 11.9381062, 10.947901 ], [ 11.9380796, 10.9478886 ], [ 11.938053, 10.9478762 ], [ 11.9380263, 10.9478639 ], [ 11.9379996, 10.9478517 ], [ 11.9379729, 10.9478394 ], [ 11.9379462, 10.9478273 ], [ 11.9379309, 10.9478203 ], [ 11.9379157, 10.9478134 ], [ 11.9379004, 10.9478065 ], [ 11.9378774, 10.9477962 ], [ 11.9378545, 10.9477858 ], [ 11.9378315, 10.9477756 ], [ 11.9378085, 10.9477653 ], [ 11.9377855, 10.9477551 ], [ 11.9377164, 10.9477247 ], [ 11.9376934, 10.9477146 ], [ 11.9374852, 10.9476253 ], [ 11.937462, 10.9476156 ], [ 11.9374388, 10.9476058 ], [ 11.9374156, 10.9475961 ], [ 11.9372374, 10.9475231 ], [ 11.9370656, 10.9474547 ], [ 11.9370422, 10.9474455 ], [ 11.9370265, 10.9474394 ], [ 11.9370109, 10.9474333 ], [ 11.9369953, 10.9474273 ], [ 11.9369718, 10.9474182 ], [ 11.9369483, 10.9474092 ], [ 11.9366655, 10.9473033 ], [ 11.9366418, 10.9472947 ], [ 11.9366182, 10.9472861 ], [ 11.9365945, 10.9472776 ], [ 11.9365708, 10.947269 ], [ 11.936555, 10.9472634 ], [ 11.9365392, 10.9472578 ], [ 11.9365234, 10.9472521 ], [ 11.9364997, 10.9472437 ], [ 11.9364717, 10.9472338 ], [ 11.9364516, 10.9472268 ], [ 11.9364284, 10.9472187 ], [ 11.9363094, 10.9471776 ], [ 11.9362856, 10.9471695 ], [ 11.9362617, 10.9471614 ], [ 11.9362378, 10.9471533 ], [ 11.9362139, 10.9471453 ], [ 11.9361901, 10.9471373 ], [ 11.9361661, 10.9471294 ], [ 11.9361502, 10.9471241 ], [ 11.9361342, 10.9471188 ], [ 11.9361183, 10.9471136 ], [ 11.9360944, 10.9471057 ], [ 11.9360784, 10.9471005 ], [ 11.9360624, 10.9470953 ], [ 11.9360464, 10.9470901 ], [ 11.9360225, 10.9470824 ], [ 11.9359985, 10.9470746 ], [ 11.9359745, 10.947067 ], [ 11.935734, 10.946992 ], [ 11.9357099, 10.9469847 ], [ 11.9356857, 10.9469774 ], [ 11.9356616, 10.9469701 ], [ 11.9356455, 10.9469653 ], [ 11.9356294, 10.9469605 ], [ 11.9356133, 10.9469557 ], [ 11.9355892, 10.9469486 ], [ 11.935565, 10.9469415 ], [ 11.9355408, 10.9469344 ], [ 11.9355166, 10.9469274 ], [ 11.9353713, 10.9468858 ], [ 11.935347, 10.946879 ], [ 11.9353227, 10.9468722 ], [ 11.9352985, 10.9468655 ], [ 11.9352742, 10.9468588 ], [ 11.9352499, 10.9468521 ], [ 11.9352256, 10.9468455 ], [ 11.9352013, 10.9468389 ], [ 11.9351769, 10.9468323 ], [ 11.9351526, 10.9468258 ], [ 11.9351283, 10.9468193 ], [ 11.9351039, 10.9468128 ], [ 11.9350795, 10.9468064 ], [ 11.9350552, 10.9468 ], [ 11.9350308, 10.9467936 ], [ 11.9350145, 10.9467894 ], [ 11.9349983, 10.9467852 ], [ 11.934982, 10.946781 ], [ 11.9349576, 10.9467747 ], [ 11.9349332, 10.9467685 ], [ 11.9349088, 10.9467623 ], [ 11.9348843, 10.9467561 ], [ 11.9348599, 10.94675 ], [ 11.9348354, 10.9467439 ], [ 11.934811, 10.9467378 ], [ 11.9347865, 10.9467318 ], [ 11.934762, 10.9467258 ], [ 11.9311043, 10.9458337 ], [ 11.9258826, 10.9442763 ], [ 11.9203247, 10.9425891 ], [ 11.9196584, 10.9424008 ], [ 11.919362, 10.9423258 ], [ 11.9157043, 10.9414337 ], [ 11.9104406, 10.9398638 ], [ 11.9103445, 10.9398354 ], [ 11.9103285, 10.9398308 ], [ 11.9103125, 10.9398261 ], [ 11.9102965, 10.9398215 ], [ 11.9102724, 10.9398145 ], [ 11.9102563, 10.9398099 ], [ 11.9102403, 10.9398053 ], [ 11.9102242, 10.9398007 ], [ 11.9101278, 10.9397736 ], [ 11.9101037, 10.9397669 ], [ 11.9100303, 10.9397467 ], [ 11.9100059, 10.9397401 ], [ 11.9099814, 10.9397334 ], [ 11.9099569, 10.9397269 ], [ 11.9099324, 10.9397203 ], [ 11.9099079, 10.9397138 ], [ 11.9098834, 10.9397073 ], [ 11.9098507, 10.9396987 ], [ 11.9098179, 10.9396902 ], [ 11.9097852, 10.9396818 ], [ 11.9097525, 10.9396734 ], [ 11.9097197, 10.939665 ], [ 11.9096869, 10.9396567 ], [ 11.9096705, 10.9396526 ], [ 11.9096541, 10.9396485 ], [ 11.9096377, 10.9396444 ], [ 11.9096131, 10.9396384 ], [ 11.9095885, 10.9396323 ], [ 11.9095639, 10.9396263 ], [ 11.9095392, 10.9396203 ], [ 11.9095146, 10.9396143 ], [ 11.9094817, 10.9396064 ], [ 11.9094652, 10.9396025 ], [ 11.9094406, 10.9395966 ], [ 11.9094159, 10.9395908 ], [ 11.9093912, 10.939585 ], [ 11.9091934, 10.93954 ], [ 11.9091687, 10.9395345 ], [ 11.9090447, 10.9395077 ], [ 11.9090199, 10.9395024 ], [ 11.9089951, 10.9394972 ], [ 11.9089703, 10.939492 ], [ 11.9089455, 10.9394869 ], [ 11.9087964, 10.9394567 ], [ 11.9087715, 10.9394518 ], [ 11.9087466, 10.9394469 ], [ 11.90873, 10.9394437 ], [ 11.9087134, 10.9394404 ], [ 11.9086968, 10.9394372 ], [ 11.9086802, 10.9394341 ], [ 11.9086636, 10.9394309 ], [ 11.908647, 10.9394277 ], [ 11.9086221, 10.939423 ], [ 11.9085972, 10.9394184 ], [ 11.9085805, 10.9394153 ], [ 11.9085639, 10.9394122 ], [ 11.9085473, 10.9394091 ], [ 11.9084475, 10.9393911 ], [ 11.9084142, 10.9393852 ], [ 11.9083726, 10.9393779 ], [ 11.9083559, 10.9393751 ], [ 11.9083392, 10.9393722 ], [ 11.9083142, 10.9393679 ], [ 11.9082976, 10.9393651 ], [ 11.9082726, 10.9393609 ], [ 11.9082476, 10.9393567 ], [ 11.9082309, 10.939354 ], [ 11.9082142, 10.9393512 ], [ 11.9081975, 10.9393485 ], [ 11.9081641, 10.9393431 ], [ 11.9081475, 10.9393404 ], [ 11.9081308, 10.9393377 ], [ 11.9081141, 10.9393351 ], [ 11.9080723, 10.9393285 ], [ 11.9080473, 10.9393246 ], [ 11.9080222, 10.9393208 ], [ 11.9080057, 10.9393183 ], [ 11.9079891, 10.9393157 ], [ 11.9079726, 10.9393132 ], [ 11.9079478, 10.9393095 ], [ 11.9017695, 10.9586798 ], [ 11.8995736, 10.9688914 ], [ 11.8987026, 10.9664666 ], [ 11.8969894, 10.9657528 ], [ 11.8962755, 10.963754 ], [ 11.8947765, 10.9620408 ], [ 11.8945017, 10.9599788 ], [ 11.8942054, 10.9586858 ], [ 11.893206, 10.9588285 ], [ 11.8916356, 10.9580433 ], [ 11.8903507, 10.9574009 ], [ 11.8903507, 10.955759 ], [ 11.8884233, 10.9551166 ], [ 11.8872812, 10.9549024 ], [ 11.8862818, 10.9566156 ], [ 11.8854966, 10.9567584 ], [ 11.8843544, 10.9577578 ], [ 11.8832837, 10.9577578 ], [ 11.8822129, 10.9566156 ], [ 11.8812243, 10.9559267 ], [ 11.8804283, 10.9544027 ], [ 11.8793533, 10.954623 ], [ 11.8780721, 10.9537301 ], [ 11.877493, 10.9525896 ], [ 11.8761793, 10.9524112 ], [ 11.875894, 10.9505337 ], [ 11.8766364, 10.948535 ], [ 11.8771504, 10.9471644 ], [ 11.875949, 10.9464947 ], [ 11.8746377, 10.9445375 ], [ 11.8736669, 10.9435096 ], [ 11.8725818, 10.9438522 ], [ 11.8717252, 10.9445946 ], [ 11.8708115, 10.9445375 ], [ 11.8698407, 10.9436238 ], [ 11.8690983, 10.9425388 ], [ 11.8688699, 10.9419106 ], [ 11.8666427, 10.9415108 ], [ 11.8653292, 10.942139 ], [ 11.8640729, 10.942653 ], [ 11.8628736, 10.9435096 ], [ 11.8621754, 10.9430138 ], [ 11.862017, 10.9422532 ], [ 11.8623377, 10.9415218 ], [ 11.862017, 10.9399118 ], [ 11.8611033, 10.938427 ], [ 11.859333, 10.9380844 ], [ 11.8577574, 10.9385358 ], [ 11.8559637, 10.9387126 ], [ 11.8544789, 10.9383128 ], [ 11.8544956, 10.9362612 ], [ 11.8548526, 10.9349763 ], [ 11.8522114, 10.934548 ], [ 11.8496103, 10.9346689 ], [ 11.8491418, 10.9346907 ], [ 11.8467862, 10.9353332 ], [ 11.8466434, 10.9365467 ], [ 11.8467153, 10.9383401 ], [ 11.8457152, 10.9383437 ], [ 11.8413609, 10.938359 ], [ 11.8397973, 10.9373703 ], [ 11.8358645, 10.9371178 ], [ 11.8357917, 10.9383786 ], [ 11.8341512, 10.9392593 ], [ 11.8332237, 10.9383876 ], [ 11.8316545, 10.9383931 ], [ 11.8289402, 10.9384027 ], [ 11.8258707, 10.9394021 ], [ 11.823515, 10.9410439 ], [ 11.8215877, 10.9426143 ], [ 11.8196603, 10.9445417 ], [ 11.8185896, 10.9450414 ], [ 11.8178043, 10.944042 ], [ 11.8185896, 10.9425429 ], [ 11.8184468, 10.9415436 ], [ 11.8175902, 10.9401873 ], [ 11.816805, 10.9389737 ], [ 11.8157342, 10.9386882 ], [ 11.8135213, 10.9394734 ], [ 11.8119509, 10.9396162 ], [ 11.8104518, 10.9381885 ], [ 11.8082389, 10.9377602 ], [ 11.8064543, 10.9376888 ], [ 11.8052408, 10.9364753 ], [ 11.8039559, 10.9344766 ], [ 11.8033848, 10.9327634 ], [ 11.8018857, 10.9326206 ], [ 11.8007436, 10.9334772 ], [ 11.8009578, 10.935119 ], [ 11.7999584, 10.9364039 ], [ 11.8001471, 10.9376986 ], [ 11.798959, 10.9381885 ], [ 11.7977455, 10.9367608 ], [ 11.7953898, 10.9352618 ], [ 11.7929628, 10.9347621 ], [ 11.7898933, 10.93362 ], [ 11.7888283, 10.9340607 ], [ 11.783326, 10.9366181 ], [ 11.782398, 10.9349049 ], [ 11.7797568, 10.9344766 ], [ 11.778686, 10.9344766 ], [ 11.7767586, 10.9331917 ], [ 11.7757593, 10.9313357 ], [ 11.7755451, 10.9294797 ], [ 11.7748313, 10.9278379 ], [ 11.7752477, 10.9256785 ], [ 11.7758425, 10.9237155 ], [ 11.7744149, 10.923537 ], [ 11.7732251, 10.9239534 ], [ 11.7717197, 10.9240353 ], [ 11.7704888, 10.9237155 ], [ 11.7691801, 10.9227637 ], [ 11.7682878, 10.9207411 ], [ 11.7678661, 10.9200304 ], [ 11.7671575, 10.9203842 ], [ 11.7662652, 10.9219903 ], [ 11.7647186, 10.9228232 ], [ 11.7637668, 10.921336 ], [ 11.7635883, 10.9195514 ], [ 11.7632123, 10.9181 ], [ 11.7628745, 10.9171125 ], [ 11.7617442, 10.9159822 ], [ 11.7602492, 10.9153287 ], [ 11.7588294, 10.9159822 ], [ 11.7576992, 10.9165771 ], [ 11.7569258, 10.9175883 ], [ 11.7562715, 10.9184806 ], [ 11.7550223, 10.919016 ], [ 11.7541895, 10.9182427 ], [ 11.7527023, 10.9171125 ], [ 11.7520479, 10.9163986 ], [ 11.7499064, 10.9159822 ], [ 11.7488357, 10.916696 ], [ 11.7478244, 10.9175883 ], [ 11.7465157, 10.9174694 ], [ 11.7460398, 10.9161012 ], [ 11.744969, 10.9156253 ], [ 11.7428275, 10.9155063 ], [ 11.7419523, 10.9148299 ], [ 11.7413999, 10.9128294 ], [ 11.7413278, 10.9117812 ], [ 11.7422921, 10.9108069 ], [ 11.7431844, 10.9099146 ], [ 11.7432439, 10.9087249 ], [ 11.7427086, 10.9080705 ], [ 11.7415188, 10.9084274 ], [ 11.7402101, 10.9087249 ], [ 11.7394963, 10.9092007 ], [ 11.7396129, 10.9106585 ], [ 11.7396153, 10.9106879 ], [ 11.7386635, 10.9110448 ], [ 11.7378901, 10.9099146 ], [ 11.7377265, 10.9094236 ], [ 11.7372358, 10.9079515 ], [ 11.7372358, 10.9064049 ], [ 11.7346779, 10.906048 ], [ 11.7335975, 10.90458 ], [ 11.7337856, 10.9025977 ], [ 11.7336071, 10.9010511 ], [ 11.7333954, 10.9009487 ], [ 11.731763, 10.9001588 ], [ 11.7289672, 10.899445 ], [ 11.7264956, 10.8992548 ], [ 11.7258739, 10.899207 ], [ 11.7243272, 10.8989691 ], [ 11.7241077, 10.8986686 ], [ 11.723197, 10.8974224 ], [ 11.7221381, 10.8960304 ], [ 11.7198236, 10.8954406 ], [ 11.7192256, 10.8961736 ], [ 11.7182557, 10.8970256 ], [ 11.7177837, 10.8974403 ], [ 11.7170699, 10.8995818 ], [ 11.7146904, 10.9004146 ], [ 11.712192, 10.9017233 ], [ 11.7104074, 10.9008905 ], [ 11.70779, 10.9001766 ], [ 11.7062433, 10.8993438 ], [ 11.7061243, 10.8972023 ], [ 11.7063623, 10.8945849 ], [ 11.7043714, 10.8915026 ], [ 11.6980966, 10.8868812 ], [ 11.6923923, 10.8835903 ], [ 11.6896115, 10.8840104 ], [ 11.6869732, 10.8840104 ], [ 11.6768288, 10.876792 ], [ 11.674183, 10.8770859 ], [ 11.6722289, 10.8782023 ], [ 11.6685768, 10.8777084 ], [ 11.6642273, 10.8786187 ], [ 11.662378, 10.8782023 ], [ 11.6596541, 10.8796191 ], [ 11.6583091, 10.880558 ], [ 11.6570242, 10.8802011 ], [ 11.6557419, 10.8795516 ], [ 11.6545257, 10.8800583 ], [ 11.6526697, 10.8804152 ], [ 11.6508138, 10.8804152 ], [ 11.6510279, 10.8781309 ], [ 11.6503141, 10.8771316 ], [ 11.6490292, 10.8771316 ], [ 11.648244, 10.8780595 ], [ 11.6466735, 10.8783451 ], [ 11.64546, 10.8778454 ], [ 11.6439609, 10.8776312 ], [ 11.6431153, 10.8766431 ], [ 11.6418908, 10.8759894 ], [ 11.640249, 10.8757039 ], [ 11.6401776, 10.8742048 ], [ 11.6395421, 10.873414 ], [ 11.6373196, 10.8706481 ], [ 11.6351444, 10.8649886 ], [ 11.632145, 10.857185 ], [ 11.6328581, 10.8529833 ], [ 11.6338088, 10.8331412 ], [ 11.6468812, 10.8343084 ], [ 11.7167967, 10.8241884 ], [ 11.7258332, 10.8251879 ], [ 11.7292451, 10.8252199 ], [ 11.7337256, 10.8242471 ], [ 11.7382256, 10.8226471 ], [ 11.7420024, 10.8207806 ], [ 11.7460024, 10.8181806 ], [ 11.7496767, 10.8150118 ], [ 11.7512435, 10.8129605 ], [ 11.7513124, 10.8128546 ], [ 11.7513941, 10.8127268 ], [ 11.7514076, 10.8127054 ], [ 11.751448, 10.8126413 ], [ 11.7514569, 10.812627 ], [ 11.7514658, 10.8126127 ], [ 11.7514747, 10.8125984 ], [ 11.7514836, 10.8125841 ], [ 11.7514925, 10.8125697 ], [ 11.7515014, 10.8125554 ], [ 11.7515102, 10.8125411 ], [ 11.751519, 10.8125267 ], [ 11.7515279, 10.8125124 ], [ 11.7516327, 10.8123395 ], [ 11.7516413, 10.8123251 ], [ 11.7516499, 10.8123106 ], [ 11.7516585, 10.8122961 ], [ 11.7516671, 10.8122816 ], [ 11.7516757, 10.8122671 ], [ 11.7516843, 10.8122526 ], [ 11.7517227, 10.8121873 ], [ 11.7517355, 10.8121655 ], [ 11.7517482, 10.8121436 ], [ 11.7517566, 10.8121291 ], [ 11.7517651, 10.8121145 ], [ 11.7517735, 10.8121 ], [ 11.7518363, 10.8119903 ], [ 11.7518736, 10.8119244 ], [ 11.7518818, 10.8119097 ], [ 11.7518901, 10.811895 ], [ 11.7518983, 10.8118803 ], [ 11.7520079, 10.8116812 ], [ 11.7520159, 10.8116664 ], [ 11.7520239, 10.8116516 ], [ 11.7520319, 10.8116368 ], [ 11.7520439, 10.8116145 ], [ 11.7520558, 10.8115923 ], [ 11.7520677, 10.81157 ], [ 11.7521149, 10.8114808 ], [ 11.7521227, 10.8114659 ], [ 11.7521305, 10.8114509 ], [ 11.7521384, 10.811436 ], [ 11.7521461, 10.8114211 ], [ 11.7521539, 10.8114062 ], [ 11.7521617, 10.8113913 ], [ 11.7521733, 10.8113688 ], [ 11.752181, 10.8113539 ], [ 11.7521887, 10.8113389 ], [ 11.7521964, 10.8113239 ], [ 11.7522079, 10.8113015 ], [ 11.7522155, 10.8112865 ], [ 11.7522232, 10.8112715 ], [ 11.7522308, 10.8112565 ], [ 11.7522876, 10.8111438 ], [ 11.7530599, 10.8095992 ], [ 11.7544876, 10.8067438 ], [ 11.7555268, 10.8041942 ], [ 11.7555345, 10.8041702 ], [ 11.7555421, 10.8041463 ], [ 11.7555471, 10.8041303 ], [ 11.7555522, 10.8041143 ], [ 11.7555573, 10.8040983 ], [ 11.7555623, 10.8040824 ], [ 11.7555673, 10.8040664 ], [ 11.7555723, 10.8040504 ], [ 11.7555772, 10.8040344 ], [ 11.7555822, 10.8040184 ], [ 11.7555871, 10.8040024 ], [ 11.7555921, 10.8039864 ], [ 11.755597, 10.8039704 ], [ 11.7556019, 10.8039544 ], [ 11.7556068, 10.8039384 ], [ 11.7556116, 10.8039223 ], [ 11.7556165, 10.8039063 ], [ 11.7556213, 10.8038903 ], [ 11.7556262, 10.8038742 ], [ 11.755631, 10.8038582 ], [ 11.7556382, 10.8038341 ], [ 11.755643, 10.803818 ], [ 11.7556477, 10.803802 ], [ 11.7556525, 10.803786 ], [ 11.7556876, 10.8036653 ], [ 11.7556922, 10.8036492 ], [ 11.7556968, 10.8036331 ], [ 11.7557014, 10.803617 ], [ 11.7557059, 10.8036009 ], [ 11.7557105, 10.8035848 ], [ 11.7557151, 10.8035686 ], [ 11.7557196, 10.8035525 ], [ 11.7557241, 10.8035364 ], [ 11.7557286, 10.8035203 ], [ 11.7557364, 10.803492 ], [ 11.7557442, 10.8034638 ], [ 11.755752, 10.8034355 ], [ 11.7557596, 10.8034072 ], [ 11.7557673, 10.8033789 ], [ 11.7557749, 10.8033506 ], [ 11.7557792, 10.8033344 ], [ 11.7557835, 10.8033182 ], [ 11.7557878, 10.803302 ], [ 11.7558133, 10.8032048 ], [ 11.7558196, 10.8031803 ], [ 11.7558258, 10.8031561 ], [ 11.755832, 10.8031318 ], [ 11.7558402, 10.8030993 ], [ 11.7558484, 10.8030668 ], [ 11.7558565, 10.8030343 ], [ 11.7558645, 10.8030018 ], [ 11.7558725, 10.8029693 ], [ 11.7558804, 10.8029367 ], [ 11.7558843, 10.8029204 ], [ 11.7558883, 10.8029041 ], [ 11.7558922, 10.8028879 ], [ 11.7559096, 10.8028145 ], [ 11.7559134, 10.8027982 ], [ 11.7559172, 10.8027819 ], [ 11.755921, 10.8027656 ], [ 11.7559544, 10.8026186 ], [ 11.7559599, 10.8025941 ], [ 11.7559761, 10.8025204 ], [ 11.7559796, 10.8025041 ], [ 11.7559831, 10.8024877 ], [ 11.7559867, 10.8024713 ], [ 11.7559919, 10.8024468 ], [ 11.7559954, 10.8024304 ], [ 11.7559988, 10.802414 ], [ 11.7560023, 10.8023976 ], [ 11.7560074, 10.802373 ], [ 11.7560126, 10.8023484 ], [ 11.7560376, 10.8022253 ], [ 11.7560425, 10.8022006 ], [ 11.7560474, 10.802176 ], [ 11.7565546, 10.7996009 ], [ 11.7573474, 10.795576 ], [ 11.7573522, 10.7955512 ], [ 11.7573555, 10.7955346 ], [ 11.7573587, 10.7955181 ], [ 11.7573619, 10.7955015 ], [ 11.757365, 10.7954849 ], [ 11.7573682, 10.7954684 ], [ 11.7573714, 10.7954518 ], [ 11.7573745, 10.7954352 ], [ 11.7573776, 10.7954187 ], [ 11.7573807, 10.7954021 ], [ 11.7573854, 10.7953772 ], [ 11.75739, 10.7953523 ], [ 11.7574929, 10.7947777 ], [ 11.7575259, 10.7945859 ], [ 11.7575581, 10.7943939 ], [ 11.7575896, 10.7942019 ], [ 11.7576702, 10.7928657 ], [ 11.7599075, 10.781989 ], [ 11.7608385, 10.7731436 ], [ 11.7615219, 10.7602382 ], [ 11.7621067, 10.7528728 ], [ 11.7639288, 10.7381866 ], [ 11.7654671, 10.7303607 ], [ 11.7673823, 10.722734 ], [ 11.7669607, 10.7057637 ], [ 11.7537488, 10.6625634 ], [ 11.7331244, 10.6471188 ], [ 11.7143481, 10.6340948 ], [ 11.7057223, 10.6311054 ], [ 11.6799277, 10.6251765 ], [ 11.6566579, 10.6139888 ], [ 11.6389817, 10.6106585 ], [ 11.6268819, 10.6023863 ], [ 11.6162707, 10.6009934 ], [ 11.603618, 10.5999496 ], [ 11.5936699, 10.5975904 ], [ 11.5833073, 10.5938692 ] ] ] } }
]
}
