{
"type": "FeatureCollection",
"name": "Yobe_micro_catchments",
"crs": { "type": "name", "properties": { "name": "urn:ogc:def:crs:OGC:1.3:CRS84" } },
"features": [
{ "type": "Feature", "properties": { "Stra_Catch": "Hadejia-Jama'are", "State": "Bauchi", "LGA": "Gamawa", "Population": 507900, "Cleard_TOR": "No", "Status": "Yet to be awarded", "Start_Date": "2024-09-29T00:00:00", "End_Date": "2025-05-20T00:00:00", "Micr_Catch": "Gamawa", "Size_Ha": 81120.978691600001, "Comments": null, "OBJECTID_1": 0, "Shape_Leng": 0.0, "Shape_Area": 0.0, "parent_strategic_name": "Hadejia", "clipped_to_state": true }, "geometry": { "type": "Polygon", "coordinates": [ [ [ 10.772789510090979, 12.386932712131214, 0.0 ], [ 10.783333333333038, 12.387500000000149, 0.0 ], [ 10.789710489908613, 12.386932712131216, 0.0 ], [ 10.793622843424265, 12.383900621202303, 0.0 ], [ 10.802951727972863, 12.382766045464381, 0.0 ], [ 10.804166666666326, 12.387500000000145, 0.0 ], [ 10.814660135904582, 12.388117472330849, 0.0 ], [ 10.818673197428012, 12.391049194335933, 0.0 ], [ 10.822993469237954, 12.392284138997452, 0.0 ], [ 10.828218078612979, 12.396100870768279, 0.0 ], [ 10.829934861924542, 12.384305148654548, 0.0 ], [ 10.833333333333037, 12.383333333333365, 0.0 ], [ 10.833686659070741, 12.380908881293507, 0.0 ], [ 10.837146674261762, 12.377424452039905, 0.0 ], [ 10.837499999999636, 12.375, 0.0 ], [ 10.837499999999634, 12.370833333333264, 0.0 ], [ 10.83090888129318, 12.370480007595559, 0.0 ], [ 10.827424452039638, 12.367019992404591, 0.0 ], [ 10.822575547959751, 12.366313340928897, 0.0 ], [ 10.81909111870638, 12.362853325737932, 0.0 ], [ 10.805908881293124, 12.36214667426229, 0.0 ], [ 10.802424452039524, 12.358686659071326, 0.0 ], [ 10.799999999999722, 12.358333333333393, 0.0 ], [ 10.800567287868654, 12.35612284342459, 0.0 ], [ 10.803599378797394, 12.352210489908927, 0.0 ], [ 10.804827880859067, 12.33839959038629, 0.0 ], [ 10.808333333332923, 12.3375, 0.0 ], [ 10.808333333332923, 12.333333333333471, 0.0 ], [ 10.809220716687985, 12.329875013563351, 0.0 ], [ 10.81887715657515, 12.328599378797874, 0.0 ], [ 10.822916666666362, 12.325468614366386, 0.0 ], [ 10.826956176757406, 12.328599378797875, 0.0 ], [ 10.856377156575117, 12.329733954535625, 0.0 ], [ 10.860289510090769, 12.332766045464535, 0.0 ], [ 10.870833333332939, 12.333333333333464, 0.0 ], [ 10.874035644530858, 12.33236897786456, 0.0 ], [ 10.874872739514094, 12.329589257392904, 0.0 ], [ 10.874489083799654, 12.329414555490658, 0.0 ], [ 10.874218223903323, 12.328592337770127, 0.0 ], [ 10.873659392540437, 12.327571372831796, 0.0 ], [ 10.874197817602079, 12.32723666599067, 0.0 ], [ 10.874758287099041, 12.326972244833785, 0.0 ], [ 10.875031444468712, 12.326678021464241, 0.0 ], [ 10.875874589022288, 12.32670502338882, 0.0 ], [ 10.877891933275142, 12.323859760266552, 0.0 ], [ 10.876870027645934, 12.323220774913928, 0.0 ], [ 10.876926364326053, 12.321523771406216, 0.0 ], [ 10.876240074605793, 12.321211250464883, 0.0 ], [ 10.876646137525306, 12.320444226544737, 0.0 ], [ 10.876176685115558, 12.320022702995461, 0.0 ], [ 10.877426714148632, 12.318867496857809, 0.0 ], [ 10.877821018851426, 12.317735649211521, 0.0 ], [ 10.877307050291391, 12.317719057789924, 0.0 ], [ 10.876876827265464, 12.317738963046391, 0.0 ], [ 10.876913249615802, 12.316649562599389, 0.0 ], [ 10.876050665289787, 12.316387770653709, 0.0 ], [ 10.876064435946176, 12.315975900674438, 0.0 ], [ 10.876033958582918, 12.315325214657802, 0.0 ], [ 10.876802081916411, 12.314498241215823, 0.0 ], [ 10.877421834285382, 12.314469884375528, 0.0 ], [ 10.877835589936169, 12.314483192980157, 0.0 ], [ 10.878253960814124, 12.314463898129151, 0.0 ], [ 10.879085973131657, 12.315082287342014, 0.0 ], [ 10.878313530815532, 12.30859951443146, 0.0 ], [ 10.872968207464844, 12.304809570312596, 0.0 ], [ 10.864531792534317, 12.303523763020833, 0.0 ], [ 10.856301540798167, 12.29647623697916, 0.0 ], [ 10.852031792534234, 12.295190429687564, 0.0 ], [ 10.847968207464909, 12.29230957031255, 0.0 ], [ 10.839531622992345, 12.291023763020958, 0.0 ], [ 10.835468377006972, 12.288142903645889, 0.0 ], [ 10.831198289658918, 12.286857096354128, 0.0 ], [ 10.827135043673717, 12.283976236979283, 0.0 ], [ 10.818698289659062, 12.282690429687518, 0.0 ], [ 10.81463504367369, 12.279809570312452, 0.0 ], [ 10.810364956325634, 12.278523763020917, 0.0 ], [ 10.806301710340433, 12.275642903645846, 0.0 ], [ 10.797864956325547, 12.274357096354255, 0.0 ], [ 10.789635043673746, 12.267309570312575, 0.0 ], [ 10.789432761262479, 12.267278741370667, 0.0 ], [ 10.7893916, 12.2749783, 0.0 ], [ 10.7894446, 12.2750095, 0.0 ], [ 10.7890163, 12.2783646, 0.0 ], [ 10.7879455, 12.2821479, 0.0 ], [ 10.7850188, 12.2872162, 0.0 ], [ 10.7816637, 12.2908568, 0.0 ], [ 10.7759387, 12.3097315, 0.0 ], [ 10.7720705, 12.3295754, 0.0 ], [ 10.7679236, 12.3508479, 0.0 ], [ 10.766092, 12.3602418, 0.0 ], [ 10.7642615, 12.3696319, 0.0 ], [ 10.762549608878777, 12.382892863831946, 0.0 ], [ 10.768877156575154, 12.383900621202303, 0.0 ], [ 10.772789510090979, 12.386932712131214, 0.0 ] ] ] } },
{ "type": "Feature", "properties": { "Stra_Catch": "Hadejia_Jamaare", "State": "Yobe", "LGA": "Nguru", "Population": 270632, "Cleard_TOR": "No yet cleared", "Status": "Not yet awared", "Start_Date": "2024-12-12T00:00:00", "End_Date": "2025-01-25T00:00:00", "Micr_Catch": "Nguru", "Size_Ha": 112208.447111, "Comments": null, "OBJECTID_1": 0, "Shape_Leng": 0.0, "Shape_Area": 0.0, "parent_strategic_name": "Hadejia", "clipped_to_state": true }, "geometry": { "type": "MultiPolygon", "coordinates": [ [ [ [ 10.433333333333289, 13.1125, 0.0 ], [ 10.433938429090682, 13.110327148437554, 0.0 ], [ 10.436894904242585, 13.106339518229209, 0.0 ], [ 10.43860914442271, 13.100183444552997, 0.0 ], [ 10.443660651312888, 13.096438259548643, 0.0 ], [ 10.449246554904466, 13.094882880316892, 0.0 ], [ 10.450605095757336, 13.085327148437555, 0.0 ], [ 10.453561570909249, 13.081339518229214, 0.0 ], [ 10.4549201117621, 13.071783786349862, 0.0 ], [ 10.461592441134938, 13.069925944010437, 0.0 ], [ 10.463105095757328, 13.064493815104234, 0.0 ], [ 10.466061570909231, 13.060506184895864, 0.0 ], [ 10.467775811089368, 13.054350111219668, 0.0 ], [ 10.472827317979554, 13.050604926215314, 0.0 ], [ 10.482548522949163, 13.04922315809466, 0.0 ], [ 10.483777194552898, 13.040908474392385, 0.0 ], [ 10.479771762423987, 13.035506184895874, 0.0 ], [ 10.478561570909241, 13.031160481770861, 0.0 ], [ 10.475605095757341, 13.027172851562538, 0.0 ], [ 10.474394904242555, 13.018660481770876, 0.0 ], [ 10.471438429090671, 13.014672851562523, 0.0 ], [ 10.470228237575903, 13.010327148437531, 0.0 ], [ 10.466061570909256, 13.004707166883716, 0.0 ], [ 10.467870754665753, 13.0006503634983, 0.0 ], [ 10.479166666666618, 13.0, 0.0 ], [ 10.480017598470011, 13.003315904405408, 0.0 ], [ 10.486649068196554, 13.005017428928008, 0.0 ], [ 10.488350931803327, 13.011649237738759, 0.0 ], [ 10.49543745252817, 13.013467746310793, 0.0 ], [ 10.499432712131023, 13.018622843424513, 0.0 ], [ 10.500915696885787, 13.024401516384572, 0.0 ], [ 10.539710489908787, 13.02556728786897, 0.0 ], [ 10.547789510091064, 13.032766045464433, 0.0 ], [ 10.55, 13.033333333333367, 0.0 ], [ 10.550353325737763, 13.026742214626767, 0.0 ], [ 10.553813340928725, 13.023257785373294, 0.0 ], [ 10.554166666666582, 13.020833333333384, 0.0 ], [ 10.554519992404428, 13.018408881293436, 0.0 ], [ 10.570819769965189, 13.002084350585957, 0.0 ], [ 10.566680569118837, 12.997915988498312, 0.0 ], [ 10.574646674262064, 12.989924452039997, 0.0 ], [ 10.575353325737755, 12.98507554796009, 0.0 ], [ 10.578813340928715, 12.981591118706636, 0.0 ], [ 10.579166666666573, 12.97916666666671, 0.0 ], [ 10.57916666666657, 12.975, 0.0 ], [ 10.579166666666579, 12.970833333333351, 0.0 ], [ 10.579784308539395, 12.960339694552975, 0.0 ], [ 10.583950975206076, 12.95463595920142, 0.0 ], [ 10.581696065266817, 12.949836222330745, 0.0 ], [ 10.572993469238179, 12.942284138997429, 0.0 ], [ 10.567593044704758, 12.940740288628495, 0.0 ], [ 10.565578375922223, 12.933693779839434, 0.0 ], [ 10.552091810438286, 12.921388753255227, 0.0 ], [ 10.546302456325877, 12.925617472330758, 0.0 ], [ 10.541049024793763, 12.92314961751304, 0.0 ], [ 10.542284308539422, 12.918673027886324, 0.0 ], [ 10.545215691460427, 12.914660305447116, 0.0 ], [ 10.546450975206094, 12.910339694553006, 0.0 ], [ 10.549382358127099, 12.906326972113748, 0.0 ], [ 10.55061764187275, 12.88950636121964, 0.0 ], [ 10.55354902479375, 12.885493638780403, 0.0 ], [ 10.554784308539414, 12.881173027886319, 0.0 ], [ 10.558950975206068, 12.875469292534763, 0.0 ], [ 10.557715691460416, 12.872839694552965, 0.0 ], [ 10.553549024793755, 12.867135959201423, 0.0 ], [ 10.554784308539407, 12.864506361219656, 0.0 ], [ 10.558950975206075, 12.858802625868117, 0.0 ], [ 10.557715691460411, 12.85617302788631, 0.0 ], [ 10.546450975206078, 12.843826972113742, 0.0 ], [ 10.54483371310757, 12.832715861002624, 0.0 ], [ 10.5311731974283, 12.833950805664099, 0.0 ], [ 10.521757168239951, 12.842122056749178, 0.0 ], [ 10.520548841688306, 12.83240797254777, 0.0 ], [ 10.525617641872763, 12.825469292534754, 0.0 ], [ 10.524382358127099, 12.822839694552984, 0.0 ], [ 10.521450975206086, 12.818826972113744, 0.0 ], [ 10.521182420138578, 12.817887655981382, 0.0 ], [ 10.5211203, 12.8178693, 0.0 ], [ 10.5200507, 12.8178983, 0.0 ], [ 10.5190703, 12.8180142, 0.0 ], [ 10.517971, 12.8182169, 0.0 ], [ 10.5166935, 12.8184487, 0.0 ], [ 10.5156537, 12.8188253, 0.0 ], [ 10.5144058, 12.8188832, 0.0 ], [ 10.5138601, 12.8191865, 0.0 ], [ 10.5133363, 12.8194626, 0.0 ], [ 10.5128015, 12.8195785, 0.0 ], [ 10.5121182, 12.8193178, 0.0 ], [ 10.5112269, 12.8187094, 0.0 ], [ 10.5101276, 12.8180721, 0.0 ], [ 10.5090283, 12.8173479, 0.0 ], [ 10.5076914, 12.8166816, 0.0 ], [ 10.5063841, 12.8159573, 0.0 ], [ 10.5049581, 12.8150303, 0.0 ], [ 10.5038588, 12.8141322, 0.0 ], [ 10.5031167, 12.8141377, 0.0 ], [ 10.5021653, 12.8142481, 0.0 ], [ 10.5008581, 12.8145957, 0.0 ], [ 10.4996103, 12.8152041, 0.0 ], [ 10.4984535, 12.8155356, 0.0 ], [ 10.4969568, 12.815751, 0.0 ], [ 10.4959262, 12.8158994, 0.0 ], [ 10.4950647, 12.8158704, 0.0 ], [ 10.4944407, 12.8153779, 0.0 ], [ 10.4937574, 12.8147985, 0.0 ], [ 10.4937119, 12.8141612, 0.0 ], [ 10.4938168, 12.8130313, 0.0 ], [ 10.4938376, 12.8117769, 0.0 ], [ 10.494622, 12.8108035, 0.0 ], [ 10.4960481, 12.8103168, 0.0 ], [ 10.4992567, 12.8096911, 0.0 ], [ 10.5019663, 12.8092739, 0.0 ], [ 10.5028932, 12.8085786, 0.0 ], [ 10.5029645, 12.8070489, 0.0 ], [ 10.5016098, 12.8055193, 0.0 ], [ 10.4997131, 12.803832, 0.0 ], [ 10.4962905, 12.8031089, 0.0 ], [ 10.4933813, 12.8023857, 0.0 ], [ 10.4909284, 12.8018851, 0.0 ], [ 10.4888178, 12.8012732, 0.0 ], [ 10.4867072, 12.7993263, 0.0 ], [ 10.4841973, 12.7991038, 0.0 ], [ 10.4827142, 12.798937, 0.0 ], [ 10.4821438, 12.7968788, 0.0 ], [ 10.4815734, 12.7941531, 0.0 ], [ 10.4808051, 12.7926918, 0.0 ], [ 10.4806607, 12.7913717, 0.0 ], [ 10.4790635, 12.7904817, 0.0 ], [ 10.4773522, 12.7904261, 0.0 ], [ 10.4752185, 12.7900393, 0.0 ], [ 10.4719473, 12.7935597, 0.0 ], [ 10.4695943, 12.795159, 0.0 ], [ 10.4649595, 12.7990529, 0.0 ], [ 10.4603961, 12.8014169, 0.0 ], [ 10.4562922, 12.8041385, 0.0 ], [ 10.4562744, 12.8041429, 0.0 ], [ 10.4501756, 12.8070181, 0.0 ], [ 10.4472649, 12.8094034, 0.0 ], [ 10.4425249, 12.812721, 0.0 ], [ 10.4407577, 12.8143172, 0.0 ], [ 10.4360378, 12.8176359, 0.0 ], [ 10.4352546, 12.8181866, 0.0 ], [ 10.4332083, 12.8198553, 0.0 ], [ 10.4315112, 12.8204293, 0.0 ], [ 10.4283117, 12.8223799, 0.0 ], [ 10.4244138, 12.8234923, 0.0 ], [ 10.419375, 12.8246047, 0.0 ], [ 10.4161425, 12.8268295, 0.0 ], [ 10.4140509, 12.8278492, 0.0 ], [ 10.4095826, 12.8305374, 0.0 ], [ 10.4024931, 12.8336219, 0.0 ], [ 10.395454125670696, 12.836713071052113, 0.0 ], [ 10.396541849772111, 12.844945949978362, 0.0 ], [ 10.4, 12.845833333333355, 0.0 ], [ 10.39914906819658, 12.849149237738757, 0.0 ], [ 10.395833333333306, 12.85, 0.0 ], [ 10.391666666666637, 12.85, 0.0 ], [ 10.39166666666665, 12.854166666666707, 0.0 ], [ 10.388350931803357, 12.85501742892799, 0.0 ], [ 10.386932712131042, 12.860543823242235, 0.0 ], [ 10.379628499348925, 12.868741183810776, 0.0 ], [ 10.382766045464392, 12.872789510091209, 0.0 ], [ 10.383900621202235, 12.884183417426273, 0.0 ], [ 10.378247239854575, 12.8909623887804, 0.0 ], [ 10.368622843424459, 12.892233954535609, 0.0 ], [ 10.364710489908823, 12.895266045464426, 0.0 ], [ 10.35, 12.895833333333377, 0.0 ], [ 10.347575547960044, 12.895480007595518, 0.0 ], [ 10.344091118706581, 12.892019992404547, 0.0 ], [ 10.339242214626715, 12.891313340928845, 0.0 ], [ 10.335757785373245, 12.887853325737883, 0.0 ], [ 10.330908881293391, 12.887146674262196, 0.0 ], [ 10.327424452039921, 12.883686659071236, 0.0 ], [ 10.32083333333332, 12.883333333333365, 0.0 ], [ 10.319982401529936, 12.886649237738734, 0.0 ], [ 10.313350931803361, 12.888350762261332, 0.0 ], [ 10.311600409613698, 12.895172119140668, 0.0 ], [ 10.296732923719613, 12.896494547526078, 0.0 ], [ 10.29583333333332, 12.9, 0.0 ], [ 10.289159711135728, 12.900680798641314, 0.0 ], [ 10.2889716, 12.9056346, 0.0 ], [ 10.287685887618981, 12.906511144414182, 0.0 ], [ 10.286728583441832, 12.915895250108559, 0.0 ], [ 10.272864956325948, 12.917309570312534, 0.0 ], [ 10.271834575685903, 12.918040114743636, 0.0 ], [ 10.2718369, 12.9180616, 0.0 ], [ 10.2718369, 12.9181775, 0.0 ], [ 10.2717893, 12.9183367, 0.0 ], [ 10.2717507, 12.9184786, 0.0 ], [ 10.2717299, 12.918606, 0.0 ], [ 10.2717002, 12.9186292, 0.0 ], [ 10.2715487, 12.9186118, 0.0 ], [ 10.2714982, 12.9186611, 0.0 ], [ 10.2714269, 12.9189159, 0.0 ], [ 10.2716752, 12.9201132, 0.0 ], [ 10.2741008, 12.9344542, 0.0 ], [ 10.2719349, 12.9367886, 0.0 ], [ 10.2707238, 12.9389099, 0.0 ], [ 10.2709332, 12.9414892, 0.0 ], [ 10.2704188, 12.9448027, 0.0 ], [ 10.2639756, 12.954847, 0.0 ], [ 10.2676, 12.9553, 0.0 ], [ 10.2741, 12.9573, 0.0 ], [ 10.2773, 12.9584, 0.0 ], [ 10.2793, 12.9602, 0.0 ], [ 10.2834, 12.9621, 0.0 ], [ 10.2846074, 12.9642623, 0.0 ], [ 10.2825024, 12.976516, 0.0 ], [ 10.2820115, 12.9793739, 0.0 ], [ 10.2814781, 12.9800168, 0.0 ], [ 10.2791726, 12.9809201, 0.0 ], [ 10.2654109, 12.9835511, 0.0 ], [ 10.2636521, 12.985265, 0.0 ], [ 10.2624637, 12.9904991, 0.0 ], [ 10.2603181, 12.9975256, 0.0 ], [ 10.2564774, 12.9992143, 0.0 ], [ 10.254594840325623, 13.000031243319231, 0.0 ], [ 10.254809400770402, 13.002134874131984, 0.0 ], [ 10.270190599229601, 13.018698459201454, 0.0 ], [ 10.270833333333323, 13.025, 0.0 ], [ 10.271684265136706, 13.02831590440543, 0.0 ], [ 10.277210489908848, 13.029733954535624, 0.0 ], [ 10.285289510091145, 13.036932712131126, 0.0 ], [ 10.2875, 13.0375, 0.0 ], [ 10.288989088270393, 13.032677883572097, 0.0 ], [ 10.295013597276471, 13.03432312011722, 0.0 ], [ 10.296909417046434, 13.046488783094635, 0.0 ], [ 10.306288994683158, 13.04517788357207, 0.0 ], [ 10.310377671983506, 13.042322116427972, 0.0 ], [ 10.31462232801649, 13.04101121690543, 0.0 ], [ 10.318711005316823, 13.038155449761311, 0.0 ], [ 10.325655449761268, 13.036011081271752, 0.0 ], [ 10.32434455023871, 13.031211005316861, 0.0 ], [ 10.320589192708315, 13.025834486219631, 0.0 ], [ 10.339622328016471, 13.024344550238746, 0.0 ], [ 10.347877671983495, 13.017322116427984, 0.0 ], [ 10.357490709092859, 13.015824042426233, 0.0 ], [ 10.3591857910156, 13.004946221245715, 0.0 ], [ 10.366666666666642, 13.004166666666695, 0.0 ], [ 10.36891496446394, 13.003637017144133, 0.0 ], [ 10.372751702202676, 13.000529649522612, 0.0 ], [ 10.378212483723946, 12.999243503146731, 0.0 ], [ 10.386970520019515, 12.98974812825524, 0.0 ], [ 10.388258531358472, 12.984279378255271, 0.0 ], [ 10.393745083279045, 12.979558648003501, 0.0 ], [ 10.399059210883218, 12.983862982855912, 0.0 ], [ 10.403400166829401, 12.982421196831616, 0.0 ], [ 10.404166666666637, 12.979166666666689, 0.0 ], [ 10.407482401529915, 12.980017428927997, 0.0 ], [ 10.408333333333303, 12.983333333333384, 0.0 ], [ 10.40771569146048, 12.989660305447071, 0.0 ], [ 10.400617641872794, 12.997839694552979, 0.0 ], [ 10.399382358127143, 13.000736829969657, 0.0 ], [ 10.40771569146048, 13.010339694552986, 0.0 ], [ 10.408950975206123, 13.012969292534745, 0.0 ], [ 10.404784308539458, 13.018673027886319, 0.0 ], [ 10.403478664822023, 13.040857272678005, 0.0 ], [ 10.392354668511263, 13.042476060655439, 0.0 ], [ 10.391049024793823, 13.06466030544707, 0.0 ], [ 10.387168884277315, 13.069971720377627, 0.0 ], [ 10.375971645779051, 13.071601698133705, 0.0 ], [ 10.37407362196179, 13.078240288628511, 0.0 ], [ 10.368673197428359, 13.079784138997447, 0.0 ], [ 10.363431464301208, 13.083613416883701, 0.0 ], [ 10.361882358127151, 13.092135959201425, 0.0 ], [ 10.366105143229149, 13.097916666666702, 0.0 ], [ 10.363061523437484, 13.102083333333375, 0.0 ], [ 10.366393534342441, 13.106644694010447, 0.0 ], [ 10.371302456325937, 13.108950805664131, 0.0 ], [ 10.37708689371742, 13.104725477430614, 0.0 ], [ 10.383299424913167, 13.109694417317744, 0.0 ], [ 10.379784308539474, 13.11450636121965, 0.0 ], [ 10.379166666666645, 13.120833333333383, 0.0 ], [ 10.38159111870657, 13.120480007595507, 0.0 ], [ 10.385787116156667, 13.116313340928857, 0.0 ], [ 10.398257785373231, 13.117019992404536, 0.0 ], [ 10.402453782823306, 13.121186659071231, 0.0 ], [ 10.423257785373229, 13.120480007595534, 0.0 ], [ 10.430908881293364, 13.112853325737868, 0.0 ], [ 10.433333333333289, 13.1125, 0.0 ] ] ], [ [ [ 10.325954723504468, 12.815836999992229, 0.0 ], [ 10.325265921139119, 12.811554959441581, 0.0 ], [ 10.325610521104581, 12.815729777018282, 0.0 ], [ 10.325954723504468, 12.815836999992229, 0.0 ] ] ] ] } },
{ "type": "Feature", "properties": { "Stra_Catch": "Hadejia_Jamaare", "State": "Yobe", "LGA": "Bade", "Population": 125817, "Cleard_TOR": "No yet cleared", "Status": "Not yet awared", "Start_Date": "2025-01-25T00:00:00", "End_Date": "2024-12-12T00:00:00", "Micr_Catch": "Gashua", "Size_Ha": 58521.599142, "Comments": null, "OBJECTID_1": 0, "Shape_Leng": 0.0, "Shape_Area": 0.0, "parent_strategic_name": "Hadejia", "clipped_to_state": true }, "geometry": { "type": "Polygon", "coordinates": [ [ [ 11.094942898219655, 13.088196818033854, 0.0 ], [ 11.096746826171028, 13.095225694444457, 0.0 ], [ 11.112499999999107, 13.095833333333321, 0.0 ], [ 11.118776448566798, 13.095165337456603, 0.0 ], [ 11.122890218098039, 13.092334662543379, 0.0 ], [ 11.12983466254245, 13.090136040581571, 0.0 ], [ 11.128498670788975, 13.068723551432273, 0.0 ], [ 11.124759928384471, 13.063290405273447, 0.0 ], [ 11.153908623588379, 13.061736043294218, 0.0 ], [ 11.15768364800242, 13.05625, 0.0 ], [ 11.15483466254237, 13.052109781901022, 0.0 ], [ 11.153498670788887, 13.047890218098924, 0.0 ], [ 11.150667995875715, 13.043776448567673, 0.0 ], [ 11.149332004122241, 13.039556884765631, 0.0 ], [ 11.146501329209062, 13.035443115234346, 0.0 ], [ 11.145833333332316, 13.025, 0.0 ], [ 11.141666666665675, 13.025, 0.0 ], [ 11.14104919433494, 13.018673027886257, 0.0 ], [ 11.129784138996428, 13.006326972113682, 0.0 ], [ 11.128431193032897, 12.992466566297752, 0.0 ], [ 11.121449110242112, 12.986882527669252, 0.0 ], [ 11.118673027885354, 12.988117472330723, 0.0 ], [ 11.104973008896684, 13.000617472330722, 0.0 ], [ 11.102006361218749, 12.999382527669258, 0.0 ], [ 11.097993638779501, 12.99645080566404, 0.0 ], [ 11.085339694552127, 12.995215861002578, 0.0 ], [ 11.077160305446238, 12.988117472330696, 0.0 ], [ 11.072839694552153, 12.986882527669293, 0.0 ], [ 11.06466030544628, 12.979784138997408, 0.0 ], [ 11.060339694552196, 12.978549194335924, 0.0 ], [ 11.05632697211297, 12.975617472330724, 0.0 ], [ 11.050768364799618, 12.974028184678831, 0.0 ], [ 11.049205864799607, 12.963294135199654, 0.0 ], [ 11.038471815320467, 12.961731635199651, 0.0 ], [ 11.037499999999286, 12.958333333333359, 0.0 ], [ 11.038387383354335, 12.954875013563363, 0.0 ], [ 11.049080403645092, 12.953462388780366, 0.0 ], [ 11.053599378796997, 12.94804382324217, 0.0 ], [ 11.054166666665914, 12.941666666666675, 0.0 ], [ 11.053315904404625, 12.938350762261294, 0.0 ], [ 11.04526604546369, 12.936285061306444, 0.0 ], [ 11.046400621201537, 12.931122843424463, 0.0 ], [ 11.050567287868171, 12.92574666341145, 0.0 ], [ 11.049432712130335, 12.914456176757801, 0.0 ], [ 11.045266045463675, 12.909079996744804, 0.0 ], [ 11.046400621201512, 12.893622843424493, 0.0 ], [ 11.050567287868171, 12.888246663411479, 0.0 ], [ 11.049432712130328, 12.881122843424468, 0.0 ], [ 11.042128499348227, 12.872925482855909, 0.0 ], [ 11.045266045463663, 12.868877156575524, 0.0 ], [ 11.045833333332592, 12.8625, 0.0 ], [ 11.045833333332583, 12.858333333333331, 0.0 ], [ 11.044933742946304, 12.854827880859391, 0.0 ], [ 11.037499999999275, 12.854166666666673, 0.0 ], [ 11.031122843423768, 12.853599378797767, 0.0 ], [ 11.027210489908175, 12.850567287868945, 0.0 ], [ 11.021440972221534, 12.849086507161459, 0.0 ], [ 11.020266045463718, 12.818622843424508, 0.0 ], [ 11.017233954534907, 12.814710489908842, 0.0 ], [ 11.016099378797071, 12.810289510091144, 0.0 ], [ 11.013067287868259, 12.806377156575522, 0.0 ], [ 11.01193271213041, 12.793622843424485, 0.0 ], [ 11.008900621201603, 12.789710489908842, 0.0 ], [ 11.008333333332681, 12.7875, 0.0 ], [ 11.00590888129274, 12.787146674262161, 0.0 ], [ 11.002424452039291, 12.783686659071194, 0.0 ], [ 10.997575547959437, 12.782980007595503, 0.0 ], [ 10.994091118705969, 12.779519992404534, 0.0 ], [ 10.98749999999939, 12.779166666666654, 0.0 ], [ 10.984184095594003, 12.78001742892795, 0.0 ], [ 10.982766045463807, 12.7855438232422, 0.0 ], [ 10.978770616318844, 12.790698920355931, 0.0 ], [ 10.974999999999417, 12.791666666666664, 0.0 ], [ 10.975719875758976, 12.803390163845519, 0.0 ], [ 10.990915595159978, 12.804940117730021, 0.0 ], [ 10.992309570311869, 12.821155124240473, 0.0 ], [ 10.988142903645224, 12.827031792534742, 0.0 ], [ 10.98685709635356, 12.831301540798629, 0.0 ], [ 10.983976236978572, 12.835365125868044, 0.0 ], [ 10.982690429686913, 12.847968207465309, 0.0 ], [ 10.979190063475986, 12.852904934353337, 0.0 ], [ 10.974999999999415, 12.854166666666661, 0.0 ], [ 10.97499999999944, 12.858333333333373, 0.0 ], [ 10.972789510090589, 12.85890062120226, 0.0 ], [ 10.967299397785908, 12.863478936089406, 0.0 ], [ 10.966099378797182, 12.881377156575519, 0.0 ], [ 10.96306728786838, 12.885289510091164, 0.0 ], [ 10.961854044595809, 12.898930189344624, 0.0 ], [ 10.957586669921344, 12.900567287868929, 0.0 ], [ 10.952210489908346, 12.896400621202282, 0.0 ], [ 10.949062771266838, 12.895266045464426, 0.0 ], [ 10.93971048990835, 12.903599378797747, 0.0 ], [ 10.934184095594121, 12.90501742892797, 0.0 ], [ 10.933333333332849, 12.908333333333331, 0.0 ], [ 10.932482571071576, 12.911649237738715, 0.0 ], [ 10.926956176757349, 12.913067287868932, 0.0 ], [ 10.923043823241713, 12.916099378797744, 0.0 ], [ 10.910289510090708, 12.917233954535604, 0.0 ], [ 10.904822455511711, 12.921793280707464, 0.0 ], [ 10.904166666666226, 12.929166666666696, 0.0 ], [ 10.901956176757379, 12.929733954535612, 0.0 ], [ 10.892829725477, 12.937865871853319, 0.0 ], [ 10.890848117404104, 12.930143907335085, 0.0 ], [ 10.886562771266972, 12.928599378797752, 0.0 ], [ 10.875919596353784, 12.938082885742226, 0.0 ], [ 10.874100409613341, 12.945172119140626, 0.0 ], [ 10.860289510090784, 12.94640062120226, 0.0 ], [ 10.856249999999642, 12.949531385633703, 0.0 ], [ 10.85221048990851, 12.946400621202285, 0.0 ], [ 10.845833333332996, 12.945833333333336, 0.0 ], [ 10.846400621201916, 12.948043823242218, 0.0 ], [ 10.849432712130735, 12.951956176757813, 0.0 ], [ 10.850567287868586, 12.96128506130643, 0.0 ], [ 10.842265150281778, 12.963415527343777, 0.0 ], [ 10.841666666666335, 12.983333333333357, 0.0 ], [ 10.840779283311283, 12.986791653103314, 0.0 ], [ 10.831122843424163, 12.98806728786897, 0.0 ], [ 10.825967746310452, 12.992062717013908, 0.0 ], [ 10.824432712130777, 12.998043823242222, 0.0 ], [ 10.8204374525279, 13.00319892035594, 0.0 ], [ 10.814456176757512, 13.004733954535599, 0.0 ], [ 10.80637715657523, 13.011932712131104, 0.0 ], [ 10.803229437933743, 13.013067287868944, 0.0 ], [ 10.793877156575258, 13.004733954535601, 0.0 ], [ 10.789456176757557, 13.003599378797755, 0.0 ], [ 10.785543823241916, 13.000567287868954, 0.0 ], [ 10.782483249240192, 12.999432712131112, 0.0 ], [ 10.77565595838734, 13.005126614040798, 0.0 ], [ 10.774999999999752, 13.0125, 0.0 ], [ 10.778315734863037, 13.013350762261302, 0.0 ], [ 10.779733954535335, 13.018877156575577, 0.0 ], [ 10.782766045464149, 13.022789510091156, 0.0 ], [ 10.783900621201996, 13.02721048990888, 0.0 ], [ 10.791099378797462, 13.035289510091177, 0.0 ], [ 10.791666666666405, 13.04166666666668, 0.0 ], [ 10.794982401529689, 13.040815904405402, 0.0 ], [ 10.795833333333068, 13.0375, 0.0 ], [ 10.799999999999722, 13.0375, 0.0 ], [ 10.803505452473679, 13.038399590386305, 0.0 ], [ 10.80482262505396, 13.053206719292564, 0.0 ], [ 10.81041208902966, 13.057868109809043, 0.0 ], [ 10.814594692653786, 13.054626464843782, 0.0 ], [ 10.826956176757507, 13.066099378797771, 0.0 ], [ 10.835543823241876, 13.067233954535602, 0.0 ], [ 10.839456176757484, 13.070266045464427, 0.0 ], [ 10.845833333332997, 13.070833333333352, 0.0 ], [ 10.84709506564637, 13.066643269856808, 0.0 ], [ 10.852031792534383, 13.063142903645854, 0.0 ], [ 10.861735365125513, 13.0616641574436, 0.0 ], [ 10.863281589083835, 13.04650573730471, 0.0 ], [ 10.891666666666262, 13.045833333333336, 0.0 ], [ 10.892566257052536, 13.049338785807299, 0.0 ], [ 10.907433742946624, 13.050661214192724, 0.0 ], [ 10.908900621201825, 13.05637715657552, 0.0 ], [ 10.916099378797304, 13.064456176757796, 0.0 ], [ 10.917375013562932, 13.07411261664498, 0.0 ], [ 10.924149237738263, 13.075850762261309, 0.0 ], [ 10.925850762260826, 13.082482571072061, 0.0 ], [ 10.931377156575062, 13.08390062120227, 0.0 ], [ 10.940729437933539, 13.092233954535606, 0.0 ], [ 10.952210489908357, 13.091099378797738, 0.0 ], [ 10.956122843423971, 13.088067287868959, 0.0 ], [ 10.962499999999476, 13.0875, 0.0 ], [ 10.964710489908338, 13.088067287868945, 0.0 ], [ 10.972789510090596, 13.095266045464415, 0.0 ], [ 10.98244594997773, 13.096541680230048, 0.0 ], [ 10.983333333332787, 13.1, 0.0 ], [ 10.985790337456026, 13.099641927083335, 0.0 ], [ 10.991313340928244, 13.094091118706601, 0.0 ], [ 10.99201999240392, 13.076742214626737, 0.0 ], [ 10.999986097547133, 13.06875067816841, 0.0 ], [ 10.995480007594885, 13.064213053385426, 0.0 ], [ 10.996186659070574, 13.060075547960087, 0.0 ], [ 10.999646674261543, 13.056591118706613, 0.0 ], [ 11.000353325737246, 13.043408881293395, 0.0 ], [ 11.003813340928206, 13.03992445203995, 0.0 ], [ 11.004524400498505, 13.035045030381964, 0.0 ], [ 11.014242214626091, 13.025353325737846, 0.0 ], [ 11.019123670789282, 13.024641927083348, 0.0 ], [ 11.024646674261485, 13.019091118706589, 0.0 ], [ 11.024999999999331, 13.016666666666696, 0.0 ], [ 11.02916666666599, 13.01666666666668, 0.0 ], [ 11.029166666665994, 13.020833333333345, 0.0 ], [ 11.031301540797935, 13.021476236979156, 0.0 ], [ 11.036238267685937, 13.02497660319009, 0.0 ], [ 11.038142903645136, 13.031301540798616, 0.0 ], [ 11.045190429686793, 13.039531792534726, 0.0 ], [ 11.04647623697846, 13.043801540798606, 0.0 ], [ 11.049397108289222, 13.047921413845463, 0.0 ], [ 11.04230957031178, 13.056198459201372, 0.0 ], [ 11.041023763020128, 13.067300415039083, 0.0 ], [ 11.050501505533125, 13.078367784288185, 0.0 ], [ 11.065968831379452, 13.079945543077248, 0.0 ], [ 11.066666666665913, 13.095833333333333, 0.0 ], [ 11.068877156574764, 13.096400621202262, 0.0 ], [ 11.072916666665897, 13.099531385633677, 0.0 ], [ 11.076956176757022, 13.096400621202267, 0.0 ], [ 11.082482571071239, 13.094982571072055, 0.0 ], [ 11.084548272026101, 13.086932712131068, 0.0 ], [ 11.094942898219655, 13.088196818033854, 0.0 ] ] ] } },
{ "type": "Feature", "properties": { "Stra_Catch": "Hadejia_Jamaare", "State": "Yobe", "LGA": "Yusufari", "Population": 115225, "Cleard_TOR": "Not yet cleared", "Status": "Not yet awared", "Start_Date": "2024-12-12T00:00:00", "End_Date": "2025-01-25T00:00:00", "Micr_Catch": "Yusufari", "Size_Ha": 63701.151417000001, "Comments": null, "OBJECTID_1": 0, "Shape_Leng": 0.0, "Shape_Area": 0.0, "parent_strategic_name": "Hadejia", "clipped_to_state": true }, "geometry": { "type": "Polygon", "coordinates": [ [ [ 11.048043823241523, 13.370266045464401, 0.0 ], [ 11.051956176757137, 13.36723395453558, 0.0 ], [ 11.057937282985405, 13.36569892035592, 0.0 ], [ 11.061932712130368, 13.360543823242191, 0.0 ], [ 11.063637288410742, 13.353902011447493, 0.0 ], [ 11.07008666992115, 13.358900621202269, 0.0 ], [ 11.07721048990811, 13.357766045464412, 0.0 ], [ 11.081122843423721, 13.35473395453557, 0.0 ], [ 11.083333333332565, 13.354166666666689, 0.0 ], [ 11.08390062120149, 13.351956176757801, 0.0 ], [ 11.088067287868157, 13.346579996744781, 0.0 ], [ 11.086761135524403, 13.338379753960531, 0.0 ], [ 11.079749552408089, 13.336580234103725, 0.0 ], [ 11.071400621201535, 13.327210489908838, 0.0 ], [ 11.070266045463672, 13.318622843424476, 0.0 ], [ 11.063067287868215, 13.310543823242185, 0.0 ], [ 11.061649237737999, 13.305017598470037, 0.0 ], [ 11.058333333332619, 13.304166666666656, 0.0 ], [ 11.056122843423784, 13.303599378797752, 0.0 ], [ 11.050967746310075, 13.299604119194894, 0.0 ], [ 11.049149237738023, 13.292517598470063, 0.0 ], [ 11.045833333332654, 13.291666666666641, 0.0 ], [ 11.044945949977617, 13.295124816894532, 0.0 ], [ 11.035289510090504, 13.296400621202267, 0.0 ], [ 11.031249999999369, 13.299531216091575, 0.0 ], [ 11.025967746310148, 13.295437452528223, 0.0 ], [ 11.024432712130444, 13.289456176757808, 0.0 ], [ 11.021400621201627, 13.285543823242211, 0.0 ], [ 11.019982571071431, 13.280017598470048, 0.0 ], [ 11.016666666666051, 13.279166666666672, 0.0 ], [ 11.010327148436915, 13.278561570909305, 0.0 ], [ 11.001222737629636, 13.270608520507835, 0.0 ], [ 10.999395073784141, 13.277172682020417, 0.0 ], [ 10.995480007594921, 13.282453409830721, 0.0 ], [ 10.986618041991639, 13.283938429090741, 0.0 ], [ 10.967697143554178, 13.266200934516069, 0.0 ], [ 10.966061740450872, 13.260327317979606, 0.0 ], [ 10.958389282226058, 13.251544019911037, 0.0 ], [ 10.959118313259053, 13.246610175238754, 0.0 ], [ 10.969882880316332, 13.245079888237846, 0.0 ], [ 10.971438259548089, 13.239493984646268, 0.0 ], [ 10.975443861219084, 13.234091356065537, 0.0 ], [ 10.974195353189559, 13.225643242730071, 0.0 ], [ 10.954166666666175, 13.225, 0.0 ], [ 10.954519992404014, 13.22257554796008, 0.0 ], [ 10.957980007594989, 13.219091118706629, 0.0 ], [ 10.958686659070688, 13.214242214626731, 0.0 ], [ 10.970480007594961, 13.202424452039951, 0.0 ], [ 10.970833333332802, 13.191666666666698, 0.0 ], [ 10.968660481770319, 13.192271762424053, 0.0 ], [ 10.964672851561987, 13.195228237575941, 0.0 ], [ 10.961959499782484, 13.196438429090744, 0.0 ], [ 10.956339518228674, 13.192271762424038, 0.0 ], [ 10.947827148437014, 13.191061570909294, 0.0 ], [ 10.943742540147092, 13.188033379448809, 0.0 ], [ 10.93550618489537, 13.195228237575964, 0.0 ], [ 10.932792833115855, 13.196438429090701, 0.0 ], [ 10.926109144422281, 13.191483222113746, 0.0 ], [ 10.924395073784281, 13.185327317979628, 0.0 ], [ 10.921438259548173, 13.181339348687079, 0.0 ], [ 10.920161268445725, 13.159162733289948, 0.0 ], [ 10.911712646483952, 13.15772823757597, 0.0 ], [ 10.90209079318535, 13.166133287217891, 0.0 ], [ 10.896942477755669, 13.162316555447061, 0.0 ], [ 10.895833333332932, 13.15833333333336, 0.0 ], [ 10.896476236978781, 13.147865125868075, 0.0 ], [ 10.900642903645421, 13.141988457573801, 0.0 ], [ 10.89912719726521, 13.124357096354185, 0.0 ], [ 10.880206298827753, 13.125713772243946, 0.0 ], [ 10.879166666666304, 13.129166666666702, 0.0 ], [ 10.878240288628103, 13.132406955295151, 0.0 ], [ 10.872839694552585, 13.133950805664089, 0.0 ], [ 10.863470119899818, 13.142081705729206, 0.0 ], [ 10.861711290147221, 13.129997083875873, 0.0 ], [ 10.85342983669671, 13.128549194335974, 0.0 ], [ 10.843826972113389, 13.136882527669302, 0.0 ], [ 10.834062703450201, 13.138303629557317, 0.0 ], [ 10.832715691460196, 13.152798800998307, 0.0 ], [ 10.84051072862381, 13.155027601454014, 0.0 ], [ 10.842284308539174, 13.158802456325972, 0.0 ], [ 10.837168884277022, 13.165805223253058, 0.0 ], [ 10.827006530761414, 13.167284308539546, 0.0 ], [ 10.822993469237987, 13.170215691460509, 0.0 ], [ 10.817399766709784, 13.171814982096386, 0.0 ], [ 10.81604902479355, 13.183802456325983, 0.0 ], [ 10.820215691460215, 13.189506530761776, 0.0 ], [ 10.821450975205863, 13.192135789659313, 0.0 ], [ 10.817284308539204, 13.197839864095087, 0.0 ], [ 10.81604902479355, 13.202798800998286, 0.0 ], [ 10.824266899956296, 13.205148315429692, 0.0 ], [ 10.825617641872535, 13.217135789659325, 0.0 ], [ 10.821450975205869, 13.222839864095061, 0.0 ], [ 10.820833333333045, 13.225, 0.0 ], [ 10.828294372558288, 13.2256796942817, 0.0 ], [ 10.829746500650732, 13.232081095377628, 0.0 ], [ 10.821556769476702, 13.234241739908899, 0.0 ], [ 10.820253499348677, 13.24386461046009, 0.0 ], [ 10.817159016926801, 13.247916666666685, 0.0 ], [ 10.820253499348672, 13.251968722873285, 0.0 ], [ 10.82083333333304, 13.2625, 0.0 ], [ 10.824338785807003, 13.263399590386337, 0.0 ], [ 10.825567287868635, 13.277210489908889, 0.0 ], [ 10.832766045464094, 13.285289510091177, 0.0 ], [ 10.833333333333046, 13.2875, 0.0 ], [ 10.833333333333023, 13.295833333333354, 0.0 ], [ 10.83679148356091, 13.296720716688407, 0.0 ], [ 10.838067287868624, 13.306377156575545, 0.0 ], [ 10.841099378797436, 13.310289510091181, 0.0 ], [ 10.842233954535288, 13.313497585720487, 0.0 ], [ 10.827583821614292, 13.329158698187966, 0.0 ], [ 10.818877156575237, 13.321400621202271, 0.0 ], [ 10.809548272026648, 13.320266045464429, 0.0 ], [ 10.807766045464142, 13.327210489908889, 0.0 ], [ 10.804733954535317, 13.331122843424486, 0.0 ], [ 10.803315734863011, 13.33664906819663, 0.0 ], [ 10.797789510090888, 13.338067287868958, 0.0 ], [ 10.78554382324196, 13.349432712131133, 0.0 ], [ 10.768622843424257, 13.350567287868946, 0.0 ], [ 10.764710489908623, 13.353599378797773, 0.0 ], [ 10.757586669921652, 13.354733954535629, 0.0 ], [ 10.752210489908645, 13.350567287868961, 0.0 ], [ 10.74778951009095, 13.349432712131129, 0.0 ], [ 10.73959214952238, 13.342128499348973, 0.0 ], [ 10.735543823242002, 13.345266045464436, 0.0 ], [ 10.724253336588355, 13.346400621202298, 0.0 ], [ 10.71887715657534, 13.342233954535605, 0.0 ], [ 10.714456176757638, 13.341099378797766, 0.0 ], [ 10.706377156575353, 13.333900621202281, 0.0 ], [ 10.70121493869342, 13.332766045464446, 0.0 ], [ 10.699999999999845, 13.3375, 0.0 ], [ 10.692566257052807, 13.338161214192755, 0.0 ], [ 10.691666666666512, 13.341666666666711, 0.0 ], [ 10.696450975206004, 13.34303453233508, 0.0 ], [ 10.695215691460334, 13.352160135904967, 0.0 ], [ 10.692284308539355, 13.356173197428417, 0.0 ], [ 10.69104902479368, 13.360493469238302, 0.0 ], [ 10.686882358127008, 13.366197543674097, 0.0 ], [ 10.688716125488128, 13.370100741916273, 0.0 ], [ 10.697993469238115, 13.371450975206184, 0.0 ], [ 10.70617319742821, 13.378549024793896, 0.0 ], [ 10.710493469238108, 13.379784308539543, 0.0 ], [ 10.714506530761552, 13.382715691460541, 0.0 ], [ 10.722993469238094, 13.383950975206218, 0.0 ], [ 10.726611763431942, 13.386593996186811, 0.0 ], [ 10.7347477, 13.3873089, 0.0 ], [ 10.7497215, 13.3886108, 0.0 ], [ 10.7654057, 13.3888031, 0.0 ], [ 10.7758648, 13.3888865, 0.0 ], [ 10.7914522, 13.3891224, 0.0 ], [ 10.808535, 13.3884086, 0.0 ], [ 10.8236627, 13.3875624, 0.0 ], [ 10.8347206, 13.3869438, 0.0 ], [ 10.8786106, 13.3805542, 0.0 ], [ 10.8833332, 13.3783321, 0.0 ], [ 10.9066658, 13.3724995, 0.0 ], [ 10.9320533, 13.3691702, 0.0 ], [ 10.9651138, 13.3718832, 0.0 ], [ 10.9848412, 13.3732706, 0.0 ], [ 10.9967252, 13.3762766, 0.0 ], [ 11.0009245, 13.3764425, 0.0 ], [ 11.0026948, 13.3752433, 0.0 ], [ 11.0050172, 13.3737585, 0.0 ], [ 11.0079867, 13.3722547, 0.0 ], [ 11.009757, 13.3723689, 0.0 ], [ 11.0110515, 13.3730732, 0.0 ], [ 11.0126685, 13.3744666, 0.0 ], [ 11.0214439, 13.3760454, 0.0 ], [ 11.037808704100669, 13.372929667790844, 0.0 ], [ 11.039456176757158, 13.371400621202257, 0.0 ], [ 11.048043823241523, 13.370266045464401, 0.0 ] ] ] } },
{ "type": "Feature", "properties": { "Stra_Catch": "Hadejia-Jama'are", "State": "Bauchi", "LGA": "Gamawa", "Population": 507900, "Cleard_TOR": "No", "Status": "Yet to be awarded", "Start_Date": "2024-09-29T00:00:00", "End_Date": "2025-05-20T00:00:00", "Micr_Catch": "Gamawa", "Size_Ha": 81120.978691600001, "Comments": null, "OBJECTID_1": 0, "Shape_Leng": 0.0, "Shape_Area": 0.0, "parent_strategic_name": "Katagun-K.Gana", "clipped_to_state": true }, "geometry": { "type": "MultiPolygon", "coordinates": [ [ [ [ 10.875874589022288, 12.32670502338882, 0.0 ], [ 10.875031444468712, 12.326678021464241, 0.0 ], [ 10.874758287099041, 12.326972244833785, 0.0 ], [ 10.874197817602079, 12.32723666599067, 0.0 ], [ 10.873659392540437, 12.327571372831796, 0.0 ], [ 10.874218223903323, 12.328592337770127, 0.0 ], [ 10.874489083799654, 12.329414555490658, 0.0 ], [ 10.874872739514094, 12.329589257392904, 0.0 ], [ 10.875642903645476, 12.327031792534779, 0.0 ], [ 10.875874589022288, 12.32670502338882, 0.0 ] ] ], [ [ [ 10.879085973131657, 12.315082287342014, 0.0 ], [ 10.878253960814124, 12.314463898129151, 0.0 ], [ 10.877835589936169, 12.314483192980157, 0.0 ], [ 10.877421834285382, 12.314469884375528, 0.0 ], [ 10.876802081916411, 12.314498241215823, 0.0 ], [ 10.876033958582918, 12.315325214657802, 0.0 ], [ 10.876064435946176, 12.315975900674438, 0.0 ], [ 10.876050665289787, 12.316387770653709, 0.0 ], [ 10.876913249615802, 12.316649562599389, 0.0 ], [ 10.876876827265464, 12.317738963046391, 0.0 ], [ 10.877307050291391, 12.317719057789924, 0.0 ], [ 10.877821018851426, 12.317735649211521, 0.0 ], [ 10.877426714148632, 12.318867496857809, 0.0 ], [ 10.876176685115558, 12.320022702995461, 0.0 ], [ 10.876646137525306, 12.320444226544737, 0.0 ], [ 10.876240074605793, 12.321211250464883, 0.0 ], [ 10.876926364326053, 12.321523771406216, 0.0 ], [ 10.876870027645934, 12.323220774913928, 0.0 ], [ 10.877891933275142, 12.323859760266552, 0.0 ], [ 10.879809570312075, 12.321155124240573, 0.0 ], [ 10.879085973131657, 12.315082287342014, 0.0 ] ] ] ] } },
{ "type": "Feature", "properties": { "Stra_Catch": "Hadejia_Jamaare", "State": "Yobe", "LGA": "Potiskum", "Population": 483346, "Cleard_TOR": "No yet cleared", "Status": "Not yet awared", "Start_Date": "2024-12-12T00:00:00", "End_Date": "2025-01-25T00:00:00", "Micr_Catch": "Potiskum", "Size_Ha": 18680.867228399999, "Comments": null, "OBJECTID_1": 0, "Shape_Leng": 0.0, "Shape_Area": 0.0, "parent_strategic_name": "Katagun-K.Gana", "clipped_to_state": true }, "geometry": { "type": "Polygon", "coordinates": [ [ [ 11.14825778537195, 11.645480007595461, 0.0 ], [ 11.139242214625462, 11.646186659071155, 0.0 ], [ 11.114924452038759, 11.670480007595467, 0.0 ], [ 11.105908881292267, 11.671186659071166, 0.0 ], [ 11.102424452038807, 11.674646674262137, 0.0 ], [ 11.097575547958966, 11.675353325737833, 0.0 ], [ 11.085757785372207, 11.687146674262141, 0.0 ], [ 11.077453613280225, 11.687853325737837, 0.0 ], [ 11.073257785372251, 11.683686659071171, 0.0 ], [ 11.066666666665675, 11.683333333333326, 0.0 ], [ 11.064242214625756, 11.682980007595477, 0.0 ], [ 11.060757785372292, 11.67951999240451, 0.0 ], [ 11.051742214625797, 11.678813340928812, 0.0 ], [ 11.037854003905352, 11.664950900607634, 0.0 ], [ 11.037499999999103, 11.654166666666661, 0.0 ], [ 11.034041680229148, 11.655054050021695, 0.0 ], [ 11.032766045463529, 11.664710489908851, 0.0 ], [ 11.025567287868064, 11.672789510091144, 0.0 ], [ 11.024149237737863, 11.678315734863277, 0.0 ], [ 11.018622843423641, 11.679733954535587, 0.0 ], [ 11.00637715657472, 11.691099378797743, 0.0 ], [ 10.996720716687596, 11.692375183105469, 0.0 ], [ 10.994982571071281, 11.699149068196613, 0.0 ], [ 10.991666666665909, 11.7, 0.0 ], [ 10.991666666665912, 11.704166666666669, 0.0 ], [ 10.995124986435867, 11.705054050021698, 0.0 ], [ 10.996400621201488, 11.714710489908857, 0.0 ], [ 11.00776604546361, 11.726956176757811, 0.0 ], [ 11.009184095593813, 11.732482401529946, 0.0 ], [ 11.016270616318623, 11.734301079644093, 0.0 ], [ 11.020266045463574, 11.739456176757809, 0.0 ], [ 11.021400621201419, 11.74387715657552, 0.0 ], [ 11.028599378796887, 11.751956176757812, 0.0 ], [ 11.030134412976571, 11.757937452528207, 0.0 ], [ 11.035289510090271, 11.761932712131072, 0.0 ], [ 11.041666666665773, 11.7625, 0.0 ], [ 11.048257785372346, 11.762853325737844, 0.0 ], [ 11.068408881292422, 11.782980007595476, 0.0 ], [ 11.080619493373364, 11.783269085111456, 0.0 ], [ 11.080971060603245, 11.782931441377873, 0.0 ], [ 11.081621468318707, 11.781936916978461, 0.0 ], [ 11.082061263153928, 11.782381188323214, 0.0 ], [ 11.082620083521254, 11.782642944662706, 0.0 ], [ 11.083382012791191, 11.783143611496428, 0.0 ], [ 11.084184095593582, 11.780017598470042, 0.0 ], [ 11.086703910255501, 11.779370947051245, 0.0 ], [ 11.087540313856735, 11.779082089376853, 0.0 ], [ 11.088645472262014, 11.778808141636441, 0.0 ], [ 11.088912113122314, 11.778529749941853, 0.0 ], [ 11.089466910445676, 11.778259836339982, 0.0 ], [ 11.09116039626611, 11.776891709396409, 0.0 ], [ 11.091526084184704, 11.776981605503895, 0.0 ], [ 11.097789510090058, 11.771400621202243, 0.0 ], [ 11.098590162452949, 11.771294841260435, 0.0 ], [ 11.100079930249725, 11.76974366000981, 0.0 ], [ 11.100944220106634, 11.770173915504737, 0.0 ], [ 11.101786005026769, 11.769763914159208, 0.0 ], [ 11.102053696333547, 11.769485241002027, 0.0 ], [ 11.10288147517941, 11.769495814769853, 0.0 ], [ 11.104520878449257, 11.76838274683919, 0.0 ], [ 11.107037724657967, 11.768017549925618, 0.0 ], [ 11.108090060490031, 11.766463707065443, 0.0 ], [ 11.10847966229271, 11.764834005922634, 0.0 ], [ 11.110134345941667, 11.765449824093032, 0.0 ], [ 11.110723979507819, 11.767195305769903, 0.0 ], [ 11.116355906771345, 11.766694310698282, 0.0 ], [ 11.116338378646976, 11.766669215489875, 0.0 ], [ 11.117170423553331, 11.766396402753106, 0.0 ], [ 11.118035084197027, 11.764346139477453, 0.0 ], [ 11.120150569095623, 11.763795028688453, 0.0 ], [ 11.120462027850545, 11.765304076358527, 0.0 ], [ 11.121698982480259, 11.765269982851214, 0.0 ], [ 11.123418996011079, 11.765291861402607, 0.0 ], [ 11.124039044530933, 11.764989629714211, 0.0 ], [ 11.124293147623392, 11.763084501860915, 0.0 ], [ 11.125398183267391, 11.762810428345229, 0.0 ], [ 11.125939924731673, 11.762529959354501, 0.0 ], [ 11.127828130385431, 11.762061513663015, 0.0 ], [ 11.128391011087528, 11.760896257725422, 0.0 ], [ 11.128957354941987, 11.760880644118336, 0.0 ], [ 11.130295711444328, 11.760897391452241, 0.0 ], [ 11.131913199787606, 11.75961410288415, 0.0 ], [ 11.132247849157316, 11.758963424515063, 0.0 ], [ 11.132632029183734, 11.757765873183326, 0.0 ], [ 11.133291009487639, 11.757079406171584, 0.0 ], [ 11.134396934218298, 11.756507156395177, 0.0 ], [ 11.13553289722817, 11.756764490429012, 0.0 ], [ 11.136071298088508, 11.757308284455416, 0.0 ], [ 11.137171725092712, 11.757278064268883, 0.0 ], [ 11.137626716331903, 11.75773775087865, 0.0 ], [ 11.139111962411604, 11.757014100439347, 0.0 ], [ 11.139376432625907, 11.756464557451066, 0.0 ], [ 11.139931122806802, 11.756194561225076, 0.0 ], [ 11.140198758604484, 11.75591586087158, 0.0 ], [ 11.141028627402676, 11.755926314432694, 0.0 ], [ 11.141669463890286, 11.75526009258221, 0.0 ], [ 11.14322865157594, 11.755622246549484, 0.0 ], [ 11.144060521595705, 11.756169113453693, 0.0 ], [ 11.145151264461225, 11.756138937004643, 0.0 ], [ 11.145619819262947, 11.756831792125491, 0.0 ], [ 11.146151139718235, 11.756289196236107, 0.0 ], [ 11.146250909983396, 11.755870654855583, 0.0 ], [ 11.146798236068678, 11.75534519309239, 0.0 ], [ 11.147101541184728, 11.754400043418315, 0.0 ], [ 11.147921226882515, 11.754481545110258, 0.0 ], [ 11.148785061305128, 11.75359937879772, 0.0 ], [ 11.149040012935391, 11.754592786475671, 0.0 ], [ 11.150651267124166, 11.754752994153918, 0.0 ], [ 11.150922109146613, 11.755027378178511, 0.0 ], [ 11.151992252754274, 11.755528999779665, 0.0 ], [ 11.152482705425255, 11.755985477795852, 0.0 ], [ 11.152042673583521, 11.757729693984803, 0.0 ], [ 11.152602560917595, 11.757991832018282, 0.0 ], [ 11.152717679867809, 11.75833333333331, 0.0 ], [ 11.153633948506746, 11.75833333333331, 0.0 ], [ 11.153971846450087, 11.757981494266621, 0.0 ], [ 11.155894986216843, 11.757596280046867, 0.0 ], [ 11.155614402037356, 11.756071181512889, 0.0 ], [ 11.154776684159918, 11.754498395521207, 0.0 ], [ 11.155318041453663, 11.754175517110145, 0.0 ], [ 11.155912323120637, 11.753885865189995, 0.0 ], [ 11.156942267663355, 11.752813688284522, 0.0 ], [ 11.156980739947135, 11.754165599337004, 0.0 ], [ 11.156963271172991, 11.755511049234526, 0.0 ], [ 11.158551258728343, 11.756033601523495, 0.0 ], [ 11.158608189292348, 11.755977069850168, 0.0 ], [ 11.158638912331377, 11.755781947910982, 0.0 ], [ 11.158607915475992, 11.754700844923276, 0.0 ], [ 11.159483806287934, 11.754274020468246, 0.0 ], [ 11.161367080701551, 11.752779410506658, 0.0 ], [ 11.162178620776622, 11.751683189044064, 0.0 ], [ 11.162738660373638, 11.751690330576492, 0.0 ], [ 11.163273869793588, 11.751132897196257, 0.0 ], [ 11.163553380683497, 11.750864946402325, 0.0 ], [ 11.163817794605249, 11.750315390044783, 0.0 ], [ 11.164373518390338, 11.749495145768309, 0.0 ], [ 11.164357481648404, 11.748955659058778, 0.0 ], [ 11.164907889386198, 11.748143397847935, 0.0 ], [ 11.165170180903896, 11.747322729521896, 0.0 ], [ 11.166434343380343, 11.74638458004328, 0.0 ], [ 11.165160018862119, 11.745196149233117, 0.0 ], [ 11.165933724582564, 11.744351744700602, 0.0 ], [ 11.166800898030878, 11.74432795489712, 0.0 ], [ 11.168684119318597, 11.744351520105125, 0.0 ], [ 11.169003086722158, 11.744045403315599, 0.0 ], [ 11.169375666619802, 11.742486769354027, 0.0 ], [ 11.170088753634575, 11.742139266013817, 0.0 ], [ 11.17035634293314, 11.741860544813127, 0.0 ], [ 11.170782133264931, 11.741865932053321, 0.0 ], [ 11.171684095593218, 11.738350931803359, 0.0 ], [ 11.173655214899428, 11.737845074837345, 0.0 ], [ 11.173631624777657, 11.737800777599253, 0.0 ], [ 11.173889428533066, 11.736411410928319, 0.0 ], [ 11.174985790586089, 11.73587696631011, 0.0 ], [ 11.174993357847157, 11.735334126750844, 0.0 ], [ 11.174534001895971, 11.734044212456556, 0.0 ], [ 11.175250271321326, 11.733695087787016, 0.0 ], [ 11.17606488599376, 11.733141337742016, 0.0 ], [ 11.176894602517446, 11.732869188766342, 0.0 ], [ 11.177743495219248, 11.732575709373416, 0.0 ], [ 11.178816189906064, 11.732588979446826, 0.0 ], [ 11.179080537499624, 11.731762731468013, 0.0 ], [ 11.179357885418231, 11.731223661725258, 0.0 ], [ 11.17940282247419, 11.731130247576759, 0.0 ], [ 11.17879943621004, 11.721737186092286, 0.0 ], [ 11.178187374130191, 11.721754301262385, 0.0 ], [ 11.177090012965822, 11.720645319689861, 0.0 ], [ 11.175688049097671, 11.719338481807382, 0.0 ], [ 11.175673177137783, 11.718811698835536, 0.0 ], [ 11.175995246087732, 11.717807882534631, 0.0 ], [ 11.177496962585614, 11.717435044061927, 0.0 ], [ 11.172838280660457, 11.712415542926841, 0.0 ], [ 11.172641268176264, 11.712323192341927, 0.0 ], [ 11.172323004111927, 11.712027208955053, 0.0 ], [ 11.171909063182872, 11.711414356698972, 0.0 ], [ 11.171682750043809, 11.711170515398651, 0.0 ], [ 11.171214144155096, 11.710951112586811, 0.0 ], [ 11.170700384558284, 11.710112064800633, 0.0 ], [ 11.169895905948421, 11.70924527858079, 0.0 ], [ 11.169016495883033, 11.70861340929121, 0.0 ], [ 11.168905456957463, 11.708178118402389, 0.0 ], [ 11.167466626911935, 11.706627849643381, 0.0 ], [ 11.166531675072346, 11.706653567999037, 0.0 ], [ 11.165683910060093, 11.706256465379882, 0.0 ], [ 11.165672062859281, 11.705839006692656, 0.0 ], [ 11.165676380945266, 11.705565462620289, 0.0 ], [ 11.165242424793199, 11.704348401464099, 0.0 ], [ 11.165930418513023, 11.703687091537915, 0.0 ], [ 11.16594119382378, 11.70286250469038, 0.0 ], [ 11.165506030981529, 11.702456453999197, 0.0 ], [ 11.165083606054893, 11.702029919113711, 0.0 ], [ 11.163616759421453, 11.701341997430326, 0.0 ], [ 11.16295092394987, 11.700015210557071, 0.0 ], [ 11.161777662362155, 11.69962955009429, 0.0 ], [ 11.160683930746503, 11.699659776009568, 0.0 ], [ 11.160664551499218, 11.698963035301624, 0.0 ], [ 11.160669970722529, 11.698553652698697, 0.0 ], [ 11.160386373958923, 11.698289957608331, 0.0 ], [ 11.160115589745974, 11.698015573454134, 0.0 ], [ 11.159274317945584, 11.697481243154957, 0.0 ], [ 11.159284324862304, 11.696693197946701, 0.0 ], [ 11.158782246402586, 11.695692953985644, 0.0 ], [ 11.157488516023271, 11.695289909360323, 0.0 ], [ 11.158140626056648, 11.694019111684721, 0.0 ], [ 11.158153273907006, 11.693038471722215, 0.0 ], [ 11.157766045463063, 11.69260389539928, 0.0 ], [ 11.157846660871591, 11.691492072548906, 0.0 ], [ 11.157578788001224, 11.69099060610524, 0.0 ], [ 11.157024537665704, 11.689633830357419, 0.0 ], [ 11.156727948066314, 11.689078179476466, 0.0 ], [ 11.156742282577021, 11.68801473433588, 0.0 ], [ 11.156458566446949, 11.688011306700991, 0.0 ], [ 11.155103807249702, 11.688048761253661, 0.0 ], [ 11.155025761523786, 11.685321364132603, 0.0 ], [ 11.155888603230558, 11.685038456017912, 0.0 ], [ 11.156617466843713, 11.684661233359883, 0.0 ], [ 11.157243466538537, 11.685294105367902, 0.0 ], [ 11.157812021746231, 11.684752865937371, 0.0 ], [ 11.158346066464022, 11.684195733244939, 0.0 ], [ 11.158377920034223, 11.684165110033037, 0.0 ], [ 11.158486083096577, 11.682673358437542, 0.0 ], [ 11.158269814345172, 11.682535901707601, 0.0 ], [ 11.158562219661462, 11.681623306417274, 0.0 ], [ 11.158673256591555, 11.680091919324322, 0.0 ], [ 11.158564445705714, 11.679786378105995, 0.0 ], [ 11.158701960768642, 11.679696040167116, 0.0 ], [ 11.158900621200903, 11.676956176757786, 0.0 ], [ 11.161932712129707, 11.673043823242164, 0.0 ], [ 11.163067287867547, 11.668622843424453, 0.0 ], [ 11.166198052298958, 11.664583333333306, 0.0 ], [ 11.163067287867545, 11.660543823242165, 0.0 ], [ 11.162044399683555, 11.656558044359043, 0.0 ], [ 11.161994807496312, 11.656534776542561, 0.0 ], [ 11.162023088041796, 11.656475001566074, 0.0 ], [ 11.161932712129703, 11.656122843424454, 0.0 ], [ 11.158900621200898, 11.65221048990883, 0.0 ], [ 11.158344821123345, 11.650044763246795, 0.0 ], [ 11.157817815576669, 11.65005928688743, 0.0 ], [ 11.157159680471604, 11.648452267226867, 0.0 ], [ 11.155465140760599, 11.648430809807074, 0.0 ], [ 11.154167505854179, 11.648466740348907, 0.0 ], [ 11.153120120949795, 11.647095622576858, 0.0 ], [ 11.152836591180048, 11.646831908629178, 0.0 ], [ 11.152563785375092, 11.646286390573325, 0.0 ], [ 11.152236729644249, 11.645671906977434, 0.0 ], [ 11.152557306552788, 11.644327886526616, 0.0 ], [ 11.153457068749312, 11.642575484317994, 0.0 ], [ 11.15280559687297, 11.641967663270826, 0.0 ], [ 11.152819431141761, 11.641863005046439, 0.0 ], [ 11.151742214625406, 11.642019992404487, 0.0 ], [ 11.14825778537195, 11.645480007595461, 0.0 ] ] ] } },
{ "type": "Feature", "properties": { "Stra_Catch": "Gongola", "State": "Gombe", "LGA": "Dukku", "Population": 207658, "Cleard_TOR": "Not Yet", "Status": "Not yet awarded", "Start_Date": "2024-03-20T00:00:00", "End_Date": "2026-03-09T00:00:00", "Micr_Catch": "Dukku/Gombe_Abba", "Size_Ha": 328651.86943299999, "Comments": null, "OBJECTID_1": 0, "Shape_Leng": 0.0, "Shape_Area": 0.0, "parent_strategic_name": "Gongola", "clipped_to_state": true }, "geometry": { "type": "MultiPolygon", "coordinates": [ [ [ [ 11.248563199999216, 11.183573899999409, 0.0 ], [ 11.2237558, 11.1648305, 0.0 ], [ 11.223755799998901, 11.164830500000493, 0.0 ], [ 11.248563199998008, 11.183573899999914, 0.0 ], [ 11.248563199999216, 11.183573899999409, 0.0 ] ] ], [ [ [ 11.319381899999192, 11.186231199998238, 0.0 ], [ 11.3114452, 11.1689156, 0.0 ], [ 11.31144519999776, 11.168915600000211, 0.0 ], [ 11.319381899997516, 11.186231199999936, 0.0 ], [ 11.319381899999192, 11.186231199998238, 0.0 ] ] ], [ [ [ 11.394354799998448, 11.091974299999126, 0.0 ], [ 11.3911402, 11.0901644, 0.0 ], [ 11.391140199998066, 11.090164400000537, 0.0 ], [ 11.394354799996929, 11.091974299999885, 0.0 ], [ 11.394354799998448, 11.091974299999126, 0.0 ] ] ], [ [ [ 11.077443499999124, 11.286717699999013, 0.0 ], [ 10.981716, 11.17882, 0.0 ], [ 10.98171599999959, 11.178820000000457, 0.0 ], [ 11.0774434999989, 11.286717699999953, 0.0 ], [ 11.077443499999124, 11.286717699999013, 0.0 ] ] ] ] } },
{ "type": "Feature", "properties": { "Stra_Catch": "Hadejia_Jamaare", "State": "Yobe", "LGA": "Damaturu", "Population": 194089, "Cleard_TOR": "No yet cleared", "Status": "Not yet awared", "Start_Date": "2024-12-12T00:00:00", "End_Date": "2025-01-25T00:00:00", "Micr_Catch": "Damaturu", "Size_Ha": 55866.3131536, "Comments": null, "OBJECTID_1": 0, "Shape_Leng": 0.0, "Shape_Area": 0.0, "parent_strategic_name": "Gongola", "clipped_to_state": true }, "geometry": { "type": "MultiPolygon", "coordinates": [ [ [ [ 11.949212915689001, 11.615364902832763, 0.0 ], [ 11.950778153686098, 11.615380468121096, 0.0 ], [ 11.950744257700268, 11.614302467942471, 0.0 ], [ 11.95127736925147, 11.613744211300425, 0.0 ], [ 11.95198899325465, 11.613722639528293, 0.0 ], [ 11.952922118096959, 11.613731876424412, 0.0 ], [ 11.953773640831976, 11.613435245936509, 0.0 ], [ 11.954646803754892, 11.613867695543044, 0.0 ], [ 11.955024800579539, 11.612677358324117, 0.0 ], [ 11.951742214614232, 11.612853325737222, 0.0 ], [ 11.949212915689001, 11.615364902832763, 0.0 ] ] ], [ [ [ 11.944734082252291, 11.616785755544361, 0.0 ], [ 11.945452681727675, 11.617120312989327, 0.0 ], [ 11.945922723851991, 11.618936139467483, 0.0 ], [ 11.946806267732246, 11.618618821459847, 0.0 ], [ 11.947509967029124, 11.617536188911524, 0.0 ], [ 11.948041416860329, 11.617022939076664, 0.0 ], [ 11.948150402379188, 11.61631686778524, 0.0 ], [ 11.944311152320555, 11.616442963056036, 0.0 ], [ 11.944734082252291, 11.616785755544361, 0.0 ] ] ], [ [ [ 11.939161798172677, 11.616909556242058, 0.0 ], [ 11.939480951319213, 11.616601604846482, 0.0 ], [ 11.938332836436039, 11.616639313215275, 0.0 ], [ 11.939161798172677, 11.616909556242058, 0.0 ] ] ], [ [ [ 11.937431072071643, 11.616935304222556, 0.0 ], [ 11.937976606762502, 11.616651013124493, 0.0 ], [ 11.937499999987914, 11.61666666666604, 0.0 ], [ 11.937431072071643, 11.616935304222556, 0.0 ] ] ], [ [ [ 11.923201401943356, 11.629183959637954, 0.0 ], [ 11.924236993713711, 11.628099312104576, 0.0 ], [ 11.925614926170482, 11.627819634268993, 0.0 ], [ 11.926155303221188, 11.627537871751491, 0.0 ], [ 11.927335568810367, 11.627146932124946, 0.0 ], [ 11.928021255848451, 11.62439187796325, 0.0 ], [ 11.922974460441687, 11.62925914692554, 0.0 ], [ 11.923201401943356, 11.629183959637954, 0.0 ] ] ], [ [ [ 11.912271395444707, 11.640420376734742, 0.0 ], [ 11.913372785226052, 11.640387000424559, 0.0 ], [ 11.91474955915198, 11.640400582965393, 0.0 ], [ 11.915002002561002, 11.638761273054017, 0.0 ], [ 11.916105139465261, 11.638484409414707, 0.0 ], [ 11.917294901309354, 11.637865023706073, 0.0 ], [ 11.918449949625614, 11.638241795770151, 0.0 ], [ 11.919658234689139, 11.63764894093033, 0.0 ], [ 11.919679588121236, 11.63557930516024, 0.0 ], [ 11.919363884863008, 11.634652324885749, 0.0 ], [ 11.918808730698233, 11.634137157642282, 0.0 ], [ 11.9190847234429, 11.63383109208023, 0.0 ], [ 11.920176878130849, 11.633841983064478, 0.0 ], [ 11.920442748410494, 11.63328647126276, 0.0 ], [ 11.921284751854865, 11.632169919698081, 0.0 ], [ 11.921794416431799, 11.63110490119316, 0.0 ], [ 11.922338699398317, 11.630579115061064, 0.0 ], [ 11.922344653772813, 11.630018036305303, 0.0 ], [ 11.922339932141419, 11.629871103553988, 0.0 ], [ 11.911845444054965, 11.639992277887677, 0.0 ], [ 11.912271395444707, 11.640420376734742, 0.0 ] ] ], [ [ [ 11.885543823231615, 11.653599378797241, 0.0 ], [ 11.868818474157418, 11.654350782137881, 0.0 ], [ 11.868982058350896, 11.654675572645012, 0.0 ], [ 11.869266122979496, 11.654938438033744, 0.0 ], [ 11.869540195442726, 11.655482983243434, 0.0 ], [ 11.870376833943435, 11.656011324252102, 0.0 ], [ 11.870653695022394, 11.656826833197117, 0.0 ], [ 11.871232085215155, 11.657096283343884, 0.0 ], [ 11.872023153408501, 11.657891832183042, 0.0 ], [ 11.873461765063933, 11.65753580168003, 0.0 ], [ 11.874202963852728, 11.655989501281704, 0.0 ], [ 11.874787263004382, 11.655685408639771, 0.0 ], [ 11.875596002853655, 11.655693727423564, 0.0 ], [ 11.876097489917603, 11.655169484847992, 0.0 ], [ 11.87791075442877, 11.655114817486066, 0.0 ], [ 11.878613733649606, 11.656427805815886, 0.0 ], [ 11.878995771211599, 11.657547112380316, 0.0 ], [ 11.881108378685768, 11.657568550453359, 0.0 ], [ 11.881111629954816, 11.657259153521723, 0.0 ], [ 11.880755600705731, 11.656267412078979, 0.0 ], [ 11.881363304511128, 11.655630419679305, 0.0 ], [ 11.88274145951393, 11.655350905275988, 0.0 ], [ 11.883049556965934, 11.655027866755576, 0.0 ], [ 11.885486490193026, 11.655052639798992, 0.0 ], [ 11.88654783276492, 11.653421867008829, 0.0 ], [ 11.887116818537617, 11.653404774295597, 0.0 ], [ 11.887890097931297, 11.653412358083258, 0.0 ], [ 11.88910052295555, 11.653011708217923, 0.0 ], [ 11.889816409875317, 11.651519895757204, 0.0 ], [ 11.890114931366327, 11.65120673946045, 0.0 ], [ 11.890393510146122, 11.650938243728717, 0.0 ], [ 11.890661225498757, 11.650657683306967, 0.0 ], [ 11.891914375758933, 11.651066651676615, 0.0 ], [ 11.892836501478406, 11.650100713103068, 0.0 ], [ 11.893136683444025, 11.650363388715267, 0.0 ], [ 11.893418837479354, 11.650647946022218, 0.0 ], [ 11.894235800694341, 11.650623317737463, 0.0 ], [ 11.895579354884555, 11.65063678605885, 0.0 ], [ 11.895885564933533, 11.650341014985967, 0.0 ], [ 11.896151141786959, 11.65006205942994, 0.0 ], [ 11.896429712451813, 11.649793559474606, 0.0 ], [ 11.896878210214245, 11.647892128101889, 0.0 ], [ 11.897512327974827, 11.64815143547769, 0.0 ], [ 11.898723263976457, 11.648943198900314, 0.0 ], [ 11.899702727602881, 11.648952909187292, 0.0 ], [ 11.899991921046635, 11.64867371403159, 0.0 ], [ 11.900660989801098, 11.647644150721337, 0.0 ], [ 11.901617221601121, 11.647175099068781, 0.0 ], [ 11.901621479783103, 11.646757725735727, 0.0 ], [ 11.901604074201714, 11.646218839148855, 0.0 ], [ 11.901889627287721, 11.646210136272554, 0.0 ], [ 11.902975746307067, 11.646564375039254, 0.0 ], [ 11.903165210292595, 11.645551768126332, 0.0 ], [ 11.893622843413659, 11.646400621201744, 0.0 ], [ 11.885543823231615, 11.653599378797241, 0.0 ] ] ], [ [ [ 11.862314068225, 11.654774853653608, 0.0 ], [ 11.862852190045849, 11.656355240634625, 0.0 ], [ 11.863759749858868, 11.656364460992156, 0.0 ], [ 11.864315887717167, 11.655825927316386, 0.0 ], [ 11.864589262975098, 11.655256072670108, 0.0 ], [ 11.866185006364885, 11.65493265283593, 0.0 ], [ 11.866295859106824, 11.654464113188119, 0.0 ], [ 11.86173330576402, 11.654669090543655, 0.0 ], [ 11.862314068225, 11.654774853653608, 0.0 ] ] ], [ [ [ 11.839027579665837, 11.67181088832954, 0.0 ], [ 11.839748163937811, 11.672033533521628, 0.0 ], [ 11.840305164288939, 11.672309874088887, 0.0 ], [ 11.841122231835421, 11.672285381069765, 0.0 ], [ 11.841929965169902, 11.67229352970025, 0.0 ], [ 11.842597077673368, 11.670985646845082, 0.0 ], [ 11.839456176748387, 11.671400621201796, 0.0 ], [ 11.839027579665837, 11.67181088832954, 0.0 ] ] ], [ [ [ 11.809117200820381, 11.701611866296858, 0.0 ], [ 11.809386536432395, 11.701614687654498, 0.0 ], [ 11.810303576873153, 11.701587165076511, 0.0 ], [ 11.811454507913961, 11.701851638723122, 0.0 ], [ 11.811987338535879, 11.702388418769404, 0.0 ], [ 11.81170077334302, 11.700392036938048, 0.0 ], [ 11.8114904183372, 11.700259102890245, 0.0 ], [ 11.810289510082427, 11.700567287868511, 0.0 ], [ 11.809117200820381, 11.701611866296858, 0.0 ] ] ], [ [ [ 11.806877795097895, 11.704002387878079, 0.0 ], [ 11.80734016427775, 11.703518035713737, 0.0 ], [ 11.807751853889318, 11.703120987884297, 0.0 ], [ 11.807597651024384, 11.702965851110498, 0.0 ], [ 11.806303952743942, 11.704118592422274, 0.0 ], [ 11.806877795097895, 11.704002387878079, 0.0 ] ] ] ] } },
{ "type": "Feature", "properties": { "Stra_Catch": "Hadejia_Jamaare", "State": "Yobe", "LGA": "Gujba", "Population": 148303, "Cleard_TOR": "Cleared", "Status": "Completed", "Start_Date": "2024-12-12T00:00:00", "End_Date": "2025-01-25T00:00:00", "Micr_Catch": "Buni Yadi", "Size_Ha": 15950.587607400001, "Comments": null, "OBJECTID_1": 0, "Shape_Leng": 0.0, "Shape_Area": 0.0, "parent_strategic_name": "Gongola", "clipped_to_state": true }, "geometry": { "type": "Polygon", "coordinates": [ [ [ 11.957482401516499, 11.221684265136085, 0.0 ], [ 11.951956176744536, 11.220266045463784, 0.0 ], [ 11.946579996731677, 11.216099378797127, 0.0 ], [ 11.943622843411459, 11.217233954534979, 0.0 ], [ 11.935543823229432, 11.224432712130479, 0.0 ], [ 11.916666666654493, 11.224999999999433, 0.0 ], [ 11.916313340916645, 11.227424452039365, 0.0 ], [ 11.912853325725779, 11.230908881292839, 0.0 ], [ 11.912146674250113, 11.235757785372703, 0.0 ], [ 11.896186659059623, 11.251742214626201, 0.0 ], [ 11.895833333321805, 11.254166666666132, 0.0 ], [ 11.906591118694751, 11.254519992403964, 0.0 ], [ 11.91214565699755, 11.260046895344489, 0.0 ], [ 11.912853325725866, 11.280879550509418, 0.0 ], [ 11.908347235773746, 11.285417344834512, 0.0 ], [ 11.91631334091676, 11.293408881292835, 0.0 ], [ 11.917019992392445, 11.30171288384275, 0.0 ], [ 11.912513902440329, 11.30625067816784, 0.0 ], [ 11.920480007583338, 11.314242214626164, 0.0 ], [ 11.920833333321223, 11.341666666666095, 0.0 ], [ 11.92499999998777, 11.341666666666086, 0.0 ], [ 11.925850931791121, 11.338350931802804, 0.0 ], [ 11.931377156563091, 11.336932712130483, 0.0 ], [ 11.936753336575945, 11.332766045463808, 0.0 ], [ 11.957346259209858, 11.333956570094848, 0.0 ], [ 11.96193271211771, 11.339456176757164, 0.0 ], [ 11.963409254272623, 11.345209757486325, 0.0 ], [ 11.974999999986224, 11.345833333332662, 0.0 ], [ 11.981591118692606, 11.345480007594801, 0.0 ], [ 11.985075547945955, 11.342019992403822, 0.0 ], [ 11.989924452025654, 11.341313340928121, 0.0 ], [ 11.993749999985587, 11.337514580619953, 0.0 ], [ 11.997575547945532, 11.341313340928105, 0.0 ], [ 12.010757785358273, 11.342019992403772, 0.0 ], [ 12.014242214611631, 11.345480007594734, 0.0 ], [ 12.035757785357386, 11.346186659070389, 0.0 ], [ 12.039242214610736, 11.349646674261351, 0.0 ], [ 12.049999999983598, 11.349999999999175, 0.0 ], [ 12.054166666650106, 11.349999999999165, 0.0 ], [ 12.054166666650094, 11.345833333332497, 0.0 ], [ 12.05482788084276, 11.338399590385446, 0.0 ], [ 12.058333333316581, 11.337499999999157, 0.0 ], [ 12.057715691443741, 11.322839864094211, 0.0 ], [ 12.053549024777222, 11.317135789658453, 0.0 ], [ 12.054784308522786, 11.297839864094215, 0.0 ], [ 12.058407931840778, 11.292879231769993, 0.0 ], [ 12.052006530745098, 11.291049024793006, 0.0 ], [ 12.047993469221806, 11.28811764187201, 0.0 ], [ 12.03783111570656, 11.286638556585574, 0.0 ], [ 12.0339509751902, 11.281326802570829, 0.0 ], [ 12.032471889903775, 11.271164449055208, 0.0 ], [ 12.027160135889202, 11.267284308538722, 0.0 ], [ 12.022839864079462, 11.266049024793071, 0.0 ], [ 12.018826802556164, 11.263117641872073, 0.0 ], [ 12.006173197413382, 11.261882358126439, 0.0 ], [ 11.99799346922355, 11.254784308538783, 0.0 ], [ 11.9936731974138, 11.253549024793132, 0.0 ], [ 11.989660135890492, 11.250617641872132, 0.0 ], [ 11.967476230183767, 11.249311998154726, 0.0 ], [ 11.966049024780148, 11.239506530761069, 0.0 ], [ 11.963061523423898, 11.235416666666019, 0.0 ], [ 11.96604902478013, 11.231326802570964, 0.0 ], [ 11.966666666652927, 11.224999999999349, 0.0 ], [ 11.958333333319864, 11.224999999999364, 0.0 ], [ 11.957482401516499, 11.221684265136085, 0.0 ] ] ] } },
{ "type": "Feature", "properties": { "Stra_Catch": "Hadejia_Jamaare", "State": "Yobe", "LGA": "Potiskum", "Population": 483346, "Cleard_TOR": "No yet cleared", "Status": "Not yet awared", "Start_Date": "2024-12-12T00:00:00", "End_Date": "2025-01-25T00:00:00", "Micr_Catch": "Potiskum", "Size_Ha": 18680.867228399999, "Comments": null, "OBJECTID_1": 0, "Shape_Leng": 0.0, "Shape_Area": 0.0, "parent_strategic_name": "Ngada (West Chad)", "clipped_to_state": true }, "geometry": { "type": "MultiPolygon", "coordinates": [ [ [ [ 11.15280559687297, 11.641967663270792, 0.0 ], [ 11.153457068749312, 11.642575484317975, 0.0 ], [ 11.152557306552788, 11.644327886526602, 0.0 ], [ 11.152236729644249, 11.645671906977416, 0.0 ], [ 11.152563785375092, 11.646286390573325, 0.0 ], [ 11.152836591180032, 11.646831908629178, 0.0 ], [ 11.153120120949787, 11.64709562257684, 0.0 ], [ 11.154167505854179, 11.648466740348907, 0.0 ], [ 11.155465140760592, 11.648430809807074, 0.0 ], [ 11.157159680471596, 11.648452267226867, 0.0 ], [ 11.157817815576669, 11.650059286887412, 0.0 ], [ 11.158344821123343, 11.650044763246786, 0.0 ], [ 11.157766045463054, 11.647789510091116, 0.0 ], [ 11.154733954534247, 11.643877156575497, 0.0 ], [ 11.154166666665326, 11.641666666666639, 0.0 ], [ 11.152819431141758, 11.641863005046439, 0.0 ], [ 11.15280559687297, 11.641967663270792, 0.0 ] ] ], [ [ [ 11.083382012791194, 11.783143611496419, 0.0 ], [ 11.082620083521247, 11.782642944662706, 0.0 ], [ 11.082061263153912, 11.782381188323214, 0.0 ], [ 11.081621468318716, 11.781936916978461, 0.0 ], [ 11.080971060603245, 11.782931441377873, 0.0 ], [ 11.080619493373364, 11.783269085111456, 0.0 ], [ 11.0833333333323, 11.783333333333323, 0.0 ], [ 11.083382012791194, 11.783143611496419, 0.0 ] ] ], [ [ [ 11.091526084184707, 11.776981605503892, 0.0 ], [ 11.091160396266101, 11.776891709396409, 0.0 ], [ 11.089466910445669, 11.778259836339982, 0.0 ], [ 11.088912113122307, 11.778529749941853, 0.0 ], [ 11.088645472262007, 11.778808141636441, 0.0 ], [ 11.087540313856735, 11.779082089376839, 0.0 ], [ 11.086703910255501, 11.779370947051245, 0.0 ], [ 11.089710489907796, 11.778599378797729, 0.0 ], [ 11.091526084184707, 11.776981605503892, 0.0 ] ] ], [ [ [ 11.110289510090009, 11.767233954535575, 0.0 ], [ 11.110723979507817, 11.767195305769903, 0.0 ], [ 11.110134345941667, 11.765449824093032, 0.0 ], [ 11.10847966229271, 11.764834005922618, 0.0 ], [ 11.108090060490023, 11.766463707065443, 0.0 ], [ 11.107037724657951, 11.768017549925602, 0.0 ], [ 11.104520878449241, 11.768382746839174, 0.0 ], [ 11.1028814751794, 11.769495814769833, 0.0 ], [ 11.102053696333547, 11.769485241002027, 0.0 ], [ 11.10178600502676, 11.769763914159176, 0.0 ], [ 11.100944220106626, 11.770173915504737, 0.0 ], [ 11.100079930249709, 11.76974366000981, 0.0 ], [ 11.098590162452952, 11.771294841260435, 0.0 ], [ 11.106377156574403, 11.770266045464393, 0.0 ], [ 11.110289510090009, 11.767233954535575, 0.0 ] ] ], [ [ [ 11.126956176756611, 11.763067287868907, 0.0 ], [ 11.129166666665457, 11.7625, 0.0 ], [ 11.141666666665403, 11.7625, 0.0 ], [ 11.142233954534326, 11.760289510091122, 0.0 ], [ 11.145619819262947, 11.756831792125491, 0.0 ], [ 11.145151264461225, 11.756138937004643, 0.0 ], [ 11.144060521595696, 11.756169113453677, 0.0 ], [ 11.14322865157594, 11.755622246549484, 0.0 ], [ 11.141669463890286, 11.75526009258221, 0.0 ], [ 11.141028627402676, 11.755926314432694, 0.0 ], [ 11.140198758604475, 11.755915860871564, 0.0 ], [ 11.139931122806784, 11.756194561225076, 0.0 ], [ 11.139376432625889, 11.756464557451048, 0.0 ], [ 11.139111962411604, 11.757014100439331, 0.0 ], [ 11.137626716331903, 11.75773775087865, 0.0 ], [ 11.137171725092712, 11.757278064268883, 0.0 ], [ 11.136071298088508, 11.757308284455398, 0.0 ], [ 11.135532897228162, 11.756764490428994, 0.0 ], [ 11.134396934218305, 11.756507156395161, 0.0 ], [ 11.13329100948763, 11.757079406171567, 0.0 ], [ 11.132632029183727, 11.75776587318331, 0.0 ], [ 11.132247849157316, 11.758963424515045, 0.0 ], [ 11.131913199787588, 11.759614102884134, 0.0 ], [ 11.130295711444321, 11.760897391452241, 0.0 ], [ 11.128957354941996, 11.760880644118322, 0.0 ], [ 11.128391011087521, 11.760896257725408, 0.0 ], [ 11.127828130385431, 11.762061513662998, 0.0 ], [ 11.125939924731664, 11.762529959354486, 0.0 ], [ 11.125398183267382, 11.762810428345212, 0.0 ], [ 11.124293147623392, 11.763084501860881, 0.0 ], [ 11.124039044530933, 11.764989629714194, 0.0 ], [ 11.123418996011079, 11.76529186140259, 0.0 ], [ 11.121698982480241, 11.765269982851194, 0.0 ], [ 11.120462027850545, 11.765304076358527, 0.0 ], [ 11.120150569095605, 11.763795028688419, 0.0 ], [ 11.118035084197027, 11.764346139477473, 0.0 ], [ 11.117170423553324, 11.766396402753106, 0.0 ], [ 11.116338378646967, 11.766669215489843, 0.0 ], [ 11.116355906771357, 11.766694310698281, 0.0 ], [ 11.123043823241003, 11.766099378797723, 0.0 ], [ 11.126956176756611, 11.763067287868907, 0.0 ] ] ], [ [ [ 11.147101541184728, 11.754400043418293, 0.0 ], [ 11.14679823606866, 11.75534519309239, 0.0 ], [ 11.146250909983385, 11.755870654855583, 0.0 ], [ 11.146151139718221, 11.756289196236121, 0.0 ], [ 11.147921226882536, 11.754481545110236, 0.0 ], [ 11.147101541184728, 11.754400043418293, 0.0 ] ] ], [ [ [ 11.152717679867811, 11.75833333333331, 0.0 ], [ 11.152602560917595, 11.75799183201827, 0.0 ], [ 11.152042673583521, 11.757729693984784, 0.0 ], [ 11.152482705425246, 11.755985477795852, 0.0 ], [ 11.151992252754274, 11.755528999779633, 0.0 ], [ 11.150922109146613, 11.755027378178495, 0.0 ], [ 11.150651267124166, 11.754752994153886, 0.0 ], [ 11.149040012935384, 11.754592786475643, 0.0 ], [ 11.149999999998702, 11.75833333333331, 0.0 ], [ 11.152717679867811, 11.75833333333331, 0.0 ] ] ], [ [ [ 11.156591118705268, 11.757980007595464, 0.0 ], [ 11.158551258728355, 11.756033601523482, 0.0 ], [ 11.156963271172991, 11.755511049234492, 0.0 ], [ 11.156980739947128, 11.754165599337023, 0.0 ], [ 11.156942267663355, 11.752813688284506, 0.0 ], [ 11.155912323120619, 11.753885865189995, 0.0 ], [ 11.155318041453654, 11.754175517110129, 0.0 ], [ 11.154776684159918, 11.754498395521193, 0.0 ], [ 11.155614402037356, 11.756071181512871, 0.0 ], [ 11.155894986216843, 11.757596280046867, 0.0 ], [ 11.153971846450087, 11.757981494266605, 0.0 ], [ 11.153633948506728, 11.75833333333331, 0.0 ], [ 11.154166666665351, 11.75833333333331, 0.0 ], [ 11.156591118705268, 11.757980007595464, 0.0 ] ] ], [ [ [ 11.166666666665293, 11.75416666666664, 0.0 ], [ 11.167233954534213, 11.74778951009112, 0.0 ], [ 11.170266045463016, 11.743877156575495, 0.0 ], [ 11.170782133264936, 11.741865932053299, 0.0 ], [ 11.170356342933138, 11.741860544813095, 0.0 ], [ 11.170088753634575, 11.742139266013799, 0.0 ], [ 11.169375666619802, 11.742486769354009, 0.0 ], [ 11.169003086722158, 11.744045403315583, 0.0 ], [ 11.168684119318597, 11.744351520105125, 0.0 ], [ 11.166800898030878, 11.744327954897102, 0.0 ], [ 11.165933724582564, 11.744351744700587, 0.0 ], [ 11.16516001886211, 11.745196149233101, 0.0 ], [ 11.166434343380335, 11.746384580043282, 0.0 ], [ 11.165170180903896, 11.747322729521896, 0.0 ], [ 11.164907889386198, 11.748143397847919, 0.0 ], [ 11.164357481648404, 11.748955659058778, 0.0 ], [ 11.164373518390322, 11.749495145768291, 0.0 ], [ 11.163817794605242, 11.750315390044765, 0.0 ], [ 11.163553380683508, 11.750864946402309, 0.0 ], [ 11.163273869793588, 11.751132897196257, 0.0 ], [ 11.162738660373627, 11.751690330576475, 0.0 ], [ 11.162178620776629, 11.751683189044048, 0.0 ], [ 11.161367080701542, 11.752779410506642, 0.0 ], [ 11.159483806287934, 11.75427402046823, 0.0 ], [ 11.158607915475974, 11.754700844923242, 0.0 ], [ 11.158638912331377, 11.755781947910965, 0.0 ], [ 11.158608189292339, 11.755977069850177, 0.0 ], [ 11.160075547958726, 11.754519992404488, 0.0 ], [ 11.166666666665293, 11.75416666666664, 0.0 ] ] ], [ [ [ 11.179402822474188, 11.731130247576749, 0.0 ], [ 11.179357885418224, 11.731223661725258, 0.0 ], [ 11.179080537499607, 11.731762731467994, 0.0 ], [ 11.178816189906055, 11.732588979446826, 0.0 ], [ 11.177743495219232, 11.732575709373416, 0.0 ], [ 11.176894602517446, 11.73286918876631, 0.0 ], [ 11.176064885993743, 11.733141337742016, 0.0 ], [ 11.175250271321318, 11.733695087787016, 0.0 ], [ 11.174534001895971, 11.734044212456556, 0.0 ], [ 11.174993357847157, 11.735334126750828, 0.0 ], [ 11.174985790586081, 11.735876966310094, 0.0 ], [ 11.173889428533057, 11.736411410928286, 0.0 ], [ 11.173631624777641, 11.737800777599253, 0.0 ], [ 11.173655214899414, 11.737845074837349, 0.0 ], [ 11.179733954534152, 11.736285061306393, 0.0 ], [ 11.179402822474188, 11.731130247576749, 0.0 ] ] ], [ [ [ 11.177496962585604, 11.717435044061915, 0.0 ], [ 11.175995246087723, 11.717807882534631, 0.0 ], [ 11.175673177137783, 11.718811698835536, 0.0 ], [ 11.175688049097671, 11.719338481807346, 0.0 ], [ 11.177090012965822, 11.720645319689861, 0.0 ], [ 11.178187374130173, 11.721754301262385, 0.0 ], [ 11.17879943621004, 11.721737186092284, 0.0 ], [ 11.178599378796306, 11.718622843424452, 0.0 ], [ 11.177496962585604, 11.717435044061915, 0.0 ] ] ], [ [ [ 11.172323004111927, 11.712027208955037, 0.0 ], [ 11.172641268176264, 11.712323192341911, 0.0 ], [ 11.172838280660436, 11.712415542926818, 0.0 ], [ 11.171909063182881, 11.711414356698983, 0.0 ], [ 11.172323004111927, 11.712027208955037, 0.0 ] ] ], [ [ [ 11.171214144155096, 11.710951112586811, 0.0 ], [ 11.171682750043809, 11.711170515398651, 0.0 ], [ 11.17070038455827, 11.710112064800617, 0.0 ], [ 11.171214144155096, 11.710951112586811, 0.0 ] ] ], [ [ [ 11.169016495883026, 11.70861340929121, 0.0 ], [ 11.169895905948421, 11.709245278580788, 0.0 ], [ 11.168905456957459, 11.708178118402385, 0.0 ], [ 11.169016495883026, 11.70861340929121, 0.0 ] ] ], [ [ [ 11.16609937879636, 11.701956176757786, 0.0 ], [ 11.158153273907002, 11.693038471722211, 0.0 ], [ 11.158140626056639, 11.694019111684687, 0.0 ], [ 11.157488516023271, 11.695289909360323, 0.0 ], [ 11.158782246402568, 11.695692953985628, 0.0 ], [ 11.159284324862297, 11.696693197946683, 0.0 ], [ 11.159274317945576, 11.697481243154957, 0.0 ], [ 11.160115589745974, 11.698015573454118, 0.0 ], [ 11.160386373958906, 11.698289957608317, 0.0 ], [ 11.16066997072252, 11.698553652698699, 0.0 ], [ 11.160664551499218, 11.698963035301624, 0.0 ], [ 11.160683930746492, 11.699659776009568, 0.0 ], [ 11.161777662362141, 11.69962955009429, 0.0 ], [ 11.16295092394987, 11.700015210557053, 0.0 ], [ 11.163616759421446, 11.701341997430326, 0.0 ], [ 11.165083606054893, 11.702029919113693, 0.0 ], [ 11.165506030981511, 11.702456453999183, 0.0 ], [ 11.165941193823762, 11.702862504690362, 0.0 ], [ 11.165930418513023, 11.703687091537915, 0.0 ], [ 11.16524242479319, 11.704348401464083, 0.0 ], [ 11.165676380945266, 11.705565462620289, 0.0 ], [ 11.165672062859288, 11.705839006692656, 0.0 ], [ 11.165683910060093, 11.706256465379864, 0.0 ], [ 11.166531675072344, 11.706653567999004, 0.0 ], [ 11.167466626911917, 11.706627849643363, 0.0 ], [ 11.167233954534202, 11.706377156575494, 0.0 ], [ 11.16609937879636, 11.701956176757786, 0.0 ] ] ], [ [ [ 11.158346066464006, 11.684195733244941, 0.0 ], [ 11.157812021746215, 11.684752865937371, 0.0 ], [ 11.157243466538537, 11.685294105367886, 0.0 ], [ 11.156617466843713, 11.684661233359897, 0.0 ], [ 11.155888603230569, 11.685038456017912, 0.0 ], [ 11.155025761523786, 11.685321364132569, 0.0 ], [ 11.155103807249695, 11.688048761253679, 0.0 ], [ 11.156458566446949, 11.688011306700957, 0.0 ], [ 11.156742282577031, 11.68801473433588, 0.0 ], [ 11.156727948066312, 11.689078179476448, 0.0 ], [ 11.157024537665704, 11.689633830357403, 0.0 ], [ 11.157578788001224, 11.69099060610524, 0.0 ], [ 11.15784666087159, 11.691492072548918, 0.0 ], [ 11.158377920034223, 11.684165110033023, 0.0 ], [ 11.158346066464006, 11.684195733244941, 0.0 ] ] ], [ [ [ 11.158269814345161, 11.682535901707585, 0.0 ], [ 11.158486083096578, 11.682673358437532, 0.0 ], [ 11.158562219661466, 11.681623306417242, 0.0 ], [ 11.158269814345161, 11.682535901707585, 0.0 ] ] ], [ [ [ 11.158564445705714, 11.679786378105979, 0.0 ], [ 11.158673256591557, 11.68009191932431, 0.0 ], [ 11.158701960768644, 11.6796960401671, 0.0 ], [ 11.158564445705714, 11.679786378105979, 0.0 ] ] ], [ [ [ 11.161994807496312, 11.656534776542561, 0.0 ], [ 11.162044399683555, 11.656558044359041, 0.0 ], [ 11.162023088041794, 11.656475001566074, 0.0 ], [ 11.161994807496312, 11.656534776542561, 0.0 ] ] ] ] } },
{ "type": "Feature", "properties": { "Stra_Catch": "Hadejia_Jamaare", "State": "Yobe", "LGA": "Damaturu", "Population": 194089, "Cleard_TOR": "No yet cleared", "Status": "Not yet awared", "Start_Date": "2024-12-12T00:00:00", "End_Date": "2025-01-25T00:00:00", "Micr_Catch": "Damaturu 2", "Size_Ha": 14702.507484399999, "Comments": null, "OBJECTID_1": 0, "Shape_Leng": 0.0, "Shape_Area": 0.0, "parent_strategic_name": "Ngada (West Chad)", "clipped_to_state": true }, "geometry": { "type": "Polygon", "coordinates": [ [ [ 12.187499999978833, 11.720833333332129, 0.0 ], [ 12.186932712109972, 11.731377156574318, 0.0 ], [ 12.175567287848381, 11.74362284342331, 0.0 ], [ 12.174291483540744, 11.753279283310464, 0.0 ], [ 12.170833333313039, 11.754166666665506, 0.0 ], [ 12.170266045444173, 11.764710489907701, 0.0 ], [ 12.167135450555005, 11.768749999998853, 0.0 ], [ 12.170266045444198, 11.772789510089984, 0.0 ], [ 12.171400621182009, 11.77721048990769, 0.0 ], [ 12.178599378777198, 11.785289510089964, 0.0 ], [ 12.179733954515022, 11.793877156574336, 0.0 ], [ 12.182766045443712, 11.797789510089947, 0.0 ], [ 12.183900621181536, 11.806377156574321, 0.0 ], [ 12.186932712110229, 11.810289510089937, 0.0 ], [ 12.188350931782491, 11.815815734862065, 0.0 ], [ 12.193877156554374, 11.817233954534357, 0.0 ], [ 12.206122843402794, 11.828599378796474, 0.0 ], [ 12.212104119172912, 11.830134412976138, 0.0 ], [ 12.216099378775603, 11.83528951008984, 0.0 ], [ 12.217586432540742, 11.841083780923173, 0.0 ], [ 12.226956176735191, 11.849432712129733, 0.0 ], [ 12.233333333310398, 11.849999999998635, 0.0 ], [ 12.237499999976855, 11.849999999998618, 0.0 ], [ 12.239710489885596, 11.849432712129687, 0.0 ], [ 12.251956176733884, 11.838067287867494, 0.0 ], [ 12.2576244777861, 11.836612616643515, 0.0 ], [ 12.268522359536258, 11.825312818961882, 0.0 ], [ 12.2608471, 11.8205404, 0.0 ], [ 12.2569653, 11.8183672, 0.0 ], [ 12.2528883, 11.817239, 0.0 ], [ 12.2476383, 11.8127497, 0.0 ], [ 12.2443017, 11.8093451, 0.0 ], [ 12.242889, 11.8019134, 0.0 ], [ 12.2393668, 11.7894869, 0.0 ], [ 12.2357528, 11.7675051, 0.0 ], [ 12.2376238, 11.7603518, 0.0 ], [ 12.2296831, 11.7581791, 0.0 ], [ 12.2212698, 11.7560193, 0.0 ], [ 12.2195395, 11.7437375, 0.0 ], [ 12.216771, 11.7337422, 0.0 ], [ 12.216699657224273, 11.733172624956159, 0.0 ], [ 12.214242214604328, 11.732980007594191, 0.0 ], [ 12.204524400477162, 11.723288472492229, 0.0 ], [ 12.203813340906867, 11.718408881292142, 0.0 ], [ 12.19618665904957, 11.71075778537203, 0.0 ], [ 12.195833333311729, 11.708333333332101, 0.0 ], [ 12.188219875738307, 11.709110005695404, 0.0 ], [ 12.187499999978833, 11.720833333332129, 0.0 ] ] ] } },
{ "type": "Feature", "properties": { "Stra_Catch": "Hadejia_Jamaare", "State": "Yobe", "LGA": "Damaturu", "Population": 194089, "Cleard_TOR": "No yet cleared", "Status": "Not yet awared", "Start_Date": "2024-12-12T00:00:00", "End_Date": "2025-01-25T00:00:00", "Micr_Catch": "Damaturu", "Size_Ha": 55866.3131536, "Comments": null, "OBJECTID_1": 0, "Shape_Leng": 0.0, "Shape_Area": 0.0, "parent_strategic_name": "Ngada (West Chad)", "clipped_to_state": true }, "geometry": { "type": "Polygon", "coordinates": [ [ [ 12.014710489894906, 11.867233954534836, 0.0 ], [ 12.018622843410396, 11.870266045463659, 0.0 ], [ 12.020833333319171, 11.870833333332554, 0.0 ], [ 12.024630737290401, 11.869775899250538, 0.0 ], [ 12.032728237561381, 11.860506015352918, 0.0 ], [ 12.034527248791761, 11.854045952690178, 0.0 ], [ 12.041125996892685, 11.858938429089878, 0.0 ], [ 12.049228074800379, 11.857513427733529, 0.0 ], [ 12.050776163721739, 11.846623399521723, 0.0 ], [ 12.056160651297498, 11.842271762423188, 0.0 ], [ 12.062316555431384, 11.840557522243049, 0.0 ], [ 12.066061570893488, 11.83550601535288, 0.0 ], [ 12.06727176240819, 11.831160651312054, 0.0 ], [ 12.074466620535068, 11.822923956976103, 0.0 ], [ 12.07143842907467, 11.818839348686172, 0.0 ], [ 12.070833333317294, 11.816666666665792, 0.0 ], [ 12.066666666650784, 11.8166666666658, 0.0 ], [ 12.066666666650782, 11.812499999999142, 0.0 ], [ 12.065815734847419, 11.809184265135849, 0.0 ], [ 12.062499999984258, 11.808333333332467, 0.0 ], [ 12.059041849756515, 11.80744594997746, 0.0 ], [ 12.057766045448814, 11.79778951009029, 0.0 ], [ 12.046400621187036, 11.785543823241374, 0.0 ], [ 12.045266045449205, 11.774253336587751, 0.0 ], [ 12.04943271211571, 11.768877156574726, 0.0 ], [ 12.049999999984552, 11.749999999999178, 0.0 ], [ 12.050353325722385, 11.747575547959231, 0.0 ], [ 12.062146674246245, 11.735757785372398, 0.0 ], [ 12.062853325721903, 11.730908881292553, 0.0 ], [ 12.070480007579231, 11.723257785372354, 0.0 ], [ 12.071191067149494, 11.718378872340685, 0.0 ], [ 12.085075547943205, 11.704519992403618, 0.0 ], [ 12.089956834564127, 11.703808593749065, 0.0 ], [ 12.095480007578212, 11.698257785372355, 0.0 ], [ 12.09583333331603, 11.691666666665736, 0.0 ], [ 12.093408881276195, 11.691313340927898, 0.0 ], [ 12.087858072899644, 11.685790167913559, 0.0 ], [ 12.087146674245162, 11.680908881292471, 0.0 ], [ 12.067019992388239, 11.660757785372395, 0.0 ], [ 12.066313340912551, 11.655908881292554, 0.0 ], [ 12.060787116140608, 11.650354851615894, 0.0 ], [ 12.054166666650818, 11.649999999999151, 0.0 ], [ 12.043408881277951, 11.650353325737056, 0.0 ], [ 12.035757785358109, 11.657980007594688, 0.0 ], [ 12.014242214612318, 11.658686659070433, 0.0 ], [ 12.010757785358978, 11.662146674261386, 0.0 ], [ 12.008333333319118, 11.662499999999243, 0.0 ], [ 12.005908881279288, 11.662146674261413, 0.0 ], [ 11.998257785359371, 11.654519992403815, 0.0 ], [ 11.993408881279667, 11.653813340928128, 0.0 ], [ 11.985757785359759, 11.646186659070484, 0.0 ], [ 11.980908881280056, 11.645480007594797, 0.0 ], [ 11.9690911186936, 11.633686659070513, 0.0 ], [ 11.96666666665373, 11.633333333332686, 0.0 ], [ 11.96631334091588, 11.622575547959405, 0.0 ], [ 11.958686659058465, 11.614924452039316, 0.0 ], [ 11.958333333320635, 11.612499999999375, 0.0 ], [ 11.955024800579533, 11.612677358324117, 0.0 ], [ 11.954646803754892, 11.61386769554303, 0.0 ], [ 11.953773640831956, 11.613435245936509, 0.0 ], [ 11.952922118096959, 11.613731876424398, 0.0 ], [ 11.951988993254641, 11.613722639528293, 0.0 ], [ 11.951277369251462, 11.613744211300425, 0.0 ], [ 11.950744257700258, 11.614302467942437, 0.0 ], [ 11.950778153686089, 11.615380468121096, 0.0 ], [ 11.949212915689001, 11.615364902832763, 0.0 ], [ 11.948257785360866, 11.616313340928185, 0.0 ], [ 11.948150402379184, 11.61631686778524, 0.0 ], [ 11.948041416860322, 11.617022939076682, 0.0 ], [ 11.947509967029108, 11.617536188911508, 0.0 ], [ 11.946806267732237, 11.618618821459831, 0.0 ], [ 11.945922723851975, 11.618936139467483, 0.0 ], [ 11.945452681727675, 11.617120312989327, 0.0 ], [ 11.944734082252291, 11.616785755544329, 0.0 ], [ 11.944311152320585, 11.616442963056036, 0.0 ], [ 11.939480951319187, 11.616601604846482, 0.0 ], [ 11.939161798172666, 11.616909556242028, 0.0 ], [ 11.938332836436055, 11.616639313215273, 0.0 ], [ 11.937976606762495, 11.616651013124493, 0.0 ], [ 11.937431072071648, 11.616935304222537, 0.0 ], [ 11.936649237726671, 11.619982401529368, 0.0 ], [ 11.931122843412599, 11.621400621201667, 0.0 ], [ 11.928021255848446, 11.624391877963253, 0.0 ], [ 11.927335568810376, 11.627146932124946, 0.0 ], [ 11.926155303221172, 11.627537871751491, 0.0 ], [ 11.925614926170473, 11.627819634268993, 0.0 ], [ 11.924236993713718, 11.628099312104558, 0.0 ], [ 11.923201401943347, 11.629183959637954, 0.0 ], [ 11.92297446044169, 11.629259146925536, 0.0 ], [ 11.922339932141414, 11.629871103553993, 0.0 ], [ 11.922344653772804, 11.63001803630527, 0.0 ], [ 11.922338699398317, 11.630579115061064, 0.0 ], [ 11.921794416431792, 11.63110490119316, 0.0 ], [ 11.921284751854865, 11.632169919698081, 0.0 ], [ 11.920442748410494, 11.63328647126276, 0.0 ], [ 11.920176878130849, 11.633841983064478, 0.0 ], [ 11.919084723442891, 11.63383109208023, 0.0 ], [ 11.918808730698233, 11.634137157642282, 0.0 ], [ 11.919363884862999, 11.634652324885732, 0.0 ], [ 11.919679588121245, 11.63557930516024, 0.0 ], [ 11.919658234689139, 11.637648940930314, 0.0 ], [ 11.918449949625597, 11.638241795770137, 0.0 ], [ 11.917294901309337, 11.637865023706075, 0.0 ], [ 11.916105139465261, 11.638484409414691, 0.0 ], [ 11.915002002560984, 11.638761273054001, 0.0 ], [ 11.91474955915198, 11.640400582965377, 0.0 ], [ 11.913372785226043, 11.640387000424525, 0.0 ], [ 11.912271395444691, 11.64042037673476, 0.0 ], [ 11.911845444054952, 11.639992277887689, 0.0 ], [ 11.906377156564368, 11.645266045463869, 0.0 ], [ 11.90316521029259, 11.645551768126332, 0.0 ], [ 11.902975746307067, 11.646564375039254, 0.0 ], [ 11.901889627287714, 11.646210136272536, 0.0 ], [ 11.901604074201703, 11.64621883914884, 0.0 ], [ 11.901621479783103, 11.646757725735727, 0.0 ], [ 11.901617221601111, 11.647175099068765, 0.0 ], [ 11.900660989801091, 11.647644150721337, 0.0 ], [ 11.899991921046626, 11.64867371403159, 0.0 ], [ 11.899702727602874, 11.648952909187292, 0.0 ], [ 11.898723263976457, 11.648943198900296, 0.0 ], [ 11.897512327974827, 11.64815143547769, 0.0 ], [ 11.896878210214238, 11.647892128101889, 0.0 ], [ 11.896429712451813, 11.649793559474571, 0.0 ], [ 11.896151141786959, 11.65006205942994, 0.0 ], [ 11.895885564933524, 11.650341014985967, 0.0 ], [ 11.895579354884539, 11.65063678605885, 0.0 ], [ 11.894235800694332, 11.650623317737445, 0.0 ], [ 11.893418837479345, 11.650647946022218, 0.0 ], [ 11.893136683444014, 11.650363388715267, 0.0 ], [ 11.892836501478406, 11.650100713103068, 0.0 ], [ 11.891914375758933, 11.651066651676599, 0.0 ], [ 11.89066122549875, 11.65065768330695, 0.0 ], [ 11.89039351014612, 11.650938243728699, 0.0 ], [ 11.89011493136632, 11.651206739460433, 0.0 ], [ 11.889816409875317, 11.651519895757204, 0.0 ], [ 11.88910052295555, 11.653011708217923, 0.0 ], [ 11.88789009793129, 11.653412358083241, 0.0 ], [ 11.88711681853761, 11.653404774295563, 0.0 ], [ 11.88654783276492, 11.653421867008811, 0.0 ], [ 11.885486490193019, 11.655052639798992, 0.0 ], [ 11.883049556965934, 11.655027866755576, 0.0 ], [ 11.882741459513921, 11.655350905275968, 0.0 ], [ 11.881363304511112, 11.655630419679325, 0.0 ], [ 11.88075560070572, 11.656267412078979, 0.0 ], [ 11.881111629954827, 11.657259153521723, 0.0 ], [ 11.881108378685759, 11.657568550453339, 0.0 ], [ 11.878995771211599, 11.657547112380298, 0.0 ], [ 11.878613733649589, 11.65642780581587, 0.0 ], [ 11.87791075442877, 11.655114817486044, 0.0 ], [ 11.876097489917592, 11.655169484847976, 0.0 ], [ 11.875596002853637, 11.655693727423564, 0.0 ], [ 11.874787263004364, 11.655685408639771, 0.0 ], [ 11.874202963852735, 11.655989501281685, 0.0 ], [ 11.873461765063942, 11.65753580168003, 0.0 ], [ 11.872023153408492, 11.657891832183042, 0.0 ], [ 11.871232085215137, 11.657096283343886, 0.0 ], [ 11.870653695022394, 11.656826833197117, 0.0 ], [ 11.870376833943427, 11.656011324252102, 0.0 ], [ 11.869540195442726, 11.655482983243418, 0.0 ], [ 11.869266122979489, 11.654938438033728, 0.0 ], [ 11.868982058350886, 11.654675572645012, 0.0 ], [ 11.868818474157413, 11.654350782137881, 0.0 ], [ 11.866295859106812, 11.654464113188119, 0.0 ], [ 11.866185006364869, 11.654932652835932, 0.0 ], [ 11.864589262975088, 11.655256072670092, 0.0 ], [ 11.864315887717158, 11.655825927316386, 0.0 ], [ 11.863759749858859, 11.656364460992156, 0.0 ], [ 11.862852190045832, 11.656355240634625, 0.0 ], [ 11.862314068224984, 11.65477485365359, 0.0 ], [ 11.861733305764062, 11.654669090543653, 0.0 ], [ 11.86028951008119, 11.6547339545351, 0.0 ], [ 11.850919596344465, 11.663082885741703, 0.0 ], [ 11.849112616635313, 11.670124816894074, 0.0 ], [ 11.842597077673366, 11.670985646845082, 0.0 ], [ 11.841929965169891, 11.672293529700234, 0.0 ], [ 11.841122231835412, 11.672285381069765, 0.0 ], [ 11.840305164288939, 11.672309874088887, 0.0 ], [ 11.839748163937802, 11.672033533521596, 0.0 ], [ 11.839027579665846, 11.671810888329532, 0.0 ], [ 11.817557440854818, 11.692362806531724, 0.0 ], [ 11.815815904396544, 11.699149068196176, 0.0 ], [ 11.811490418337192, 11.700259102890247, 0.0 ], [ 11.811700773343002, 11.700392036938048, 0.0 ], [ 11.81198733853587, 11.702388418769388, 0.0 ], [ 11.811454507913952, 11.701851638723106, 0.0 ], [ 11.810303576873153, 11.701587165076528, 0.0 ], [ 11.809386536432395, 11.701614687654477, 0.0 ], [ 11.809117200820399, 11.701611866296842, 0.0 ], [ 11.807597651024386, 11.702965851110495, 0.0 ], [ 11.807751853889311, 11.703120987884297, 0.0 ], [ 11.80734016427775, 11.703518035713737, 0.0 ], [ 11.806877795097895, 11.704002387878063, 0.0 ], [ 11.806303952743965, 11.704118592422255, 0.0 ], [ 11.802210489900313, 11.707766045464004, 0.0 ], [ 11.797789510082705, 11.708900621201844, 0.0 ], [ 11.785428195521344, 11.720373535155863, 0.0 ], [ 11.781377156567423, 11.717233954535223, 0.0 ], [ 11.770833333325459, 11.716666666666329, 0.0 ], [ 11.771400621194372, 11.718877156575148, 0.0 ], [ 11.774432712123135, 11.722789510090795, 0.0 ], [ 11.775887383347076, 11.728458150227501, 0.0 ], [ 11.785543823234024, 11.729733954535224, 0.0 ], [ 11.797789510082747, 11.741099378797346, 0.0 ], [ 11.804431152335203, 11.742803785535617, 0.0 ], [ 11.800458780916031, 11.747929382323848, 0.0 ], [ 11.816099378788975, 11.764456176757401, 0.0 ], [ 11.817634412968637, 11.770437452527798, 0.0 ], [ 11.822789510082236, 11.774432712130661, 0.0 ], [ 11.833333333324202, 11.774999999999558, 0.0 ], [ 11.849086507151959, 11.774392530652747, 0.0 ], [ 11.850850762251726, 11.767517598469604, 0.0 ], [ 11.854166666657033, 11.766666666666218, 0.0 ], [ 11.855017428918305, 11.769982401529463, 0.0 ], [ 11.858333333323602, 11.770833333332847, 0.0 ], [ 11.858333333323591, 11.774999999999539, 0.0 ], [ 11.860757785363475, 11.775353325737346, 0.0 ], [ 11.868408881283443, 11.782980007594976, 0.0 ], [ 11.870833333323295, 11.783333333332845, 0.0 ], [ 11.87826707627017, 11.783994547525507, 0.0 ], [ 11.879733954525351, 11.789710489908357, 0.0 ], [ 11.891099378787228, 11.80195617675728, 0.0 ], [ 11.892517598459515, 11.807482401529407, 0.0 ], [ 11.898043823231522, 11.808900621201708, 0.0 ], [ 11.901956176747039, 11.81193271213054, 0.0 ], [ 11.907482401519042, 11.813350931802839, 0.0 ], [ 11.908900621191318, 11.81887715657496, 0.0 ], [ 11.916099378786623, 11.826956176757234, 0.0 ], [ 11.917233954524454, 11.831377156574945, 0.0 ], [ 11.921752760134151, 11.836795722113115, 0.0 ], [ 11.931377156563999, 11.838067287868334, 0.0 ], [ 11.935289510079528, 11.841099378797168, 0.0 ], [ 11.939710489897108, 11.842233954534981, 0.0 ], [ 11.949080234091749, 11.850582885741529, 0.0 ], [ 11.949999999987975, 11.854166666666059, 0.0 ], [ 11.952210489896789, 11.85359937879713, 0.0 ], [ 11.957586669909627, 11.849432712130442, 0.0 ], [ 11.96054382322987, 11.850567287868284, 0.0 ], [ 11.964456176745379, 11.853599378797092, 0.0 ], [ 11.969982401517349, 11.855017598469367, 0.0 ], [ 11.971801079631465, 11.862104119194214, 0.0 ], [ 11.976956176745022, 11.866099378797061, 0.0 ], [ 11.981377156562605, 11.86723395453491, 0.0 ], [ 11.99072943792085, 11.87556728786822, 0.0 ], [ 11.998043823228768, 11.874432712130389, 0.0 ], [ 12.001956176744272, 11.871400621201529, 0.0 ], [ 12.006377156561836, 11.870266045463678, 0.0 ], [ 12.011753336574674, 11.866099378797008, 0.0 ], [ 12.014710489894906, 11.867233954534836, 0.0 ] ] ] } },
{ "type": "Feature", "properties": { "Stra_Catch": "Nggada West Chad", "State": "Borno", "LGA": "Kaga", "Population": 0, "Cleard_TOR": "Yes", "Status": "Yet to be awarded", "Start_Date": "2024-01-01T00:00:00", "End_Date": "2025-06-06T00:00:00", "Micr_Catch": "Ngamdu", "Size_Ha": 38529.114010899997, "Comments": null, "OBJECTID_1": 0, "Shape_Leng": 0.0, "Shape_Area": 0.0, "parent_strategic_name": "Ngada (West Chad)", "clipped_to_state": true }, "geometry": { "type": "Polygon", "coordinates": [ [ [ 12.204524400158972, 11.723288472383858, 0.0 ], [ 12.203813341290726, 11.718408881363546, 0.0 ], [ 12.196186658665765, 11.7107577848427, 0.0 ], [ 12.195833333020325, 11.708333333115595, 0.0 ], [ 12.188219875825384, 11.709110005621095, 0.0 ], [ 12.187500000003824, 11.720833333090654, 0.0 ], [ 12.186932712153824, 11.731377156529351, 0.0 ], [ 12.175567287879533, 11.743622843518256, 0.0 ], [ 12.174291483544714, 11.75327928341107, 0.0 ], [ 12.170833333071565, 11.75416666605765, 0.0 ], [ 12.170266045221565, 11.764710489496345, 0.0 ], [ 12.167135450320721, 11.768749999511742, 0.0 ], [ 12.17026604522159, 11.772789509527122, 0.0 ], [ 12.171400620921673, 11.777210489471374, 0.0 ], [ 12.178599379137507, 11.785289509502071, 0.0 ], [ 12.179733954837605, 11.793877156404486, 0.0 ], [ 12.182766045196137, 11.797789509477093, 0.0 ], [ 12.183900620896232, 11.806377156379506, 0.0 ], [ 12.186932712154086, 11.810289509452119, 0.0 ], [ 12.188350931329531, 11.815815734607277, 0.0 ], [ 12.193877156484444, 11.81723395468207, 0.0 ], [ 12.206122843472782, 11.828599378956941, 0.0 ], [ 12.2121041192877, 11.830134412871573, 0.0 ], [ 12.21609937906096, 11.835289510301354, 0.0 ], [ 12.217586432345811, 11.841083781090356, 0.0 ], [ 12.226956176463757, 11.849432711948786, 0.0 ], [ 12.233333332944037, 11.849999999798822, 0.0 ], [ 12.237499999901926, 11.849999999798809, 0.0 ], [ 12.237499999901942, 11.854166666756905, 0.0 ], [ 12.236932712051949, 11.864710489296284, 0.0 ], [ 12.224354213853518, 11.87826317630322, 0.0 ], [ 12.21751759823654, 11.880017598032419, 0.0 ], [ 12.216099379061136, 11.885543823187586, 0.0 ], [ 12.213067287803318, 11.889456176260218, 0.0 ], [ 12.211932712103264, 11.893877156204537, 0.0 ], [ 12.192233954812407, 11.914456176210352, 0.0 ], [ 12.191666666962437, 11.916666666632173, 0.0 ], [ 12.192024739229632, 11.919123501147443, 0.0 ], [ 12.197575548252019, 11.924646674003583, 0.0 ], [ 12.202424451705902, 11.925353325294465, 0.0 ], [ 12.2100755482265, 11.932980007020422, 0.0 ], [ 12.223257785596228, 11.933686659210649, 0.0 ], [ 12.22674221425947, 11.937146673978518, 0.0 ], [ 12.231591118612718, 11.937853325269399, 0.0 ], [ 12.235075548175333, 11.94131334093659, 0.0 ], [ 12.244091118587145, 11.942019992227452, 0.0 ], [ 12.24757554814976, 11.945480006995322, 0.0 ], [ 12.252424451603618, 11.94618665918558, 0.0 ], [ 12.255908881166228, 11.94964667395339, 0.0 ], [ 12.264924451578025, 11.950353325244313, 0.0 ], [ 12.267496640748229, 11.952907492194161, 0.0 ], [ 12.2629237, 11.935942, 0.0 ], [ 12.2576864, 11.8974861, 0.0 ], [ 12.2561227, 11.8856006, 0.0 ], [ 12.2591836, 11.872047, 0.0 ], [ 12.2614732, 11.8606125, 0.0 ], [ 12.2679302, 11.8466784, 0.0 ], [ 12.2681474, 11.845576, 0.0 ], [ 12.2682681, 11.8448939, 0.0 ], [ 12.2683327, 11.8444464, 0.0 ], [ 12.2693327, 11.8368464, 0.0 ], [ 12.2693648, 11.8365881, 0.0 ], [ 12.2697866, 11.8329793, 0.0 ], [ 12.2702648, 11.8288881, 0.0 ], [ 12.2703044, 11.8285126, 0.0 ], [ 12.2703151, 11.8283907, 0.0 ], [ 12.2703363, 11.8281352, 0.0 ], [ 12.2703461, 11.827992, 0.0 ], [ 12.2703604, 11.8277551, 0.0 ], [ 12.2703677, 11.8276069, 0.0 ], [ 12.2703725, 11.8275082, 0.0 ], [ 12.2703766, 11.8273698, 0.0 ], [ 12.2703801, 11.8272776, 0.0 ], [ 12.2703809, 11.8272263, 0.0 ], [ 12.2703848, 11.82697, 0.0 ], [ 12.2703863, 11.8268738, 0.0 ], [ 12.2703861, 11.8268476, 0.0 ], [ 12.2703834, 11.82647, 0.0 ], [ 12.2608471, 11.8205404, 0.0 ], [ 12.2569653, 11.8183672, 0.0 ], [ 12.2528883, 11.817239, 0.0 ], [ 12.2476383, 11.8127497, 0.0 ], [ 12.2443017, 11.8093451, 0.0 ], [ 12.242889, 11.8019134, 0.0 ], [ 12.2393668, 11.7894869, 0.0 ], [ 12.2357528, 11.7675051, 0.0 ], [ 12.2376238, 11.7603518, 0.0 ], [ 12.2296831, 11.7581791, 0.0 ], [ 12.2212698, 11.7560193, 0.0 ], [ 12.2195395, 11.7437375, 0.0 ], [ 12.216771, 11.7337422, 0.0 ], [ 12.21669965719753, 11.733172624742657, 0.0 ], [ 12.214242214284381, 11.732980007420151, 0.0 ], [ 12.204524400158972, 11.723288472383858, 0.0 ] ] ] } },
{ "type": "Feature", "properties": { "Stra_Catch": "Katagum K-gana", "State": "Borno", "LGA": "Mobbar", "Population": 0, "Cleard_TOR": "Yes", "Status": "Studies Ongoing", "Start_Date": "2025-03-01T00:00:00", "End_Date": "2025-12-01T00:00:00", "Micr_Catch": "Damasak", "Size_Ha": 37108.454580400001, "Comments": null, "OBJECTID_1": 0, "Shape_Leng": 0.0, "Shape_Area": 0.0, "parent_strategic_name": "Ngada (West Chad)", "clipped_to_state": true }, "geometry": { "type": "MultiPolygon", "coordinates": [ [ [ [ 12.413642953388857, 12.974769331940635, 0.0 ], [ 12.41364295374523, 12.974769332219207, 0.0 ], [ 12.413575361516806, 12.974246730847835, 0.0 ], [ 12.413575361186465, 12.974246730799756, 0.0 ], [ 12.413642953388857, 12.974769331940635, 0.0 ] ] ], [ [ [ 12.414604877326154, 12.982206615976068, 0.0 ], [ 12.414322405873671, 12.980022637553057, 0.0 ], [ 12.414322405622643, 12.98002263779531, 0.0 ], [ 12.414604877054447, 12.982206615936356, 0.0 ], [ 12.414604877326154, 12.982206615976068, 0.0 ] ] ] ] } }
]
}
