{
"type": "FeatureCollection",
"name": "Fct_interventions",
"crs": { "type": "name", "properties": { "name": "urn:ogc:def:crs:OGC:1.3:CRS84" } },
"features": [
{ "type": "Feature", "properties": { "OBJECTID": 174, "ActivityID": "FCT001", "Stra_Catch": "Okwa-Mada", "Micr_Catch": "Kuje_buga", "State": "FCT", "LGA": "Kuje", "Site_Name": "Kujekwa", "Interv_Typ": "Afforestation (Tree Planting)", "Component": "A - Dryland Management", "Comments": "Completed", "Implemnter": "FCT-ACReSAL", "Start_Date": "2024-08-20T00:00:00", "End_Date": "2024/10/21", "No_Trees_P": 0, "Sub_compon": "A2-1", "Lon": 7.3730618454299997, "Lat": 8.5861786542500003, "Female_pop": 1920, "Buffer_Mtr": 0, "Area_Impac": 104.128670724, "Male_pop": 1080, "Area_Intev": 0.0, "Netsize_Ha": 104.128670724, "Indicator": "Area under improved catchment management", "Benefi_pop": 3000.0, "Perct_NDVI": 0.0, "parent_micro_name": "Kuje Buga" }, "geometry": { "type": "Polygon", "coordinates": [ [ [ 7.366458999866267, 8.587882999709462, 0.0 ], [ 7.370553000033955, 8.590686000335841, 0.0 ], [ 7.375170999716001, 8.589864000447664, 0.0 ], [ 7.37996299979342, 8.586818999800714, 0.0 ], [ 7.379524000056557, 8.583190999898381, 0.0 ], [ 7.369762000208391, 8.582246000055159, 0.0 ], [ 7.366473000103871, 8.584493000223491, 0.0 ], [ 7.366458999866267, 8.587882999709462, 0.0 ] ] ] } },
{ "type": "Feature", "properties": { "OBJECTID": 179, "ActivityID": "FCT006", "Stra_Catch": "Okwa-Mada", "Micr_Catch": "Zuba_Gwagwalada", "State": "FCT", "LGA": "Gwa", "Site_Name": "Gwa_Abaji", "Interv_Typ": "Afforestation (Urban Greening)", "Component": "A - Dryland Management", "Comments": "Ongoing", "Implemnter": "FCT-ACReSAL", "Start_Date": "2024-08-05T00:00:00", "End_Date": "2024/11/11", "No_Trees_P": 0, "Sub_compon": "A2-1", "Lon": 6.9197700515799996, "Lat": 8.5684227903700005, "Female_pop": 12369, "Buffer_Mtr": 500, "Area_Impac": 1912.4935431399999, "Male_pop": 15115, "Area_Intev": 0.0, "Netsize_Ha": 1912.4935431399999, "Indicator": "Area under improved catchment management", "Benefi_pop": 27484.0, "Perct_NDVI": 0.0, "parent_micro_name": "Kwali Abaji" }, "geometry": { "type": "Polygon", "coordinates": [ [ [ 6.912374000036591, 8.653481999864576, 0.0 ], [ 6.921300999929088, 8.651813999973374, 0.0 ], [ 6.910762000140169, 8.595964999770995, 0.0 ], [ 6.910917999591547, 8.592223000315922, 0.0 ], [ 6.941557000106464, 8.486335000190309, 0.0 ], [ 6.932832000206446, 8.483831999931668, 0.0 ], [ 6.901892999702576, 8.590752000089692, 0.0 ], [ 6.901643000140713, 8.596617000270568, 0.0 ], [ 6.912374000036591, 8.653481999864576, 0.0 ] ] ] } },
{ "type": "Feature", "properties": { "OBJECTID": 177, "ActivityID": "FCT004", "Stra_Catch": "Okwa-Mada", "Micr_Catch": "Zuba_Gwagwalada", "State": "FCT", "LGA": "Gwa", "Site_Name": "Gwa_Abaji", "Interv_Typ": "Afforestation (Urban Greening)", "Component": "A - Dryland Management", "Comments": "Ongoing", "Implemnter": "FCT-ACReSAL", "Start_Date": "2024-08-05T00:00:00", "End_Date": "2024/11/11", "No_Trees_P": 0, "Sub_compon": "A2-1", "Lon": 7.0833207428499998, "Lat": 8.9071427589900001, "Female_pop": 20020, "Buffer_Mtr": 500, "Area_Impac": 11.389761650800001, "Male_pop": 10103, "Area_Intev": 0.0, "Netsize_Ha": 11.389761650800001, "Indicator": "Area under improved catchment management", "Benefi_pop": 30123.0, "Perct_NDVI": 0.0, "parent_micro_name": "Gwagwalada" }, "geometry": { "type": "Polygon", "coordinates": [ [ [ 7.083607999987764, 8.909405000150661, 0.0 ], [ 7.085490999628116, 8.907946999601709, 0.0 ], [ 7.083027000347182, 8.90487600017021, 0.0 ], [ 7.081151999859006, 8.906345000392223, 0.0 ], [ 7.083607999987764, 8.909405000150661, 0.0 ] ] ] } },
{ "type": "Feature", "properties": { "OBJECTID": 178, "ActivityID": "FCT005", "Stra_Catch": "Okwa-Mada", "Micr_Catch": "Zuba_Gwagwalada", "State": "FCT", "LGA": "Gwa", "Site_Name": "Gwa_Abaji", "Interv_Typ": "Afforestation (Urban Greening)", "Component": "A - Dryland Management", "Comments": "Ongoing", "Implemnter": "FCT-ACReSAL", "Start_Date": "2024-08-05T00:00:00", "End_Date": "2024/11/11", "No_Trees_P": 0, "Sub_compon": "A2-1", "Lon": 7.0810904269900004, "Lat": 8.9088772960099991, "Female_pop": 12131, "Buffer_Mtr": 500, "Area_Impac": 11.240103554399999, "Male_pop": 16100, "Area_Intev": 0.0, "Netsize_Ha": 11.240103554399999, "Indicator": "Area under improved catchment management", "Benefi_pop": 28231.0, "Perct_NDVI": 0.0, "parent_micro_name": "Gwagwalada" }, "geometry": { "type": "Polygon", "coordinates": [ [ [ 7.081339999949031, 8.911112000207218, 0.0 ], [ 7.083251999588163, 8.909685999767827, 0.0 ], [ 7.080795999957459, 8.906626999583677, 0.0 ], [ 7.078938000435446, 8.908079999868278, 0.0 ], [ 7.081339999949031, 8.911112000207218, 0.0 ] ] ] } },
{ "type": "Feature", "properties": { "OBJECTID": 175, "ActivityID": "FCT002", "Stra_Catch": "Okwa-Mada", "Micr_Catch": "Gwagwa", "State": "FCT", "LGA": "AMAC", "Site_Name": "Gwagwa", "Interv_Typ": "Afforestation (Tree Planting)", "Component": "A - Dryland Management", "Comments": "Completed", "Implemnter": "FCT-ACReSAL", "Start_Date": "2024-08-20T00:00:00", "End_Date": "2024/10/21", "No_Trees_P": 0, "Sub_compon": "A2-1", "Lon": 7.3058613525, "Lat": 9.0896669659300002, "Female_pop": 3, "Buffer_Mtr": 0, "Area_Impac": 3.9244395012300002, "Male_pop": 17, "Area_Intev": 0.0, "Netsize_Ha": 3.9244395012300002, "Indicator": "Area under improved catchment management", "Benefi_pop": 20.0, "Perct_NDVI": 0.0, "parent_micro_name": "Gwagwa Zuba" }, "geometry": { "type": "Polygon", "coordinates": [ [ [ 7.305547263955394, 9.090832899671208, 0.0 ], [ 7.306857484074914, 9.090726024361587, 0.0 ], [ 7.306546710668612, 9.08968806266792, 0.0 ], [ 7.306395317690471, 9.088910978053132, 0.0 ], [ 7.306219756240163, 9.088203687433074, 0.0 ], [ 7.305849224940688, 9.088302938991664, 0.0 ], [ 7.305720151275588, 9.08841880555951, 0.0 ], [ 7.305546468649412, 9.08857993339708, 0.0 ], [ 7.305180162827965, 9.088986802904399, 0.0 ], [ 7.304836699282993, 9.089959090965602, 0.0 ], [ 7.305215528465292, 9.090097930347875, 0.0 ], [ 7.305547263955394, 9.090832899671208, 0.0 ] ] ] } },
{ "type": "Feature", "properties": { "OBJECTID": 174, "ActivityID": "FCT001", "Stra_Catch": "Okwa-Mada", "Micr_Catch": "Kuje_buga", "State": "FCT", "LGA": "Kuje", "Site_Name": "Kujekwa", "Interv_Typ": "Afforestation (Tree Planting)", "Component": "A - Dryland Management", "Comments": "Completed", "Implemnter": "FCT-ACReSAL", "Start_Date": "2024-08-20T00:00:00", "End_Date": "2024/10/21", "No_Trees_P": 0, "Sub_compon": "A2-1", "Lon": 7.3730618454299997, "Lat": 8.5861786542500003, "Female_pop": 1920, "Buffer_Mtr": 0, "Area_Impac": 104.128670724, "Male_pop": 1080, "Area_Intev": 0.0, "Netsize_Ha": 104.128670724, "Indicator": "Area under improved catchment management", "Benefi_pop": 3000.0, "Perct_NDVI": 0.0, "parent_micro_name": "Kuje Buga" }, "geometry": { "type": "Polygon", "coordinates": [ [ [ 7.366458999866267, 8.587882999709462, 0.0 ], [ 7.370553000033955, 8.590686000335841, 0.0 ], [ 7.375170999716001, 8.589864000447664, 0.0 ], [ 7.37996299979342, 8.586818999800714, 0.0 ], [ 7.379524000056557, 8.583190999898381, 0.0 ], [ 7.369762000208391, 8.582246000055159, 0.0 ], [ 7.366473000103871, 8.584493000223491, 0.0 ], [ 7.366458999866267, 8.587882999709462, 0.0 ] ] ] } },
{ "type": "Feature", "properties": { "OBJECTID": 176, "ActivityID": "FCT003", "Stra_Catch": "Okwa-Mada", "Micr_Catch": "Kuje_buga", "State": "FCT", "LGA": "Kuje", "Site_Name": "Buga", "Interv_Typ": "Afforestation (Tree Planting)", "Component": "A - Dryland Management", "Comments": "Completed", "Implemnter": "FCT-ACReSAL", "Start_Date": "2024-08-20T00:00:00", "End_Date": "2024/10/21", "No_Trees_P": 0, "Sub_compon": "A2-1", "Lon": 7.3147189933699996, "Lat": 8.4870372797999991, "Female_pop": 6430, "Buffer_Mtr": 0, "Area_Impac": 92.617187550200001, "Male_pop": 5620, "Area_Intev": 0.0, "Netsize_Ha": 92.617187550200001, "Indicator": "Area under improved catchment management", "Benefi_pop": 12050.0, "Perct_NDVI": 0.0, "parent_micro_name": "Kuje Buga" }, "geometry": { "type": "Polygon", "coordinates": [ [ [ 7.30960699967485, 8.491047999823511, 0.0 ], [ 7.316457000282533, 8.491565999749792, 0.0 ], [ 7.319401000037844, 8.48953500043325, 0.0 ], [ 7.319885000435367, 8.486460999943466, 0.0 ], [ 7.318325999931768, 8.483076999548517, 0.0 ], [ 7.311249000099615, 8.48205100032534, 0.0 ], [ 7.30960699967485, 8.491047999823511, 0.0 ] ] ] } },
{ "type": "Feature", "properties": { "OBJECTID": 176, "ActivityID": "FCT003", "Stra_Catch": "Okwa-Mada", "Micr_Catch": "Kuje_buga", "State": "FCT", "LGA": "Kuje", "Site_Name": "Buga", "Interv_Typ": "Afforestation (Tree Planting)", "Component": "A - Dryland Management", "Comments": "Completed", "Implemnter": "FCT-ACReSAL", "Start_Date": "2024-08-20T00:00:00", "End_Date": "2024/10/21", "No_Trees_P": 0, "Sub_compon": "A2-1", "Lon": 7.3147189933699996, "Lat": 8.4870372797999991, "Female_pop": 6430, "Buffer_Mtr": 0, "Area_Impac": 92.617187550200001, "Male_pop": 5620, "Area_Intev": 0.0, "Netsize_Ha": 92.617187550200001, "Indicator": "Area under improved catchment management", "Benefi_pop": 12050.0, "Perct_NDVI": 0.0, "parent_micro_name": "Kumeya" }, "geometry": { "type": "Polygon", "coordinates": [ [ [ 7.30960699967485, 8.491047999823511, 0.0 ], [ 7.316457000282533, 8.491565999749792, 0.0 ], [ 7.319401000037844, 8.48953500043325, 0.0 ], [ 7.319885000435367, 8.486460999943466, 0.0 ], [ 7.318325999931768, 8.483076999548517, 0.0 ], [ 7.311249000099615, 8.48205100032534, 0.0 ], [ 7.30960699967485, 8.491047999823511, 0.0 ] ] ] } }
]
}
