{
"type": "FeatureCollection",
"name": "Fct_micro_catchments",
"crs": { "type": "name", "properties": { "name": "urn:ogc:def:crs:OGC:1.3:CRS84" } },
"features": [
{ "type": "Feature", "properties": { "Stra_Catch": "Okwa-Mada", "State": "FCT", "LGA": "Kuje", "Population": 0, "Cleard_TOR": "Not Cleared", "Status": "Proposed", "Start_Date": "2025-03-03T00:00:00", "End_Date": "1899-12-30T00:00:00", "Micr_Catch": "Kuje Buga", "Size_Ha": 13700.821824799999, "Comments": null, "OBJECTID_1": 0, "Shape_Leng": 0.0, "Shape_Area": 0.0, "parent_strategic_name": "Gurara-Gbako (Abuja)", "clipped_to_state": true }, "geometry": { "type": "MultiPolygon", "coordinates": [ [ [ [ 7.3008873833555, 8.557624986436625, 0.0 ], [ 7.305417034135707, 8.558223307048689, 0.0 ], [ 7.305297671121876, 8.557702559120582, 0.0 ], [ 7.30422109382346, 8.557312693860679, 0.0 ], [ 7.301853686072033, 8.557442695399558, 0.0 ], [ 7.300917813945868, 8.557009997957676, 0.0 ], [ 7.300584899768086, 8.554070409304909, 0.0 ], [ 7.300066207239357, 8.552931603029259, 0.0 ], [ 7.300000000000437, 8.554166666666694, 0.0 ], [ 7.3008873833555, 8.557624986436625, 0.0 ] ] ], [ [ [ 7.313350762261649, 8.565815904405405, 0.0 ], [ 7.319982571072459, 8.567517428927927, 0.0 ], [ 7.320349588000662, 8.568947759366921, 0.0 ], [ 7.320468318322315, 8.568780200695416, 0.0 ], [ 7.320217506721435, 8.567231626538019, 0.0 ], [ 7.319933603710809, 8.566431485343575, 0.0 ], [ 7.319679638457614, 8.565601807181297, 0.0 ], [ 7.319154851758477, 8.564630029382341, 0.0 ], [ 7.318860492146193, 8.563666671493202, 0.0 ], [ 7.317960781378736, 8.563716264401924, 0.0 ], [ 7.315978681923809, 8.562632712230627, 0.0 ], [ 7.314888550530809, 8.562292612035867, 0.0 ], [ 7.314207103273853, 8.560640442995602, 0.0 ], [ 7.314307099722908, 8.55908280378188, 0.0 ], [ 7.313517186638234, 8.558374225464304, 0.0 ], [ 7.313119797544125, 8.556638531755491, 0.0 ], [ 7.312631496481632, 8.557177303888787, 0.0 ], [ 7.312070467539698, 8.557431267888967, 0.0 ], [ 7.311539113129906, 8.5577150275431, 0.0 ], [ 7.310928488179373, 8.557991023312384, 0.0 ], [ 7.310445530989403, 8.558523987820694, 0.0 ], [ 7.309612000058128, 8.558776756768685, 0.0 ], [ 7.309611462744102, 8.558777348235086, 0.0 ], [ 7.311612616645416, 8.559041680230015, 0.0 ], [ 7.313350762261649, 8.565815904405405, 0.0 ] ] ], [ [ [ 7.321448135454821, 8.573100796187846, 0.0 ], [ 7.321284920989408, 8.572389956853254, 0.0 ], [ 7.321228297026299, 8.572372245187083, 0.0 ], [ 7.321400621202666, 8.573043823242184, 0.0 ], [ 7.321448135454821, 8.573100796187846, 0.0 ] ] ], [ [ [ 7.322895185399617, 8.574653285646626, 0.0 ], [ 7.32251007118001, 8.574112826101379, 0.0 ], [ 7.322042993411362, 8.573814072910045, 0.0 ], [ 7.322834539023598, 8.574763192029252, 0.0 ], [ 7.322895185399617, 8.574653285646626, 0.0 ] ] ], [ [ [ 7.328916255900972, 8.578687425575781, 0.0 ], [ 7.328811631564604, 8.578345030922176, 0.0 ], [ 7.327785173202003, 8.578401508238018, 0.0 ], [ 7.326726897631076, 8.577823168183864, 0.0 ], [ 7.325063714260436, 8.57730365426786, 0.0 ], [ 7.32486094109633, 8.577192991298809, 0.0 ], [ 7.325997924805086, 8.578556315104192, 0.0 ], [ 7.328916255900972, 8.578687425575781, 0.0 ] ] ], [ [ [ 7.350403163076009, 8.57957805412412, 0.0 ], [ 7.350139501663631, 8.578757876478385, 0.0 ], [ 7.348985039441863, 8.578379438515428, 0.0 ], [ 7.348500755098809, 8.577374481818023, 0.0 ], [ 7.347962212938402, 8.576855105559245, 0.0 ], [ 7.347573417739998, 8.576048166660348, 0.0 ], [ 7.345672886793458, 8.576001879176941, 0.0 ], [ 7.344149348294663, 8.576290964895856, 0.0 ], [ 7.343866355809223, 8.576865097469524, 0.0 ], [ 7.341969553269666, 8.576818277215073, 0.0 ], [ 7.340879391557168, 8.576835842086027, 0.0 ], [ 7.338722873181768, 8.576782592598844, 0.0 ], [ 7.338170037962541, 8.577350788043134, 0.0 ], [ 7.337062984725097, 8.577703092301158, 0.0 ], [ 7.337369786618461, 8.578877354302845, 0.0 ], [ 7.337487558939067, 8.579072504426172, 0.0 ], [ 7.351162402861999, 8.579686867627858, 0.0 ], [ 7.350403163076009, 8.57957805412412, 0.0 ] ] ], [ [ [ 7.36306728786924, 8.5938771565755, 0.0 ], [ 7.366099378798057, 8.597789510091143, 0.0 ], [ 7.367554050022066, 8.603458319769972, 0.0 ], [ 7.378279283311986, 8.604875013563358, 0.0 ], [ 7.380054050022022, 8.611791653103316, 0.0 ], [ 7.389710489909185, 8.613067287868956, 0.0 ], [ 7.393622843424827, 8.616099378797779, 0.0 ], [ 7.395288069350319, 8.616247503362667, 0.0 ], [ 7.395221788656074, 8.61611013033024, 0.0 ], [ 7.393860554245358, 8.614482205904999, 0.0 ], [ 7.393597928456376, 8.613390786626097, 0.0 ], [ 7.393048629330369, 8.613122532965162, 0.0 ], [ 7.392782570611568, 8.612844866210894, 0.0 ], [ 7.392505821774504, 8.612577751678293, 0.0 ], [ 7.392239763828789, 8.612300084683005, 0.0 ], [ 7.391690467452177, 8.612031829529656, 0.0 ], [ 7.391151862467487, 8.611753021431081, 0.0 ], [ 7.390057472415466, 8.611482482292736, 0.0 ], [ 7.388375227760649, 8.610119157158495, 0.0 ], [ 7.387881708483793, 8.610383044453856, 0.0 ], [ 7.387546480207215, 8.610727595315021, 0.0 ], [ 7.385150492087712, 8.611727854599829, 0.0 ], [ 7.384371081309953, 8.612123514256318, 0.0 ], [ 7.384067928965464, 8.61118079580852, 0.0 ], [ 7.383523783872787, 8.609575881274832, 0.0 ], [ 7.383534122412137, 8.609146791993938, 0.0 ], [ 7.38352577850141, 8.608604247912075, 0.0 ], [ 7.383541245903853, 8.607970149730662, 0.0 ], [ 7.383268713336788, 8.606837363716982, 0.0 ], [ 7.382993127387079, 8.606298994661431, 0.0 ], [ 7.382731686783425, 8.604936324673451, 0.0 ], [ 7.382454951062736, 8.604669205153694, 0.0 ], [ 7.381938358685273, 8.603598438655046, 0.0 ], [ 7.381104501927724, 8.60303070012926, 0.0 ], [ 7.378919988192086, 8.602755546599168, 0.0 ], [ 7.37831235913854, 8.602440938222637, 0.0 ], [ 7.374905281559502, 8.603004565567172, 0.0 ], [ 7.37347035454149, 8.602461293906893, 0.0 ], [ 7.372320390110221, 8.601005332377582, 0.0 ], [ 7.371571852877555, 8.600283239219577, 0.0 ], [ 7.371306978591989, 8.599734313835112, 0.0 ], [ 7.370485182555588, 8.599464880953402, 0.0 ], [ 7.370221469719892, 8.598644707189665, 0.0 ], [ 7.369127141594321, 8.598374118013624, 0.0 ], [ 7.368864592344606, 8.597282696118601, 0.0 ], [ 7.368042803976506, 8.597013259293785, 0.0 ], [ 7.367781418896287, 8.595650589621878, 0.0 ], [ 7.367504701195897, 8.595383462421255, 0.0 ], [ 7.367105661562324, 8.594966944878786, 0.0 ], [ 7.366690586164047, 8.594566252652054, 0.0 ], [ 7.366428044772246, 8.593474830679117, 0.0 ], [ 7.365885214299622, 8.592951215176804, 0.0 ], [ 7.366159481930223, 8.591303671759405, 0.0 ], [ 7.366438472849288, 8.59103890079701, 0.0 ], [ 7.366708024499255, 8.590492240044483, 0.0 ], [ 7.367025495705755, 8.590191075775703, 0.0 ], [ 7.366990986248586, 8.588054815128492, 0.0 ], [ 7.366998096423804, 8.587761341765043, 0.0 ], [ 7.366454042691968, 8.586156420775854, 0.0 ], [ 7.36649592606562, 8.584453322682691, 0.0 ], [ 7.365486413093084, 8.582906295659543, 0.0 ], [ 7.363471363604469, 8.582617490465291, 0.0 ], [ 7.362357881634592, 8.58223290473059, 0.0 ], [ 7.360705284109031, 8.583441748301391, 0.0 ], [ 7.360200585290147, 8.583959855137998, 0.0 ], [ 7.359921597001374, 8.584224621834283, 0.0 ], [ 7.359042112647722, 8.585127347536446, 0.0 ], [ 7.357740216211229, 8.584491886473147, 0.0 ], [ 7.357474203871032, 8.58421420339527, 0.0 ], [ 7.356673779547133, 8.583442070863738, 0.0 ], [ 7.356349847960802, 8.582770508664177, 0.0 ], [ 7.355337646805215, 8.582520364157899, 0.0 ], [ 7.361580403646207, 8.58808288574223, 0.0 ], [ 7.36306728786924, 8.5938771565755, 0.0 ] ] ], [ [ [ 7.408333333333586, 8.620833333333353, 0.0 ], [ 7.412500000000297, 8.620833333333353, 0.0 ], [ 7.414833313434258, 8.621431992031145, 0.0 ], [ 7.414749891868301, 8.620637300518361, 0.0 ], [ 7.414280455410164, 8.619720925270329, 0.0 ], [ 7.413951556484081, 8.617655990734416, 0.0 ], [ 7.413205756660519, 8.617269864156475, 0.0 ], [ 7.41211132420948, 8.61699938218484, 0.0 ], [ 7.411845938408737, 8.61617338497676, 0.0 ], [ 7.410656075353646, 8.616192835073514, 0.0 ], [ 7.407368288355156, 8.615823723871573, 0.0 ], [ 7.406394502103911, 8.61534816471571, 0.0 ], [ 7.404712171170162, 8.613984897565546, 0.0 ], [ 7.402125519096877, 8.614626332330694, 0.0 ], [ 7.401761134821686, 8.61532362037458, 0.0 ], [ 7.401491604691219, 8.615870311063665, 0.0 ], [ 7.400394954623374, 8.616131704662644, 0.0 ], [ 7.399053319316007, 8.616582428494642, 0.0 ], [ 7.407433742947314, 8.617327880859369, 0.0 ], [ 7.408333333333586, 8.620833333333353, 0.0 ] ] ], [ [ [ 7.42308146158883, 8.632803683810776, 0.0 ], [ 7.428226047092296, 8.628637017144149, 0.0 ], [ 7.431837541173716, 8.629836616615581, 0.0 ], [ 7.431693704152533, 8.628467467540634, 0.0 ], [ 7.431150725838486, 8.627943919647372, 0.0 ], [ 7.431447980504678, 8.626735589744678, 0.0 ], [ 7.432792893444198, 8.626307173973341, 0.0 ], [ 7.433064629127174, 8.625217942831849, 0.0 ], [ 7.434429258993367, 8.624783243081023, 0.0 ], [ 7.434112540872799, 8.619862172174683, 0.0 ], [ 7.433088081048865, 8.619526864716288, 0.0 ], [ 7.432566491530309, 8.61898221507607, 0.0 ], [ 7.431181308433524, 8.61924252111575, 0.0 ], [ 7.430120775075313, 8.619780707947848, 0.0 ], [ 7.42927225639106, 8.619511276758574, 0.0 ], [ 7.428978601421535, 8.619204378084804, 0.0 ], [ 7.427088445062839, 8.620310819680101, 0.0 ], [ 7.426203988636228, 8.621779522340711, 0.0 ], [ 7.424617071417077, 8.621387846387462, 0.0 ], [ 7.423837887582411, 8.620574049360279, 0.0 ], [ 7.422997815683569, 8.620836560956866, 0.0 ], [ 7.422723410911649, 8.621665635666883, 0.0 ], [ 7.421636992123, 8.621638919616856, 0.0 ], [ 7.421897427373675, 8.623278671476985, 0.0 ], [ 7.42233520124121, 8.624133453715737, 0.0 ], [ 7.422971052167274, 8.627288396195995, 0.0 ], [ 7.422616845510603, 8.629129066042083, 0.0 ], [ 7.417637008688244, 8.629671207431901, 0.0 ], [ 7.416702663379221, 8.628405893534717, 0.0 ], [ 7.41666666666692, 8.628388324022655, 0.0 ], [ 7.41666666666692, 8.633333333333328, 0.0 ], [ 7.42308146158883, 8.632803683810776, 0.0 ] ] ], [ [ [ 7.439418538411729, 8.641137017144118, 0.0 ], [ 7.441666666666928, 8.641666666666671, 0.0 ], [ 7.441863303166048, 8.635679632528905, 0.0 ], [ 7.441611358248735, 8.63541657333475, 0.0 ], [ 7.441203434833061, 8.635835582547273, 0.0 ], [ 7.440651875336807, 8.636099301998017, 0.0 ], [ 7.440375470201324, 8.63638321436159, 0.0 ], [ 7.439582439467531, 8.635555076932469, 0.0 ], [ 7.43820205439191, 8.635280843819906, 0.0 ], [ 7.437935944405439, 8.635003199933607, 0.0 ], [ 7.437659144590941, 8.634736109626761, 0.0 ], [ 7.437393035379803, 8.634458465494339, 0.0 ], [ 7.436977836525837, 8.634057828686402, 0.0 ], [ 7.436578674759204, 8.633641362884987, 0.0 ], [ 7.435743978266468, 8.633367757461613, 0.0 ], [ 7.436577731075843, 8.632577508191922, 0.0 ], [ 7.436215074814683, 8.630665017488745, 0.0 ], [ 7.435768463677784, 8.630654189600984, 0.0 ], [ 7.432852891018588, 8.631293963688817, 0.0 ], [ 7.434091864692116, 8.636553955078176, 0.0 ], [ 7.439418538411729, 8.641137017144118, 0.0 ] ] ] ] } },
{ "type": "Feature", "properties": { "Stra_Catch": "Gurara-Gbako Abuja", "State": "FCT", "LGA": "Kwali", "Population": 0, "Cleard_TOR": "Not Cleared", "Status": "Proposed", "Start_Date": "2025-03-03T00:00:00", "End_Date": "1899-12-30T00:00:00", "Micr_Catch": "Kwali Abaji", "Size_Ha": 36177.4598119, "Comments": null, "OBJECTID_1": 0, "Shape_Leng": 0.0, "Shape_Area": 0.0, "parent_strategic_name": "Gurara-Gbako (Abuja)", "clipped_to_state": true }, "geometry": { "type": "Polygon", "coordinates": [ [ [ 6.94825778537465, 8.646186659071216, 0.0 ], [ 6.952083333334736, 8.6499854193794, 0.0 ], [ 6.955908881294818, 8.646186659071217, 0.0 ], [ 6.960757785374653, 8.645480007595484, 0.0 ], [ 6.964953613282594, 8.641313340928857, 0.0 ], [ 6.977424452041178, 8.642019992404505, 0.0 ], [ 6.981250000001261, 8.645818752712689, 0.0 ], [ 6.985786946615819, 8.64131334092886, 0.0 ], [ 6.989924452041185, 8.642019992404505, 0.0 ], [ 6.994120279949127, 8.646186659071221, 0.0 ], [ 7.002424452041104, 8.645480007595488, 0.0 ], [ 7.006620279949048, 8.641313340928864, 0.0 ], [ 7.010757785374414, 8.642019992404506, 0.0 ], [ 7.018408881294498, 8.649646674262208, 0.0 ], [ 7.023257785374337, 8.650353325737852, 0.0 ], [ 7.02674221462781, 8.653813340928831, 0.0 ], [ 7.044091118707576, 8.654519992404571, 0.0 ], [ 7.047575547961049, 8.657980007595551, 0.0 ], [ 7.050000000000967, 8.658333333333376, 0.0 ], [ 7.049646674263147, 8.647575547960107, 0.0 ], [ 7.037853325738864, 8.63575778537327, 0.0 ], [ 7.037500000001043, 8.62916666666672, 0.0 ], [ 7.0369327121321, 8.626956176757824, 0.0 ], [ 7.033900621203288, 8.623043823242178, 0.0 ], [ 7.032709757488011, 8.600909084743986, 0.0 ], [ 7.025396050348306, 8.599032253689238, 0.0 ], [ 7.021400621203368, 8.593877156575521, 0.0 ], [ 7.019924248590498, 8.588123575846424, 0.0 ], [ 7.008333333334502, 8.5875, 0.0 ], [ 7.008686659072324, 8.576742214626725, 0.0 ], [ 7.016313340929903, 8.569091118706616, 0.0 ], [ 7.016666666667815, 8.554166666666712, 0.0 ], [ 7.023257785374346, 8.55381334092889, 0.0 ], [ 7.026742214627819, 8.550353325737909, 0.0 ], [ 7.031591118707658, 8.549646674262176, 0.0 ], [ 7.035075547961133, 8.546186659071195, 0.0 ], [ 7.037500000001052, 8.54583333333337, 0.0 ], [ 7.037853325738875, 8.530908881293472, 0.0 ], [ 7.042019992405575, 8.526713053385423, 0.0 ], [ 7.041310967340431, 8.518380398220534, 0.0 ], [ 7.031591118707661, 8.508686659071191, 0.0 ], [ 7.029166666667742, 8.508333333333368, 0.0 ], [ 7.026956176758945, 8.507766045464422, 0.0 ], [ 7.023043823243316, 8.504733954535601, 0.0 ], [ 7.018622843425636, 8.503599378797794, 0.0 ], [ 7.014710489910005, 8.500567287868973, 0.0 ], [ 7.010289510092326, 8.499432712131078, 0.0 ], [ 7.006377156576695, 8.496400621202255, 0.0 ], [ 6.996720716689562, 8.495124986436702, 0.0 ], [ 6.99466213650299, 8.487102593316042, 0.0 ], [ 6.981377156576769, 8.499432712131076, 0.0 ], [ 6.97695617675909, 8.500567287868966, 0.0 ], [ 6.968877156576851, 8.507766045464416, 0.0 ], [ 6.951956176759262, 8.50890062120231, 0.0 ], [ 6.948043823243636, 8.511932712131127, 0.0 ], [ 6.9450866699233, 8.513067287868935, 0.0 ], [ 6.939710489910333, 8.508900621202308, 0.0 ], [ 6.930054050023206, 8.507624986436666, 0.0 ], [ 6.928599378799293, 8.501956176757838, 0.0 ], [ 6.919904242623109, 8.492369588216169, 0.0 ], [ 6.909220716690004, 8.490958319769977, 0.0 ], [ 6.907196044923506, 8.483068847656234, 0.0 ], [ 6.902210489910528, 8.486932712131095, 0.0 ], [ 6.897789510092855, 8.488067287868899, 0.0 ], [ 6.89387715657723, 8.49109937879772, 0.0 ], [ 6.88333333333514, 8.491666666666665, 0.0 ], [ 6.855908881295347, 8.492019992404487, 0.0 ], [ 6.852424452041882, 8.495480007595466, 0.0 ], [ 6.850000000001969, 8.495833333333376, 0.0 ], [ 6.849646674264148, 8.498257785373303, 0.0 ], [ 6.846186659073188, 8.501742214626793, 0.0 ], [ 6.845480007597456, 8.506591118706648, 0.0 ], [ 6.837853325739895, 8.51424221462676, 0.0 ], [ 6.837500000002074, 8.520833333333313, 0.0 ], [ 6.833333333335386, 8.520833333333313, 0.0 ], [ 6.833333333335386, 8.525, 0.0 ], [ 6.835757785375297, 8.525353325737855, 0.0 ], [ 6.839242214628761, 8.528813340928838, 0.0 ], [ 6.844091118708585, 8.529519992404484, 0.0 ], [ 6.847575547962049, 8.532980007595464, 0.0 ], [ 6.856591118708566, 8.533686659071202, 0.0 ], [ 6.868408881295233, 8.545480007595531, 0.0 ], [ 6.873257785375062, 8.54618665907118, 0.0 ], [ 6.878808593751791, 8.551709662543427, 0.0 ], [ 6.879166666668438, 8.554166666666697, 0.0 ], [ 6.878599378799495, 8.5563771565755, 0.0 ], [ 6.871400621204087, 8.564456176757863, 0.0 ], [ 6.86992424859122, 8.570209757486959, 0.0 ], [ 6.858333333335248, 8.570833333333381, 0.0 ], [ 6.854166666668556, 8.570833333333379, 0.0 ], [ 6.854166666668557, 8.575, 0.0 ], [ 6.85748257107399, 8.57585076226127, 0.0 ], [ 6.858333333335246, 8.579166666666634, 0.0 ], [ 6.858333333335246, 8.58333333333335, 0.0 ], [ 6.854166666668554, 8.58333333333335, 0.0 ], [ 6.850850762263211, 8.58248257107209, 0.0 ], [ 6.850000000001955, 8.579166666666634, 0.0 ], [ 6.84668409559661, 8.580017428927983, 0.0 ], [ 6.845833333335354, 8.58333333333335, 0.0 ], [ 6.850264485679045, 8.584470621744792, 0.0 ], [ 6.846400621204206, 8.5894561767578, 0.0 ], [ 6.845266045466404, 8.610543823242184, 0.0 ], [ 6.842233954537601, 8.614456176757828, 0.0 ], [ 6.841099378799714, 8.621579996744805, 0.0 ], [ 6.845266045466402, 8.626956176757801, 0.0 ], [ 6.846400621204198, 8.631377156575494, 0.0 ], [ 6.849432712133003, 8.635289510091143, 0.0 ], [ 6.850567287870887, 8.63971048990884, 0.0 ], [ 6.85359937879969, 8.64362284342449, 0.0 ], [ 6.854733954537486, 8.652210489908905, 0.0 ], [ 6.85776604546629, 8.656122843424461, 0.0 ], [ 6.858333333335231, 8.670833333333325, 0.0 ], [ 6.860757785375145, 8.671186659071239, 0.0 ], [ 6.878808932835997, 8.689212714301242, 0.0 ], [ 6.879519992406239, 8.69409111870657, 0.0 ], [ 6.891313340930497, 8.705908881293398, 0.0 ], [ 6.891666666668315, 8.70833333333333, 0.0 ], [ 6.898043823243803, 8.707766045464384, 0.0 ], [ 6.901956176759427, 8.70473395453565, 0.0 ], [ 6.911612616646549, 8.703458319770013, 0.0 ], [ 6.913067287870465, 8.697789510091186, 0.0 ], [ 6.916099378799271, 8.693877156575544, 0.0 ], [ 6.917233954537159, 8.689456176757842, 0.0 ], [ 6.920266045465967, 8.685543823242199, 0.0 ], [ 6.921400621203768, 8.6811228434245, 0.0 ], [ 6.924432712132575, 8.677210489908855, 0.0 ], [ 6.925000000001519, 8.675, 0.0 ], [ 6.925000000001519, 8.670833333333333, 0.0 ], [ 6.925567287870463, 8.664456176757811, 0.0 ], [ 6.936932712132576, 8.652210489908917, 0.0 ], [ 6.938350762262777, 8.646684095594656, 0.0 ], [ 6.941666666668128, 8.645833333333396, 0.0 ], [ 6.94825778537465, 8.646186659071216, 0.0 ] ] ] } },
{ "type": "Feature", "properties": { "Stra_Catch": "Gurara-Gbako Abuja", "State": "FCT", "LGA": "Gwagwalada", "Population": 0, "Cleard_TOR": "Not Cleared", "Status": "Proposed", "Start_Date": "2025-03-03T00:00:00", "End_Date": "1899-12-30T00:00:00", "Micr_Catch": "Gwagwalada", "Size_Ha": 34849.492905500003, "Comments": null, "OBJECTID_1": 0, "Shape_Leng": 0.0, "Shape_Area": 0.0, "parent_strategic_name": "Gurara-Gbako (Abuja)", "clipped_to_state": true }, "geometry": { "type": "Polygon", "coordinates": [ [ [ 7.120480007596184, 9.139242214626744, 0.0 ], [ 7.110788302952145, 9.129524400499127, 0.0 ], [ 7.105908881294148, 9.128813340928792, 0.0 ], [ 7.099998643664017, 9.122932603624117, 0.0 ], [ 7.103813340929634, 9.119091118706574, 0.0 ], [ 7.104166666667455, 9.1125, 0.0 ], [ 7.103599378798509, 9.110289510091123, 0.0 ], [ 7.099432712131896, 9.104913330078128, 0.0 ], [ 7.100567287869697, 9.101956176757776, 0.0 ], [ 7.103599378798511, 9.098043823242225, 0.0 ], [ 7.104733954536402, 9.093622843424523, 0.0 ], [ 7.107766045465217, 9.08971048990888, 0.0 ], [ 7.108900621203019, 9.085289510091181, 0.0 ], [ 7.124432712131771, 9.068877156575567, 0.0 ], [ 7.125567287869662, 9.060289510091152, 0.0 ], [ 7.128599378798477, 9.056377156575508, 0.0 ], [ 7.130017428928683, 9.050850762261337, 0.0 ], [ 7.13333333333404, 9.05, 0.0 ], [ 7.133900621202986, 9.043622843424465, 0.0 ], [ 7.141204833985045, 9.035425482855903, 0.0 ], [ 7.138067287869602, 9.031377156575566, 0.0 ], [ 7.136600409614388, 9.02566121419269, 0.0 ], [ 7.129166666667424, 9.025, 0.0 ], [ 7.129733954536281, 9.022789510091151, 0.0 ], [ 7.13286471896771, 9.01875, 0.0 ], [ 7.129733954536281, 9.014710489908881, 0.0 ], [ 7.128267076281067, 9.008994547526086, 0.0 ], [ 7.1144561767586, 9.007766045464409, 0.0 ], [ 7.093877156576328, 8.988067287868901, 0.0 ], [ 7.088350762262085, 8.986649237738691, 0.0 ], [ 7.086932712131882, 8.981122843424519, 0.0 ], [ 7.083900621203068, 8.977210489908874, 0.0 ], [ 7.083333333334213, 8.970833333333353, 0.0 ], [ 7.083688354493084, 8.964213053385462, 0.0 ], [ 7.08924221462761, 8.958686659071203, 0.0 ], [ 7.094123670790795, 8.957975260416644, 0.0 ], [ 7.099646674262941, 8.952424452039967, 0.0 ], [ 7.100355360243861, 8.943380398220517, 0.0 ], [ 7.110075547960868, 8.933686659071176, 0.0 ], [ 7.112500000000789, 8.933333333333348, 0.0 ], [ 7.116666666667403, 8.933333333333353, 0.0 ], [ 7.115815904406145, 8.930017428927989, 0.0 ], [ 7.11250000000079, 8.929166666666639, 0.0 ], [ 7.112500000000789, 8.925, 0.0 ], [ 7.10907219780893, 8.924120415581644, 0.0 ], [ 7.10776604546523, 8.915920003255209, 0.0 ], [ 7.111932712131845, 8.910543823242218, 0.0 ], [ 7.113067287869737, 8.906122843424516, 0.0 ], [ 7.116099378798551, 8.902210489908875, 0.0 ], [ 7.117233954536353, 8.897789510091174, 0.0 ], [ 7.120266045465168, 8.893877156575527, 0.0 ], [ 7.120833333334113, 8.8875, 0.0 ], [ 7.11007554796087, 8.887146674262187, 0.0 ], [ 7.102424452040778, 8.879519992404486, 0.0 ], [ 7.08995361328209, 8.878813340928838, 0.0 ], [ 7.085416666667527, 8.883318752712668, 0.0 ], [ 7.081591118707437, 8.879519992404488, 0.0 ], [ 7.052453613282206, 8.878813340928836, 0.0 ], [ 7.048257785374262, 8.882980007595465, 0.0 ], [ 7.043408881294421, 8.883686659071197, 0.0 ], [ 7.039924452040945, 8.887146674262183, 0.0 ], [ 7.033333333334324, 8.8875, 0.0 ], [ 7.031122843425527, 8.888067287868946, 0.0 ], [ 7.027210489909896, 8.891099378797769, 0.0 ], [ 7.022789510092215, 8.892233954535577, 0.0 ], [ 7.018877156576584, 8.895266045464396, 0.0 ], [ 7.014456176758901, 8.896400621202295, 0.0 ], [ 7.006377156576659, 8.903599378797741, 0.0 ], [ 7.001956176758977, 8.904733954535544, 0.0 ], [ 6.993877156576736, 8.911932712131083, 0.0 ], [ 6.988098483616617, 8.913415527343743, 0.0 ], [ 6.987500000001238, 8.933333333333342, 0.0 ], [ 6.98333333333454, 8.933333333333342, 0.0 ], [ 6.98333333333454, 8.9375, 0.0 ], [ 6.972575547961313, 8.937853325737882, 0.0 ], [ 6.967022365995247, 8.943378702799457, 0.0 ], [ 6.966313340930099, 8.952424452039955, 0.0 ], [ 6.962853325739133, 8.955908881293354, 0.0 ], [ 6.962146674263487, 8.973257785373271, 0.0 ], [ 6.956623670791259, 8.978808593750033, 0.0 ], [ 6.954166666668004, 8.979166666666682, 0.0 ], [ 6.954519992405823, 8.985757785373242, 0.0 ], [ 6.957980007596789, 8.989242214626726, 0.0 ], [ 6.958686659072519, 8.998257785373301, 0.0 ], [ 6.964567396377168, 9.004168023003446, 0.0 ], [ 6.968408881294698, 9.000353325737823, 0.0 ], [ 6.977424452041144, 8.999646674262173, 0.0 ], [ 6.981250678169594, 8.995847235785625, 0.0 ], [ 6.989242214627923, 9.00381334092881, 0.0 ], [ 6.998257785374371, 9.004519992404541, 0.0 ], [ 7.016665988499319, 9.022902425130239, 0.0 ], [ 7.012514580621784, 9.027083333333348, 0.0 ], [ 7.016313340929861, 9.030908881293364, 0.0 ], [ 7.017019992405593, 9.03575778537331, 0.0 ], [ 7.028813340929874, 9.047575547960047, 0.0 ], [ 7.029166666667696, 9.05, 0.0 ], [ 7.033333333334309, 9.05, 0.0 ], [ 7.033931816949773, 9.069917805989578, 0.0 ], [ 7.042233954536567, 9.072048272026942, 0.0 ], [ 7.041099378798766, 9.077210489908813, 0.0 ], [ 7.024432712132135, 9.094821506076411, 0.0 ], [ 7.025665961372547, 9.10738186306423, 0.0 ], [ 7.031122843425507, 9.111932712131065, 0.0 ], [ 7.036649237739745, 9.113350762261271, 0.0 ], [ 7.038067287869949, 9.118877156575531, 0.0 ], [ 7.045266045465373, 9.126956176757805, 0.0 ], [ 7.046720716689291, 9.132624986436634, 0.0 ], [ 7.057413736980074, 9.134037611219643, 0.0 ], [ 7.061932712132005, 9.139456176757776, 0.0 ], [ 7.063350762262209, 9.144982571072033, 0.0 ], [ 7.069982571072916, 9.146684095594651, 0.0 ], [ 7.072048272027822, 9.154733954535587, 0.0 ], [ 7.081377156576382, 9.153599378797786, 0.0 ], [ 7.090131293403617, 9.145799085829003, 0.0 ], [ 7.095266045465188, 9.151956176757839, 0.0 ], [ 7.096400621203076, 9.156377156575537, 0.0 ], [ 7.099432712131891, 9.160289510091182, 0.0 ], [ 7.100708346897528, 9.169945949978271, 0.0 ], [ 7.10637715657625, 9.171400621202277, 0.0 ], [ 7.114456176758587, 9.178599378797733, 0.0 ], [ 7.116666666667387, 9.179166666666676, 0.0 ], [ 7.123043823242893, 9.178599378797731, 0.0 ], [ 7.126956176758528, 9.17556728786891, 0.0 ], [ 7.13248257107277, 9.174149068196629, 0.0 ], [ 7.133900621202977, 9.168622843424531, 0.0 ], [ 7.136932712131792, 9.164710489908883, 0.0 ], [ 7.137500000000649, 9.158333333333363, 0.0 ], [ 7.135075547960729, 9.157980007595448, 0.0 ], [ 7.121191067166517, 9.144120958116304, 0.0 ], [ 7.120480007596184, 9.139242214626744, 0.0 ] ] ] } },
{ "type": "Feature", "properties": { "Stra_Catch": "Gurara-Gbako Abuja", "State": "FCT", "LGA": "Mubicipal Area Council", "Population": 0, "Cleard_TOR": "Not Cleared", "Status": "Proposed", "Start_Date": "2025-03-03T00:00:00", "End_Date": "1899-12-30T00:00:00", "Micr_Catch": "Gwagwa Zuba", "Size_Ha": 27367.0758981, "Comments": null, "OBJECTID_1": 0, "Shape_Leng": 0.0, "Shape_Area": 0.0, "parent_strategic_name": "Gurara-Gbako (Abuja)", "clipped_to_state": true }, "geometry": { "type": "Polygon", "coordinates": [ [ [ 7.30748257107244, 9.107482571072007, 0.0 ], [ 7.309195285373578, 9.100807698567685, 0.0 ], [ 7.315451727973385, 9.099432712131067, 0.0 ], [ 7.316666666667032, 9.104166666666638, 0.0 ], [ 7.320833333333655, 9.104166666666639, 0.0 ], [ 7.321400621202601, 9.11054382324216, 0.0 ], [ 7.324432712131421, 9.114456176757807, 0.0 ], [ 7.325909084744292, 9.12020975748699, 0.0 ], [ 7.348043823242457, 9.121400621202275, 0.0 ], [ 7.353420003255532, 9.1255672878689, 0.0 ], [ 7.365770128038452, 9.124326239691875, 0.0 ], [ 7.366666666666943, 9.12083333333333, 0.0 ], [ 7.366099378797998, 9.101956176757836, 0.0 ], [ 7.362961832682551, 9.09790785047741, 0.0 ], [ 7.37140062120251, 9.088437228732621, 0.0 ], [ 7.370266045464709, 9.085289510091149, 0.0 ], [ 7.361932712131376, 9.07593722873265, 0.0 ], [ 7.363067287869178, 9.072789510091182, 0.0 ], [ 7.366099378797998, 9.068877156575535, 0.0 ], [ 7.367233954535889, 9.056122843424495, 0.0 ], [ 7.371097819010659, 9.051137288411489, 0.0 ], [ 7.364456176758053, 9.049432712131095, 0.0 ], [ 7.356377156575792, 9.042233954535558, 0.0 ], [ 7.346762424045398, 9.040963745117201, 0.0 ], [ 7.338067287869269, 9.03137715657553, 0.0 ], [ 7.336580403646148, 9.025582885742175, 0.0 ], [ 7.327210489909169, 9.017233954535614, 0.0 ], [ 7.321229383680842, 9.015698920355936, 0.0 ], [ 7.317233954535894, 9.010543823242214, 0.0 ], [ 7.316099378798092, 9.006122843424517, 0.0 ], [ 7.304733954535941, 8.993877156575529, 0.0 ], [ 7.303315904405736, 8.98835076226127, 0.0 ], [ 7.296229383680936, 8.986532253689274, 0.0 ], [ 7.292233954535989, 8.98137715657556, 0.0 ], [ 7.291099378798098, 8.968622843424519, 0.0 ], [ 7.288067287869281, 8.964710489908871, 0.0 ], [ 7.286532253689604, 8.958729383680536, 0.0 ], [ 7.281377156575894, 8.95473395453558, 0.0 ], [ 7.271720716688736, 8.95345831976994, 0.0 ], [ 7.270266045464817, 8.947789510091113, 0.0 ], [ 7.267233954535999, 8.943877156575558, 0.0 ], [ 7.266005452474413, 8.930066257052966, 0.0 ], [ 7.262500000000435, 8.929166666666692, 0.0 ], [ 7.255066257053374, 8.929827880859333, 0.0 ], [ 7.253315904405843, 8.936649237738687, 0.0 ], [ 7.250000000000486, 8.9375, 0.0 ], [ 7.249432712131538, 8.939710489908839, 0.0 ], [ 7.246400621202722, 8.943622843424482, 0.0 ], [ 7.24526604546483, 8.959079996744803, 0.0 ], [ 7.249432712131538, 8.9644561767578, 0.0 ], [ 7.250708346897176, 8.97411261664497, 0.0 ], [ 7.256377156575994, 8.975567287868897, 0.0 ], [ 7.261532253689702, 8.979562717013851, 0.0 ], [ 7.263067287869377, 8.985543823242185, 0.0 ], [ 7.270266045464816, 8.993622843424458, 0.0 ], [ 7.27140062120262, 8.998043823242154, 0.0 ], [ 7.27453138563405, 9.002083333333291, 0.0 ], [ 7.271400621202618, 9.006122843424517, 0.0 ], [ 7.270266045464814, 9.013246663411493, 0.0 ], [ 7.274531385634048, 9.01875, 0.0 ], [ 7.271400621202618, 9.022789510091114, 0.0 ], [ 7.27083333333376, 9.025, 0.0 ], [ 7.260075547960506, 9.024646674262184, 0.0 ], [ 7.256591118707025, 9.021186659071205, 0.0 ], [ 7.237500000000445, 9.02083333333329, 0.0 ], [ 7.235075547960521, 9.021186659071203, 0.0 ], [ 7.231591118707041, 9.024646674262186, 0.0 ], [ 7.226742214627191, 9.025353325737829, 0.0 ], [ 7.223257785373712, 9.028813340928814, 0.0 ], [ 7.220833333333787, 9.029166666666629, 0.0 ], [ 7.216666666667168, 9.029166666666629, 0.0 ], [ 7.215815904405908, 9.032482571072087, 0.0 ], [ 7.21028951009166, 9.033900621202209, 0.0 ], [ 7.20482245551267, 9.038459947374102, 0.0 ], [ 7.203505452474492, 9.053267076280392, 0.0 ], [ 7.200000000000514, 9.05416666666666, 0.0 ], [ 7.199646674262692, 9.069091118706561, 0.0 ], [ 7.196186659071715, 9.072575547960049, 0.0 ], [ 7.195480007596071, 9.089213053385404, 0.0 ], [ 7.199646674262691, 9.093408881293364, 0.0 ], [ 7.200353325738334, 9.102424452039935, 0.0 ], [ 7.204152086046508, 9.10625, 0.0 ], [ 7.200353325738334, 9.110075547960051, 0.0 ], [ 7.200000000000509, 9.116666666666697, 0.0 ], [ 7.200655449761819, 9.127122328016481, 0.0 ], [ 7.201127007008204, 9.127676675323148, 0.0 ], [ 7.219758, 9.1135101, 0.0 ], [ 7.219758000000157, 9.113510100000221, 0.0 ], [ 7.219758000000476, 9.113510099999978, 0.0 ], [ 7.220572300000435, 9.114656, 0.0 ], [ 7.221004600000499, 9.1152643, 0.0 ], [ 7.222141600000426, 9.116864, 0.0 ], [ 7.23398090000042, 9.133523199999951, 0.0 ], [ 7.249756800000426, 9.1557217, 0.0 ], [ 7.265378700000395, 9.177633899999984, 0.0 ], [ 7.290183042535133, 9.2124204683432, 0.0 ], [ 7.291666666667036, 9.2125, 0.0 ], [ 7.294887288411789, 9.211741468641492, 0.0 ], [ 7.300529649522918, 9.20518408881294, 0.0 ], [ 7.299097696940455, 9.200768873426663, 0.0 ], [ 7.295833333333657, 9.2, 0.0 ], [ 7.295228407118406, 9.197827317979618, 0.0 ], [ 7.286895073785075, 9.188287523057685, 0.0 ], [ 7.288321940104572, 9.179883490668399, 0.0 ], [ 7.295833333333657, 9.179166666666644, 0.0 ], [ 7.296400621202604, 9.176956176757841, 0.0 ], [ 7.299432712131423, 9.173043823242196, 0.0 ], [ 7.3006612141931, 9.159232923719598, 0.0 ], [ 7.307624986437006, 9.157445949978266, 0.0 ], [ 7.308900621202648, 9.147789510091179, 0.0 ], [ 7.313067287869268, 9.142413330078098, 0.0 ], [ 7.311932712131377, 9.131122843424492, 0.0 ], [ 7.308900621202648, 9.127210489908849, 0.0 ], [ 7.307766045464756, 9.122789510091151, 0.0 ], [ 7.304733954535938, 9.118877156575502, 0.0 ], [ 7.30416666666699, 9.108333333333357, 0.0 ], [ 7.30748257107244, 9.107482571072007, 0.0 ] ] ] } },
{ "type": "Feature", "properties": { "Stra_Catch": "Gurara-Gbako Abuja", "State": "FCT", "LGA": "Bwari", "Population": 0, "Cleard_TOR": "Not Cleared", "Status": "Proposed", "Start_Date": "2025-03-03T00:00:00", "End_Date": "1899-12-30T00:00:00", "Micr_Catch": "Bwari", "Size_Ha": 31858.5177621, "Comments": null, "OBJECTID_1": 0, "Shape_Leng": 0.0, "Shape_Area": 0.0, "parent_strategic_name": "Gurara-Gbako (Abuja)", "clipped_to_state": true }, "geometry": { "type": "Polygon", "coordinates": [ [ [ 7.425000000000238, 9.258333333333393, 0.0 ], [ 7.427160305447299, 9.257715691460547, 0.0 ], [ 7.431173027886512, 9.254784308539524, 0.0 ], [ 7.435493638780635, 9.253549024793827, 0.0 ], [ 7.441197374132213, 9.249382358127207, 0.0 ], [ 7.452160305447309, 9.250617641872896, 0.0 ], [ 7.457864040798794, 9.254784308539525, 0.0 ], [ 7.466386583116523, 9.253235202365518, 0.0 ], [ 7.470215861002857, 9.247993469238329, 0.0 ], [ 7.471759711371736, 9.242593044704899, 0.0 ], [ 7.477160305447232, 9.241049024793858, 0.0 ], [ 7.481173027886536, 9.238117641872837, 0.0 ], [ 7.490931532118232, 9.236697387695374, 0.0 ], [ 7.492284138997621, 9.222839864095116, 0.0 ], [ 7.495271809896034, 9.21875, 0.0 ], [ 7.49222819010437, 9.214583333333362, 0.0 ], [ 7.495215861002782, 9.210493469238328, 0.0 ], [ 7.496819729275373, 9.204883829752605, 0.0 ], [ 7.51170010036908, 9.203431193033865, 0.0 ], [ 7.516049194336082, 9.197993469238355, 0.0 ], [ 7.517669338650344, 9.192326524522556, 0.0 ], [ 7.533333333333537, 9.191666666666736, 0.0 ], [ 7.533691406250187, 9.189209832085536, 0.0 ], [ 7.539583672417701, 9.183346896701421, 0.0 ], [ 7.547575547960197, 9.191313340928826, 0.0 ], [ 7.550000000000123, 9.191666666666736, 0.0 ], [ 7.564710489908982, 9.191099378797789, 0.0 ], [ 7.568622843424623, 9.188067287868966, 0.0 ], [ 7.577210489909035, 9.186932712131073, 0.0 ], [ 7.581122843424589, 9.18390062120225, 0.0 ], [ 7.584777241144363, 9.182962805613675, 0.0 ], [ 7.585081641007388, 9.182505702506528, 0.0 ], [ 7.586649845819244, 9.182480031804886, 0.0 ], [ 7.588067287869053, 9.176956176757869, 0.0 ], [ 7.595266045464589, 9.168877156575601, 0.0 ], [ 7.595833333333447, 9.158333333333363, 0.0 ], [ 7.596186659071359, 9.155908881293433, 0.0 ], [ 7.59936946281684, 9.152703619504969, 0.0 ], [ 7.59130733293973, 9.134869449623739, 0.0 ], [ 7.585543823242375, 9.129733954535652, 0.0 ], [ 7.581122843424589, 9.128599378797757, 0.0 ], [ 7.577210489909035, 9.125567287868934, 0.0 ], [ 7.567554050021867, 9.124291653103294, 0.0 ], [ 7.565698920356074, 9.117062717013919, 0.0 ], [ 7.560543823242356, 9.113067287868962, 0.0 ], [ 7.554875013563533, 9.111612616645044, 0.0 ], [ 7.554088277508781, 9.105656546417167, 0.0 ], [ 7.553845555674283, 9.105577147964814, 0.0 ], [ 7.553449092430141, 9.104346918116139, 0.0 ], [ 7.55222774315031, 9.103171161156, 0.0 ], [ 7.551954569972993, 9.102037847517931, 0.0 ], [ 7.551137369436463, 9.10163988254395, 0.0 ], [ 7.551337906422926, 9.100343298471319, 0.0 ], [ 7.550000000000125, 9.1, 0.0 ], [ 7.549338785807482, 9.107433742947117, 0.0 ], [ 7.543622843424608, 9.108900621202247, 0.0 ], [ 7.539710489909053, 9.111932712131072, 0.0 ], [ 7.531122843424643, 9.11306728786896, 0.0 ], [ 7.527210489909002, 9.116099378797788, 0.0 ], [ 7.518622843424682, 9.117233954535589, 0.0 ], [ 7.510543823242415, 9.12443271213113, 0.0 ], [ 7.501956176758005, 9.125567287868932, 0.0 ], [ 7.498043823242363, 9.128599378797757, 0.0 ], [ 7.489456176758043, 9.129733954535649, 0.0 ], [ 7.485543823242402, 9.132766045464475, 0.0 ], [ 7.464456176758031, 9.13390062120228, 0.0 ], [ 7.460543823242391, 9.136932712131101, 0.0 ], [ 7.456122843424694, 9.138067287868992, 0.0 ], [ 7.448043823242428, 9.145266045464442, 0.0 ], [ 7.433333333333577, 9.145833333333393, 0.0 ], [ 7.432683648003687, 9.170018174913189, 0.0 ], [ 7.422839694553177, 9.171450975206177, 0.0 ], [ 7.418826972113965, 9.1743823581272, 0.0 ], [ 7.41342637803847, 9.175926378038236, 0.0 ], [ 7.411573621962091, 9.182406955295201, 0.0 ], [ 7.408333333333569, 9.183333333333392, 0.0 ], [ 7.406122843424767, 9.183900621202248, 0.0 ], [ 7.400967746311053, 9.187895880805131, 0.0 ], [ 7.399119059245046, 9.195099216037342, 0.0 ], [ 7.390729437934322, 9.19640062120231, 0.0 ], [ 7.381377156575832, 9.188067287868961, 0.0 ], [ 7.375850762261579, 9.186649068196681, 0.0 ], [ 7.374112616645256, 9.179875183105523, 0.0 ], [ 7.364456176758095, 9.178599378797815, 0.0 ], [ 7.360543823242542, 9.175567287868992, 0.0 ], [ 7.357586669922196, 9.174432712131098, 0.0 ], [ 7.352210489909206, 9.178599378797813, 0.0 ], [ 7.350000000000316, 9.179166666666672, 0.0 ], [ 7.343408881293769, 9.178813340928848, 0.0 ], [ 7.339583333333671, 9.175014580620665, 0.0 ], [ 7.335757785373576, 9.178813340928849, 0.0 ], [ 7.326742214627104, 9.179519992404582, 0.0 ], [ 7.323257785373619, 9.182980007595479, 0.0 ], [ 7.314953613281621, 9.183686659071208, 0.0 ], [ 7.310416666667052, 9.179181247287385, 0.0 ], [ 7.306250000000431, 9.183318752712676, 0.0 ], [ 7.302424452040334, 9.179519992404586, 0.0 ], [ 7.295833333333701, 9.179166666666669, 0.0 ], [ 7.288321940104613, 9.179883490668429, 0.0 ], [ 7.286895073785117, 9.188287523057713, 0.0 ], [ 7.295228407118447, 9.197827317979643, 0.0 ], [ 7.295833333333699, 9.2, 0.0 ], [ 7.299097696940499, 9.200768873426689, 0.0 ], [ 7.300529649522962, 9.205184088812967, 0.0 ], [ 7.294887288411833, 9.211741468641518, 0.0 ], [ 7.291666666667079, 9.2125, 0.0 ], [ 7.291783114002673, 9.214664470391673, 0.0 ], [ 7.315783900000373, 9.248324100000028, 0.0 ], [ 7.328701200984672, 9.266439883563061, 0.0 ], [ 7.352210489909204, 9.267233954535593, 0.0 ], [ 7.356250000000336, 9.270364549424961, 0.0 ], [ 7.360416666666959, 9.26713545057514, 0.0 ], [ 7.364456176758091, 9.270266045464414, 0.0 ], [ 7.366666666666982, 9.270833333333364, 0.0 ], [ 7.368877156575874, 9.271400621202309, 0.0 ], [ 7.372789510091425, 9.274432712131132, 0.0 ], [ 7.377210489909118, 9.275567287868936, 0.0 ], [ 7.385289510091472, 9.282766045464474, 0.0 ], [ 7.402210489909122, 9.283900621202283, 0.0 ], [ 7.406122843424764, 9.286932712131101, 0.0 ], [ 7.410543823242458, 9.288067287868996, 0.0 ], [ 7.414456176758099, 9.29109937879773, 0.0 ], [ 7.419982571072265, 9.292517598470099, 0.0 ], [ 7.420833333333614, 9.295833333333395, 0.0 ], [ 7.42325778537354, 9.295480007595483, 0.0 ], [ 7.426742214627025, 9.29201999240459, 0.0 ], [ 7.431623670790217, 9.291308593750028, 0.0 ], [ 7.437146674262375, 9.285757785373264, 0.0 ], [ 7.437853325738111, 9.280908881293405, 0.0 ], [ 7.44165310329888, 9.277082316080801, 0.0 ], [ 7.425353325738062, 9.26075778537332, 0.0 ], [ 7.425000000000238, 9.258333333333393, 0.0 ] ] ] } },
{ "type": "Feature", "properties": { "Stra_Catch": "Gurara-Gbako Abuja", "State": "FCT", "LGA": "Abaji", "Population": 0, "Cleard_TOR": "Not Cleared", "Status": "Proposed", "Start_Date": "2025-03-03T00:00:00", "End_Date": "1899-12-30T00:00:00", "Micr_Catch": "Yaba", "Size_Ha": 14762.5555095, "Comments": null, "OBJECTID_1": 0, "Shape_Leng": 0.0, "Shape_Area": 0.0, "parent_strategic_name": "Gurara-Gbako (Abuja)", "clipped_to_state": true }, "geometry": { "type": "Polygon", "coordinates": [ [ [ 6.854733953810933, 8.652210490321821, 0.0 ], [ 6.853599378110707, 8.643622844318841, 0.0 ], [ 6.850567287752011, 8.639710490346845, 0.0 ], [ 6.849432712052013, 8.635289510402586, 0.0 ], [ 6.84640062079411, 8.631377157329963, 0.0 ], [ 6.845266045093882, 8.626956177385706, 0.0 ], [ 6.841099378135814, 8.62157999691938, 0.0 ], [ 6.842233953836041, 8.614456177410673, 0.0 ], [ 6.845266045093887, 8.610543823438844, 0.0 ], [ 6.846400620794118, 8.589456177460661, 0.0 ], [ 6.850264485119848, 8.584470622021584, 0.0 ], [ 6.845833332944006, 8.583333333966223, 0.0 ], [ 6.846684095196809, 8.580017429260876, 0.0 ], [ 6.849999999902136, 8.579166667008069, 0.0 ], [ 6.85085076215494, 8.582482571713355, 0.0 ], [ 6.854166665960832, 8.583333333966227, 0.0 ], [ 6.858333332918962, 8.583333333966225, 0.0 ], [ 6.858333332918963, 8.579166667008067, 0.0 ], [ 6.857482570666101, 8.575850762302947, 0.0 ], [ 6.854166665960833, 8.575000000049968, 0.0 ], [ 6.854166665960835, 8.570833333991191, 0.0 ], [ 6.858333332918965, 8.570833333991191, 0.0 ], [ 6.869924248706914, 8.570209757574181, 0.0 ], [ 6.871400620743979, 8.564456177510598, 0.0 ], [ 6.878599378060583, 8.556377156580503, 0.0 ], [ 6.879166666810073, 8.554166667058061, 0.0 ], [ 6.87880859364361, 8.551709662570905, 0.0 ], [ 6.873257785520284, 8.546186659686688, 0.0 ], [ 6.868408881166889, 8.545480008395616, 0.0 ], [ 6.856591118587253, 8.533686659711705, 0.0 ], [ 6.847575547275731, 8.532980008420639, 0.0 ], [ 6.844091118612298, 8.529519992753546, 0.0 ], [ 6.839242214258909, 8.528813341462651, 0.0 ], [ 6.835757784696098, 8.525353325795447, 0.0 ], [ 6.833333332969063, 8.525000000149884, 0.0 ], [ 6.833333332969064, 8.52083333409116, 0.0 ], [ 6.837499999927193, 8.52083333409116, 0.0 ], [ 6.837853325572527, 8.514242215406011, 0.0 ], [ 6.845480007298457, 8.506591118885027, 0.0 ], [ 6.84618665858958, 8.501742215430978, 0.0 ], [ 6.849646674256589, 8.498257785868146, 0.0 ], [ 6.84999999990215, 8.495833334141098, 0.0 ], [ 6.848738267259328, 8.491643270420596, 0.0 ], [ 6.84198845690373, 8.486857096477886, 0.0 ], [ 6.83953162238853, 8.48814290397179, 0.0 ], [ 6.83546837656649, 8.491023763436045, 0.0 ], [ 6.817441304275122, 8.492405870334673, 0.0 ], [ 6.816666666036046, 8.50000000019987, 0.0 ], [ 6.812499999977354, 8.500000000199872, 0.0 ], [ 6.783801984347086, 8.500320968236252, 0.0 ], [ 6.7825343, 8.5715025, 0.0 ], [ 6.782534299821091, 8.571502500610388, 0.0 ], [ 6.782534299820566, 8.571502500639841, 0.0 ], [ 6.781349252368576, 8.575545539595057, 0.0 ], [ 6.780847427010392, 8.57725762114439, 0.0 ], [ 6.7799621, 8.5802781, 0.0 ], [ 6.7800331, 8.5864003, 0.0 ], [ 6.781021437645578, 8.670672927982494, 0.0 ], [ 6.785757784796339, 8.670480008145946, 0.0 ], [ 6.789242214359204, 8.667019992478689, 0.0 ], [ 6.798257784771284, 8.666313341187795, 0.0 ], [ 6.80174221433409, 8.66285332641997, 0.0 ], [ 6.812499999977323, 8.662500000774408, 0.0 ], [ 6.816666666036016, 8.662500000774406, 0.0 ], [ 6.817803785018807, 8.658068847699163, 0.0 ], [ 6.822789509530412, 8.661932712924459, 0.0 ], [ 6.827210489474639, 8.663067288624532, 0.0 ], [ 6.835289509505364, 8.670266045941341, 0.0 ], [ 6.837499999927164, 8.670833333791462, 0.0 ], [ 6.858333332918946, 8.670833333791464, 0.0 ], [ 6.857766045068836, 8.656122844293817, 0.0 ], [ 6.854733953810933, 8.652210490321821, 0.0 ] ] ] } },
{ "type": "Feature", "properties": { "Stra_Catch": "Okwa-Mada", "State": "FCT", "LGA": "Kuje", "Population": 0, "Cleard_TOR": "Not Cleared", "Status": "Proposed", "Start_Date": "2025-03-03T00:00:00", "End_Date": "1899-12-30T00:00:00", "Micr_Catch": "Kuje Buga", "Size_Ha": 13700.821824799999, "Comments": null, "OBJECTID_1": 0, "Shape_Leng": 0.0, "Shape_Area": 0.0, "parent_strategic_name": "Okwa-Mada", "clipped_to_state": true }, "geometry": { "type": "Polygon", "coordinates": [ [ [ 7.450353325738087, 8.61492445203994, 0.0 ], [ 7.450000000000265, 8.6125, 0.0 ], [ 7.450427365843233, 8.601417864696511, 0.0 ], [ 7.4430308, 8.5932817, 0.0 ], [ 7.435716, 8.5864147, 0.0 ], [ 7.4181271, 8.5699024, 0.0 ], [ 7.3959702, 8.5384445, 0.0 ], [ 7.3802833, 8.5215208, 0.0 ], [ 7.3653095, 8.4876713, 0.0 ], [ 7.315421340905075, 8.474152699390261, 0.0 ], [ 7.308686659071593, 8.48090888129339, 0.0 ], [ 7.307980007595948, 8.493382432725667, 0.0 ], [ 7.316313340929188, 8.501742214626793, 0.0 ], [ 7.3166666666671, 8.508333333333347, 0.0 ], [ 7.316313340929188, 8.519091118706623, 0.0 ], [ 7.304519992404971, 8.530908881293447, 0.0 ], [ 7.303813340929237, 8.54409111870665, 0.0 ], [ 7.300353325738261, 8.547575547960047, 0.0 ], [ 7.300066207239357, 8.552931603029259, 0.0 ], [ 7.300584899768086, 8.554070409304909, 0.0 ], [ 7.300917813945868, 8.557009997957676, 0.0 ], [ 7.301853686072033, 8.557442695399558, 0.0 ], [ 7.30422109382346, 8.557312693860679, 0.0 ], [ 7.305297671121876, 8.557702559120582, 0.0 ], [ 7.305417034135707, 8.558223307048689, 0.0 ], [ 7.309611462744102, 8.558777348235086, 0.0 ], [ 7.309612000058128, 8.558776756768685, 0.0 ], [ 7.310445530989403, 8.558523987820694, 0.0 ], [ 7.310928488179373, 8.557991023312384, 0.0 ], [ 7.311539113129906, 8.5577150275431, 0.0 ], [ 7.312070467539698, 8.557431267888967, 0.0 ], [ 7.312631496481632, 8.557177303888787, 0.0 ], [ 7.313119797544125, 8.556638531755491, 0.0 ], [ 7.313517186638234, 8.558374225464304, 0.0 ], [ 7.314307099722908, 8.55908280378188, 0.0 ], [ 7.314207103273853, 8.560640442995602, 0.0 ], [ 7.314888550530809, 8.562292612035867, 0.0 ], [ 7.315978681923809, 8.562632712230627, 0.0 ], [ 7.317960781378736, 8.563716264401924, 0.0 ], [ 7.318860492146193, 8.563666671493202, 0.0 ], [ 7.319154851758477, 8.564630029382341, 0.0 ], [ 7.319679638457614, 8.565601807181297, 0.0 ], [ 7.319933603710809, 8.566431485343575, 0.0 ], [ 7.320217506721435, 8.567231626538019, 0.0 ], [ 7.320468318322315, 8.568780200695416, 0.0 ], [ 7.320349588000662, 8.568947759366921, 0.0 ], [ 7.321228297026299, 8.572372245187083, 0.0 ], [ 7.321284920989408, 8.572389956853254, 0.0 ], [ 7.321448135454821, 8.573100796187846, 0.0 ], [ 7.322042993411362, 8.573814072910045, 0.0 ], [ 7.32251007118001, 8.574112826101379, 0.0 ], [ 7.322895185399617, 8.574653285646626, 0.0 ], [ 7.322834539023598, 8.574763192029252, 0.0 ], [ 7.32486094109633, 8.577192991298809, 0.0 ], [ 7.325063714260436, 8.57730365426786, 0.0 ], [ 7.326726897631076, 8.577823168183864, 0.0 ], [ 7.327785173202003, 8.578401508238018, 0.0 ], [ 7.328811631564604, 8.578345030922176, 0.0 ], [ 7.328916255900972, 8.578687425575781, 0.0 ], [ 7.337487558939067, 8.579072504426172, 0.0 ], [ 7.337369786618461, 8.578877354302845, 0.0 ], [ 7.337062984725097, 8.577703092301158, 0.0 ], [ 7.338170037962541, 8.577350788043134, 0.0 ], [ 7.338722873181768, 8.576782592598844, 0.0 ], [ 7.340879391557168, 8.576835842086027, 0.0 ], [ 7.341969553269666, 8.576818277215073, 0.0 ], [ 7.343866355809223, 8.576865097469524, 0.0 ], [ 7.344149348294663, 8.576290964895856, 0.0 ], [ 7.345672886793458, 8.576001879176941, 0.0 ], [ 7.347573417739998, 8.576048166660348, 0.0 ], [ 7.347962212938402, 8.576855105559245, 0.0 ], [ 7.348500755098809, 8.577374481818023, 0.0 ], [ 7.348985039441863, 8.578379438515428, 0.0 ], [ 7.350139501663631, 8.578757876478385, 0.0 ], [ 7.350403163076009, 8.57957805412412, 0.0 ], [ 7.351162402861999, 8.579686867627858, 0.0 ], [ 7.35221048990923, 8.579733954535586, 0.0 ], [ 7.355337646805215, 8.582520364157899, 0.0 ], [ 7.356349847960802, 8.582770508664177, 0.0 ], [ 7.356673779547133, 8.583442070863738, 0.0 ], [ 7.357474203871032, 8.58421420339527, 0.0 ], [ 7.357740216211229, 8.584491886473147, 0.0 ], [ 7.359042112647722, 8.585127347536446, 0.0 ], [ 7.359921597001374, 8.584224621834283, 0.0 ], [ 7.360200585290147, 8.583959855137998, 0.0 ], [ 7.360705284109031, 8.583441748301391, 0.0 ], [ 7.362357881634592, 8.58223290473059, 0.0 ], [ 7.363471363604469, 8.582617490465291, 0.0 ], [ 7.365486413093084, 8.582906295659543, 0.0 ], [ 7.36649592606562, 8.584453322682691, 0.0 ], [ 7.366454042691968, 8.586156420775854, 0.0 ], [ 7.366998096423804, 8.587761341765043, 0.0 ], [ 7.366990986248586, 8.588054815128492, 0.0 ], [ 7.367025495705755, 8.590191075775703, 0.0 ], [ 7.366708024499255, 8.590492240044483, 0.0 ], [ 7.366438472849288, 8.59103890079701, 0.0 ], [ 7.366159481930223, 8.591303671759405, 0.0 ], [ 7.365885214299622, 8.592951215176804, 0.0 ], [ 7.366428044772246, 8.593474830679117, 0.0 ], [ 7.366690586164047, 8.594566252652054, 0.0 ], [ 7.367105661562324, 8.594966944878786, 0.0 ], [ 7.367504701195897, 8.595383462421255, 0.0 ], [ 7.367781418896287, 8.595650589621878, 0.0 ], [ 7.368042803976506, 8.597013259293785, 0.0 ], [ 7.368864592344606, 8.597282696118601, 0.0 ], [ 7.369127141594321, 8.598374118013624, 0.0 ], [ 7.370221469719892, 8.598644707189665, 0.0 ], [ 7.370485182555588, 8.599464880953402, 0.0 ], [ 7.371306978591989, 8.599734313835112, 0.0 ], [ 7.371571852877555, 8.600283239219577, 0.0 ], [ 7.372320390110221, 8.601005332377582, 0.0 ], [ 7.37347035454149, 8.602461293906893, 0.0 ], [ 7.374905281559502, 8.603004565567172, 0.0 ], [ 7.37831235913854, 8.602440938222637, 0.0 ], [ 7.378919988192086, 8.602755546599168, 0.0 ], [ 7.381104501927724, 8.60303070012926, 0.0 ], [ 7.381938358685273, 8.603598438655046, 0.0 ], [ 7.382454951062736, 8.604669205153694, 0.0 ], [ 7.382731686783425, 8.604936324673451, 0.0 ], [ 7.382993127387079, 8.606298994661431, 0.0 ], [ 7.383268713336788, 8.606837363716982, 0.0 ], [ 7.383541245903853, 8.607970149730662, 0.0 ], [ 7.38352577850141, 8.608604247912075, 0.0 ], [ 7.383534122412137, 8.609146791993938, 0.0 ], [ 7.383523783872787, 8.609575881274832, 0.0 ], [ 7.384067928965464, 8.61118079580852, 0.0 ], [ 7.384371081309953, 8.612123514256318, 0.0 ], [ 7.385150492087712, 8.611727854599829, 0.0 ], [ 7.387546480207215, 8.610727595315021, 0.0 ], [ 7.387881708483793, 8.610383044453856, 0.0 ], [ 7.388375227760649, 8.610119157158495, 0.0 ], [ 7.390057472415466, 8.611482482292736, 0.0 ], [ 7.391151862467487, 8.611753021431081, 0.0 ], [ 7.391690467452177, 8.612031829529656, 0.0 ], [ 7.392239763828789, 8.612300084683005, 0.0 ], [ 7.392505821774504, 8.612577751678293, 0.0 ], [ 7.392782570611568, 8.612844866210894, 0.0 ], [ 7.393048629330369, 8.613122532965162, 0.0 ], [ 7.393597928456376, 8.613390786626097, 0.0 ], [ 7.393860554245358, 8.614482205904999, 0.0 ], [ 7.395221788656074, 8.61611013033024, 0.0 ], [ 7.395288069350319, 8.616247503362667, 0.0 ], [ 7.399053319316007, 8.616582428494642, 0.0 ], [ 7.400394954623374, 8.616131704662644, 0.0 ], [ 7.401491604691219, 8.615870311063665, 0.0 ], [ 7.401761134821686, 8.61532362037458, 0.0 ], [ 7.402125519096877, 8.614626332330694, 0.0 ], [ 7.404712171170162, 8.613984897565546, 0.0 ], [ 7.406394502103911, 8.61534816471571, 0.0 ], [ 7.407368288355156, 8.615823723871573, 0.0 ], [ 7.410656075353646, 8.616192835073514, 0.0 ], [ 7.411845938408737, 8.61617338497676, 0.0 ], [ 7.41211132420948, 8.61699938218484, 0.0 ], [ 7.413205756660519, 8.617269864156475, 0.0 ], [ 7.413951556484081, 8.617655990734416, 0.0 ], [ 7.414280455410164, 8.619720925270329, 0.0 ], [ 7.414749891868301, 8.620637300518361, 0.0 ], [ 7.414833313434258, 8.621431992031145, 0.0 ], [ 7.41581590440566, 8.621684095594619, 0.0 ], [ 7.41666666666692, 8.625, 0.0 ], [ 7.41666666666692, 8.628388324022655, 0.0 ], [ 7.416702663379221, 8.628405893534717, 0.0 ], [ 7.417637008688244, 8.629671207431901, 0.0 ], [ 7.422616845510603, 8.629129066042083, 0.0 ], [ 7.422971052167274, 8.627288396195995, 0.0 ], [ 7.42233520124121, 8.624133453715737, 0.0 ], [ 7.421897427373675, 8.623278671476985, 0.0 ], [ 7.421636992123, 8.621638919616856, 0.0 ], [ 7.422723410911649, 8.621665635666883, 0.0 ], [ 7.422997815683569, 8.620836560956866, 0.0 ], [ 7.423837887582411, 8.620574049360279, 0.0 ], [ 7.424617071417077, 8.621387846387462, 0.0 ], [ 7.426203988636228, 8.621779522340711, 0.0 ], [ 7.427088445062839, 8.620310819680101, 0.0 ], [ 7.428978601421535, 8.619204378084804, 0.0 ], [ 7.42927225639106, 8.619511276758574, 0.0 ], [ 7.430120775075313, 8.619780707947848, 0.0 ], [ 7.431181308433524, 8.61924252111575, 0.0 ], [ 7.432566491530309, 8.61898221507607, 0.0 ], [ 7.433088081048865, 8.619526864716288, 0.0 ], [ 7.434112540872799, 8.619862172174683, 0.0 ], [ 7.434429258993367, 8.624783243081023, 0.0 ], [ 7.433064629127174, 8.625217942831849, 0.0 ], [ 7.432792893444198, 8.626307173973341, 0.0 ], [ 7.431447980504678, 8.626735589744678, 0.0 ], [ 7.431150725838486, 8.627943919647372, 0.0 ], [ 7.431693704152533, 8.628467467540634, 0.0 ], [ 7.431837541173716, 8.629836616615581, 0.0 ], [ 7.432566663954234, 8.630078803168404, 0.0 ], [ 7.432852891018588, 8.631293963688817, 0.0 ], [ 7.435768463677784, 8.630654189600984, 0.0 ], [ 7.436215074814683, 8.630665017488745, 0.0 ], [ 7.436577731075843, 8.632577508191922, 0.0 ], [ 7.435743978266468, 8.633367757461613, 0.0 ], [ 7.436578674759204, 8.633641362884987, 0.0 ], [ 7.436977836525837, 8.634057828686402, 0.0 ], [ 7.437393035379803, 8.634458465494339, 0.0 ], [ 7.437659144590941, 8.634736109626761, 0.0 ], [ 7.437935944405439, 8.635003199933607, 0.0 ], [ 7.43820205439191, 8.635280843819906, 0.0 ], [ 7.439582439467531, 8.635555076932469, 0.0 ], [ 7.440375470201324, 8.63638321436159, 0.0 ], [ 7.440651875336807, 8.636099301998017, 0.0 ], [ 7.441203434833061, 8.635835582547273, 0.0 ], [ 7.441611358248735, 8.63541657333475, 0.0 ], [ 7.441863303166048, 8.635679632528905, 0.0 ], [ 7.442019992404751, 8.630908881293395, 0.0 ], [ 7.45415310329886, 8.618750678168407, 0.0 ], [ 7.450353325738087, 8.61492445203994, 0.0 ] ] ] } },
{ "type": "Feature", "properties": { "Stra_Catch": "Gurara-Gbako Abuja", "State": "FCT", "LGA": "Bwari", "Population": 0, "Cleard_TOR": "Not Cleared", "Status": "Proposed", "Start_Date": "2025-03-03T00:00:00", "End_Date": "1899-12-30T00:00:00", "Micr_Catch": "Bwari", "Size_Ha": 31858.5177621, "Comments": null, "OBJECTID_1": 0, "Shape_Leng": 0.0, "Shape_Area": 0.0, "parent_strategic_name": "Okwa-Mada", "clipped_to_state": true }, "geometry": { "type": "MultiPolygon", "coordinates": [ [ [ [ 7.586649845819244, 9.182480031804886, 0.0 ], [ 7.585081641007388, 9.182505702506528, 0.0 ], [ 7.584777241144363, 9.182962805613675, 0.0 ], [ 7.586649237738844, 9.18248240152997, 0.0 ], [ 7.586649845819244, 9.182480031804886, 0.0 ] ] ], [ [ [ 7.551337906422926, 9.100343298471319, 0.0 ], [ 7.551137369436463, 9.10163988254395, 0.0 ], [ 7.551954569972993, 9.102037847517931, 0.0 ], [ 7.55222774315031, 9.103171161156, 0.0 ], [ 7.553449092430141, 9.104346918116139, 0.0 ], [ 7.553845555674283, 9.105577147964814, 0.0 ], [ 7.554088277508781, 9.105656546417167, 0.0 ], [ 7.553458319770145, 9.100887383355111, 0.0 ], [ 7.551337906422926, 9.100343298471319, 0.0 ] ] ] ] } },
{ "type": "Feature", "properties": { "Stra_Catch": "Okwa-Mada", "State": "Nasarawa", "LGA": "Toto_Nasarawa", "Population": 0, "Cleard_TOR": "NOT YET", "Status": "NOT YET", "Start_Date": "1899-12-30T00:00:00", "End_Date": "1899-12-30T00:00:00", "Micr_Catch": "Kumeya", "Size_Ha": 64205.882113400003, "Comments": null, "OBJECTID_1": 0, "Shape_Leng": 0.0, "Shape_Area": 0.0, "parent_strategic_name": "Okwa-Mada", "clipped_to_state": true }, "geometry": { "type": "Polygon", "coordinates": [ [ [ 7.307980007595875, 8.493382432725708, 0.0 ], [ 7.316313340929194, 8.501742214626749, 0.0 ], [ 7.316666666667042, 8.508333333333345, 0.0 ], [ 7.324040052626233, 8.507677544487862, 0.0 ], [ 7.328599378798102, 8.502210489908867, 0.0 ], [ 7.330017428928308, 8.496684095594635, 0.0 ], [ 7.337103949653126, 8.494865587022584, 0.0 ], [ 7.341099378798085, 8.489710489908868, 0.0 ], [ 7.342517428928293, 8.484184095594632, 0.0 ], [ 7.347614246488472, 8.482876273098823, 0.0 ], [ 7.315421340905026, 8.474152699390247, 0.0 ], [ 7.308686659071567, 8.480908881293413, 0.0 ], [ 7.307980007595875, 8.493382432725708, 0.0 ] ] ] } }
]
}
