{
"type": "FeatureCollection",
"name": "Kebbi_micro_catchments",
"crs": { "type": "name", "properties": { "name": "urn:ogc:def:crs:OGC:1.3:CRS84" } },
"features": [
{ "type": "Feature", "properties": { "Stra_Catch": "Sokoto-Zamfara\r\n", "State": "Kebbi", "LGA": "Birnin Kebbi", "Population": 0, "Cleard_TOR": "Cleared", "Status": "Ongoing", "Start_Date": "2025-10-03T00:00:00", "End_Date": "1899-12-30T00:00:00", "Micr_Catch": "Badariya/Dukku", "Size_Ha": 17890.8044032, "Comments": null, "OBJECTID_1": 0, "Shape_Leng": 0.0, "Shape_Area": 0.0, "parent_strategic_name": "Sokoto-Zamfara", "clipped_to_state": true }, "geometry": { "type": "Polygon", "coordinates": [ [ [ 4.233989291317484, 12.500959946967319, 0.0 ], [ 4.239456176315157, 12.496400621967625, 0.0 ], [ 4.244982401312698, 12.494982570967901, 0.0 ], [ 4.246400621312302, 12.489456176967972, 0.0 ], [ 4.249432712311141, 12.485543823968166, 0.0 ], [ 4.250567288310894, 12.48112284396821, 0.0 ], [ 4.253599379309678, 12.477210490968403, 0.0 ], [ 4.254166667310026, 12.46666666696842, 0.0 ], [ 4.253315734310626, 12.463350762968405, 0.0 ], [ 4.247789510313282, 12.461932712968121, 0.0 ], [ 4.243749999315321, 12.458801948967915, 0.0 ], [ 4.238246663317661, 12.463067287967577, 0.0 ], [ 4.225896368323634, 12.461826239966893, 0.0 ], [ 4.225000000324227, 12.45833333296684, 0.0 ], [ 4.206122843333482, 12.457766045965794, 0.0 ], [ 4.202210489335576, 12.454733954965549, 0.0 ], [ 4.185289509344106, 12.453599379964571, 0.0 ], [ 4.18013441334702, 12.44960394996424, 0.0 ], [ 4.178315735348391, 12.442517429964166, 0.0 ], [ 4.172789509351285, 12.441099379963793, 0.0 ], [ 4.164710489355967, 12.43390062096336, 0.0 ], [ 4.156122843360516, 12.432766045962794, 0.0 ], [ 4.152210489362762, 12.429733954962582, 0.0 ], [ 4.147789509365221, 12.428599379962272, 0.0 ], [ 4.143877156367479, 12.425567287962016, 0.0 ], [ 4.137500000370963, 12.424999999961654, 0.0 ], [ 4.137146674370172, 12.439924451961611, 0.0 ], [ 4.133686659371774, 12.443408881961345, 0.0 ], [ 4.133333333370413, 12.466666666961283, 0.0 ], [ 4.132980007370176, 12.473257785961261, 0.0 ], [ 4.119121127376701, 12.487142265960339, 0.0 ], [ 4.114242214379355, 12.48785332596003, 0.0 ], [ 4.104520671384036, 12.497548759959344, 0.0 ], [ 4.10381334038232, 12.527424452959263, 0.0 ], [ 4.100353326384004, 12.530908881959045, 0.0 ], [ 4.099646674384031, 12.535757785958964, 0.0 ], [ 4.094123501386739, 12.541308593958588, 0.0 ], [ 4.089242214389373, 12.542019992958259, 0.0 ], [ 4.085757785391114, 12.545480007957989, 0.0 ], [ 4.072575547398532, 12.546186659957081, 0.0 ], [ 4.067021518401316, 12.551713053956696, 0.0 ], [ 4.06666666640104, 12.558333333956654, 0.0 ], [ 4.067024400400627, 12.560788302956663, 0.0 ], [ 4.076742214394355, 12.570480007957356, 0.0 ], [ 4.085757785389246, 12.571186659957947, 0.0 ], [ 4.093408881384447, 12.578813340958495, 0.0 ], [ 4.102424452379389, 12.579519992959129, 0.0 ], [ 4.105908881377261, 12.582980007959335, 0.0 ], [ 4.112500000373661, 12.583333333959757, 0.0 ], [ 4.115720452371967, 12.582574802959996, 0.0 ], [ 4.120303853369864, 12.577248128960306, 0.0 ], [ 4.121362813369915, 12.568585204960367, 0.0 ], [ 4.124470520368485, 12.564748128960611, 0.0 ], [ 4.125772603368151, 12.559219699960666, 0.0 ], [ 4.130267334365873, 12.557819621960999, 0.0 ], [ 4.139418369360478, 12.566137017961575, 0.0 ], [ 4.14391496435803, 12.567196316961825, 0.0 ], [ 4.149059211355111, 12.571362983962194, 0.0 ], [ 4.152248298353542, 12.570303684962377, 0.0 ], [ 4.157392544351152, 12.566137017962715, 0.0 ], [ 4.173081631343111, 12.567196316963642, 0.0 ], [ 4.17691836934095, 12.570303684963905, 0.0 ], [ 4.181414964338673, 12.571362983964194, 0.0 ], [ 4.185251702336592, 12.5744703509644, 0.0 ], [ 4.189748298334276, 12.575529649964633, 0.0 ], [ 4.194205898331893, 12.57913987996494, 0.0 ], [ 4.204696146327488, 12.567766656965549, 0.0 ], [ 4.20363718632869, 12.5560852049655, 0.0 ], [ 4.200529479330464, 12.552248128965354, 0.0 ], [ 4.199470519331234, 12.547751871965268, 0.0 ], [ 4.19530385333359, 12.542607286965048, 0.0 ], [ 4.196362813333545, 12.535251871965112, 0.0 ], [ 4.199470519332239, 12.531414794965288, 0.0 ], [ 4.200635444332264, 12.52188551196536, 0.0 ], [ 4.206085035329888, 12.517196316965718, 0.0 ], [ 4.210581631327735, 12.516137017965958, 0.0 ], [ 4.214418369326085, 12.513029649966152, 0.0 ], [ 4.218914964323966, 12.511970350966447, 0.0 ], [ 4.222751702322333, 12.508862983966683, 0.0 ], [ 4.229166667319348, 12.508333333967013, 0.0 ], [ 4.233333333317383, 12.508333333967247, 0.0 ], [ 4.233989291317484, 12.500959946967319, 0.0 ] ] ] } },
{ "type": "Feature", "properties": { "Stra_Catch": "Sokoto-Zamfara", "State": "Sokoto", "LGA": "Tambuwal, Kebbe", "Population": 25678, "Cleard_TOR": "Not Yet", "Status": "Not Yet awarded", "Start_Date": "1899-12-30T00:00:00", "End_Date": "1899-12-30T00:00:00", "Micr_Catch": "Tambuwal", "Size_Ha": 57015.662641499999, "Comments": null, "OBJECTID_1": 0, "Shape_Leng": 0.0, "Shape_Area": 0.0, "parent_strategic_name": "Sokoto-Zamfara", "clipped_to_state": true }, "geometry": { "type": "MultiPolygon", "coordinates": [ [ [ [ 4.571464708320323, 12.059332953541283, 0.0 ], [ 4.570195685696401, 12.078260972746921, 0.0 ], [ 4.566666666871538, 12.079166666648762, 0.0 ], [ 4.567019992609262, 12.081591118688653, 0.0 ], [ 4.567567540079065, 12.082142527289644, 0.0 ], [ 4.5748418, 12.0747081, 0.0 ], [ 4.5758043, 12.0724585, 0.0 ], [ 4.5767075, 12.0699483, 0.0 ], [ 4.5789036, 12.065787, 0.0 ], [ 4.585568840175487, 12.046419930685799, 0.0 ], [ 4.585404798919612, 12.046292792408986, 0.0 ], [ 4.571464708320323, 12.059332953541283, 0.0 ] ] ], [ [ [ 4.543389320583798, 12.143989562969564, 0.0 ], [ 4.538164615842566, 12.161752700786687, 0.0 ], [ 4.532168252826829, 12.192591398504348, 0.0 ], [ 4.532980007807552, 12.193408881274308, 0.0 ], [ 4.533686659282637, 12.202424452020795, 0.0 ], [ 4.537146674472325, 12.205908881274398, 0.0 ], [ 4.53785332594749, 12.214924452021023, 0.0 ], [ 4.541313341137201, 12.218408881274534, 0.0 ], [ 4.541666666874829, 12.220833333314443, 0.0 ], [ 4.540767076488721, 12.224338785788403, 0.0 ], [ 4.5333333335441, 12.224999999980863, 0.0 ], [ 4.532482401740833, 12.228315904386221, 0.0 ], [ 4.525708516651894, 12.230054050002289, 0.0 ], [ 4.524432712344257, 12.239710489889426, 0.0 ], [ 4.519356250977589, 12.245074654339184, 0.0 ], [ 4.519356250976973, 12.262065887431515, 0.0 ], [ 4.524580955716925, 12.28191947935059, 0.0 ], [ 4.525625705930016, 12.287143707255947, 0.0 ], [ 4.533016681879511, 12.292981147746897, 0.0 ], [ 4.540247440543692, 12.305634498577186, 0.0 ], [ 4.544563523844759, 12.308511887445764, 0.0 ], [ 4.560757785572179, 12.307980007577168, 0.0 ], [ 4.561420320073964, 12.307322115200966, 0.0 ], [ 4.5599189, 12.3047622, 0.0 ], [ 4.5565845, 12.3042225, 0.0 ], [ 4.5485458, 12.3014877, 0.0 ], [ 4.5490801, 12.3007838, 0.0 ], [ 4.5518903, 12.2970817, 0.0 ], [ 4.5570937, 12.289848, 0.0 ], [ 4.5563266, 12.2889846, 0.0 ], [ 4.5520365, 12.2841563, 0.0 ], [ 4.5519757, 12.2836761, 0.0 ], [ 4.5512582, 12.2780137, 0.0 ], [ 4.550389, 12.2692112, 0.0 ], [ 4.5492037, 12.2507558, 0.0 ], [ 4.5486764, 12.2508515, 0.0 ], [ 4.5436722, 12.2517597, 0.0 ], [ 4.5236633, 12.2558041, 0.0 ], [ 4.5211228, 12.2514023, 0.0 ], [ 4.5211906, 12.2508387, 0.0 ], [ 4.5214451, 12.25059, 0.0 ], [ 4.5220558, 12.2503911, 0.0 ], [ 4.5227683, 12.2502585, 0.0 ], [ 4.5232942, 12.2504077, 0.0 ], [ 4.5239388, 12.2501093, 0.0 ], [ 4.5243459, 12.2495954, 0.0 ], [ 4.524268, 12.2491099, 0.0 ], [ 4.5241084, 12.248783, 0.0 ], [ 4.5244816, 12.2482028, 0.0 ], [ 4.5249082, 12.2480946, 0.0 ], [ 4.5254468, 12.2472402, 0.0 ], [ 4.5253508, 12.2469826, 0.0 ], [ 4.5250941, 12.2467039, 0.0 ], [ 4.5250656, 12.2462719, 0.0 ], [ 4.52498, 12.2458259, 0.0 ], [ 4.5302505, 12.2396216, 0.0 ], [ 4.5621492, 12.229987, 0.0 ], [ 4.5559406, 12.2128923, 0.0 ], [ 4.5525851, 12.1543131, 0.0 ], [ 4.5509072, 12.1318055, 0.0 ], [ 4.551010437264341, 12.129314693609645, 0.0 ], [ 4.548882008968931, 12.129342115433605, 0.0 ], [ 4.543389320583798, 12.143989562969564, 0.0 ] ] ] ] } },
{ "type": "Feature", "properties": { "Stra_Catch": "Sokoto-Zamfara\r\n", "State": "Kebbi", "LGA": "Birnin Kebbi", "Population": 0, "Cleard_TOR": "Cleared", "Status": "Sent to the Bank", "Start_Date": "2025-03-10T00:00:00", "End_Date": "2025-05-04T00:00:00", "Micr_Catch": "Badariya/Dukku", "Size_Ha": 17890.8044032, "Comments": null, "OBJECTID_1": 0, "Shape_Leng": 0.0, "Shape_Area": 0.0, "parent_strategic_name": "Sokoto-Zamfara", "clipped_to_state": true }, "geometry": { "type": "Polygon", "coordinates": [ [ [ 4.233989291317484, 12.500959946967319, 0.0 ], [ 4.239456176315157, 12.496400621967625, 0.0 ], [ 4.244982401312698, 12.494982570967901, 0.0 ], [ 4.246400621312302, 12.489456176967972, 0.0 ], [ 4.249432712311141, 12.485543823968166, 0.0 ], [ 4.250567288310894, 12.48112284396821, 0.0 ], [ 4.253599379309678, 12.477210490968403, 0.0 ], [ 4.254166667310026, 12.46666666696842, 0.0 ], [ 4.253315734310626, 12.463350762968405, 0.0 ], [ 4.247789510313282, 12.461932712968121, 0.0 ], [ 4.243749999315321, 12.458801948967915, 0.0 ], [ 4.238246663317661, 12.463067287967577, 0.0 ], [ 4.225896368323634, 12.461826239966893, 0.0 ], [ 4.225000000324227, 12.45833333296684, 0.0 ], [ 4.206122843333482, 12.457766045965794, 0.0 ], [ 4.202210489335576, 12.454733954965549, 0.0 ], [ 4.185289509344106, 12.453599379964571, 0.0 ], [ 4.18013441334702, 12.44960394996424, 0.0 ], [ 4.178315735348391, 12.442517429964166, 0.0 ], [ 4.172789509351285, 12.441099379963793, 0.0 ], [ 4.164710489355967, 12.43390062096336, 0.0 ], [ 4.156122843360516, 12.432766045962794, 0.0 ], [ 4.152210489362762, 12.429733954962582, 0.0 ], [ 4.147789509365221, 12.428599379962272, 0.0 ], [ 4.143877156367479, 12.425567287962016, 0.0 ], [ 4.137500000370963, 12.424999999961654, 0.0 ], [ 4.137146674370172, 12.439924451961611, 0.0 ], [ 4.133686659371774, 12.443408881961345, 0.0 ], [ 4.133333333370413, 12.466666666961283, 0.0 ], [ 4.132980007370176, 12.473257785961261, 0.0 ], [ 4.119121127376701, 12.487142265960339, 0.0 ], [ 4.114242214379355, 12.48785332596003, 0.0 ], [ 4.104520671384036, 12.497548759959344, 0.0 ], [ 4.10381334038232, 12.527424452959263, 0.0 ], [ 4.100353326384004, 12.530908881959045, 0.0 ], [ 4.099646674384031, 12.535757785958964, 0.0 ], [ 4.094123501386739, 12.541308593958588, 0.0 ], [ 4.089242214389373, 12.542019992958259, 0.0 ], [ 4.085757785391114, 12.545480007957989, 0.0 ], [ 4.072575547398532, 12.546186659957081, 0.0 ], [ 4.067021518401316, 12.551713053956696, 0.0 ], [ 4.06666666640104, 12.558333333956654, 0.0 ], [ 4.067024400400627, 12.560788302956663, 0.0 ], [ 4.076742214394355, 12.570480007957356, 0.0 ], [ 4.085757785389246, 12.571186659957947, 0.0 ], [ 4.093408881384447, 12.578813340958495, 0.0 ], [ 4.102424452379389, 12.579519992959129, 0.0 ], [ 4.105908881377261, 12.582980007959335, 0.0 ], [ 4.112500000373661, 12.583333333959757, 0.0 ], [ 4.115720452371967, 12.582574802959996, 0.0 ], [ 4.120303853369864, 12.577248128960306, 0.0 ], [ 4.121362813369915, 12.568585204960367, 0.0 ], [ 4.124470520368485, 12.564748128960611, 0.0 ], [ 4.125772603368151, 12.559219699960666, 0.0 ], [ 4.130267334365873, 12.557819621960999, 0.0 ], [ 4.139418369360478, 12.566137017961575, 0.0 ], [ 4.14391496435803, 12.567196316961825, 0.0 ], [ 4.149059211355111, 12.571362983962194, 0.0 ], [ 4.152248298353542, 12.570303684962377, 0.0 ], [ 4.157392544351152, 12.566137017962715, 0.0 ], [ 4.173081631343111, 12.567196316963642, 0.0 ], [ 4.17691836934095, 12.570303684963905, 0.0 ], [ 4.181414964338673, 12.571362983964194, 0.0 ], [ 4.185251702336592, 12.5744703509644, 0.0 ], [ 4.189748298334276, 12.575529649964633, 0.0 ], [ 4.194205898331893, 12.57913987996494, 0.0 ], [ 4.204696146327488, 12.567766656965549, 0.0 ], [ 4.20363718632869, 12.5560852049655, 0.0 ], [ 4.200529479330464, 12.552248128965354, 0.0 ], [ 4.199470519331234, 12.547751871965268, 0.0 ], [ 4.19530385333359, 12.542607286965048, 0.0 ], [ 4.196362813333545, 12.535251871965112, 0.0 ], [ 4.199470519332239, 12.531414794965288, 0.0 ], [ 4.200635444332264, 12.52188551196536, 0.0 ], [ 4.206085035329888, 12.517196316965718, 0.0 ], [ 4.210581631327735, 12.516137017965958, 0.0 ], [ 4.214418369326085, 12.513029649966152, 0.0 ], [ 4.218914964323966, 12.511970350966447, 0.0 ], [ 4.222751702322333, 12.508862983966683, 0.0 ], [ 4.229166667319348, 12.508333333967013, 0.0 ], [ 4.233333333317383, 12.508333333967247, 0.0 ], [ 4.233989291317484, 12.500959946967319, 0.0 ] ] ] } },
{ "type": "Feature", "properties": { "Stra_Catch": "Sokoto-Zamfara", "State": "Kebbi", "LGA": "Gwandu", "Population": 0, "Cleard_TOR": "Cleared", "Status": "Not yet Submitted", "Start_Date": "2025-03-10T00:00:00", "End_Date": "1899-12-30T00:00:00", "Micr_Catch": "Dalijan", "Size_Ha": 25877.876542000002, "Comments": null, "OBJECTID_1": 0, "Shape_Leng": 0.0, "Shape_Area": 0.0, "parent_strategic_name": "Sokoto-Zamfara", "clipped_to_state": true }, "geometry": { "type": "Polygon", "coordinates": [ [ [ 4.733950975142575, 12.593826972986621, 0.0 ], [ 4.732361687143109, 12.588268365986574, 0.0 ], [ 4.721627468145738, 12.586705864986332, 0.0 ], [ 4.720215691146299, 12.577006361986321, 0.0 ], [ 4.717284308147143, 12.572993639986223, 0.0 ], [ 4.716049025147701, 12.564506361986174, 0.0 ], [ 4.713117641148505, 12.560493639986129, 0.0 ], [ 4.712500000148697, 12.558333333986106, 0.0 ], [ 4.697575548152396, 12.557980007985728, 0.0 ], [ 4.694091118153412, 12.554519992985602, 0.0 ], [ 4.68924221415463, 12.553813341985498, 0.0 ], [ 4.677424451157981, 12.542019992985161, 0.0 ], [ 4.672575548159275, 12.541313341984999, 0.0 ], [ 4.66909111816027, 12.537853325984942, 0.0 ], [ 4.643408881167114, 12.537146674984173, 0.0 ], [ 4.639924452168199, 12.533686659984102, 0.0 ], [ 4.610075547176531, 12.532980007983173, 0.0 ], [ 4.606591119177599, 12.529519992983095, 0.0 ], [ 4.59828711618003, 12.528813341982802, 0.0 ], [ 4.594091119181097, 12.532980007982671, 0.0 ], [ 4.591666666181787, 12.533333333982632, 0.0 ], [ 4.589242214182493, 12.532980007982514, 0.0 ], [ 4.585757785183662, 12.529519992982427, 0.0 ], [ 4.564242214190097, 12.528813341981696, 0.0 ], [ 4.558689032192007, 12.523287963981554, 0.0 ], [ 4.557980007192494, 12.514242215981534, 0.0 ], [ 4.552457852194396, 12.508692423981339, 0.0 ], [ 4.54828711619572, 12.507980007981196, 0.0 ], [ 4.544091119196865, 12.512146674981047, 0.0 ], [ 4.541666666197609, 12.512499999980951, 0.0 ], [ 4.535339864199588, 12.513117472980706, 0.0 ], [ 4.522925144203138, 12.524444580980306, 0.0 ], [ 4.518826803204538, 12.521450805980169, 0.0 ], [ 4.510339864207373, 12.520215860979841, 0.0 ], [ 4.506326803208775, 12.517284138979665, 0.0 ], [ 4.47700653121864, 12.516049194978594, 0.0 ], [ 4.471781921220616, 12.51223246297838, 0.0 ], [ 4.470045810220715, 12.524160766978341, 0.0 ], [ 4.462030877223462, 12.525617472978023, 0.0 ], [ 4.456326802225586, 12.521450805977805, 0.0 ], [ 4.437499999232338, 12.520833333977009, 0.0 ], [ 4.437853326231899, 12.527424452977025, 0.0 ], [ 4.441313341230541, 12.530908881977185, 0.0 ], [ 4.442019992229172, 12.556591118977202, 0.0 ], [ 4.445480008227817, 12.560075547977309, 0.0 ], [ 4.44583333322758, 12.562499999977337, 0.0 ], [ 4.446400621227125, 12.568877156977326, 0.0 ], [ 4.449432711225871, 12.572789510977469, 0.0 ], [ 4.450914679225116, 12.578564113977546, 0.0 ], [ 4.485543823213245, 12.579733954978868, 0.0 ], [ 4.497789510208764, 12.591099378979344, 0.0 ], [ 4.502210490207242, 12.592233954979475, 0.0 ], [ 4.507586669205331, 12.596400621979662, 0.0 ], [ 4.514710490203077, 12.595266045979953, 0.0 ], [ 4.518750000201948, 12.592135280980063, 0.0 ], [ 4.52278951020053, 12.595266045980248, 0.0 ], [ 4.570833333185796, 12.595833333981917, 0.0 ], [ 4.582424079182336, 12.596456909982246, 0.0 ], [ 4.584184265181601, 12.603315904982317, 0.0 ], [ 4.587500000180614, 12.604166666982449, 0.0 ], [ 4.589710489179947, 12.604733954982477, 0.0 ], [ 4.593622843178744, 12.607766045982626, 0.0 ], [ 4.606377156175101, 12.608900621982997, 0.0 ], [ 4.610289509173878, 12.611932711983153, 0.0 ], [ 4.614710489172631, 12.613067287983258, 0.0 ], [ 4.618622843171414, 12.616099378983401, 0.0 ], [ 4.6313771561679, 12.61723395498381, 0.0 ], [ 4.636753336166302, 12.621400621983963, 0.0 ], [ 4.661589050159769, 12.6202161999847, 0.0 ], [ 4.663350931159511, 12.613350761984714, 0.0 ], [ 4.668877156158162, 12.61193271198489, 0.0 ], [ 4.68123864015533, 12.600459797985218, 0.0 ], [ 4.685289510154229, 12.603599378985356, 0.0 ], [ 4.691666667152586, 12.604166666985545, 0.0 ], [ 4.696097988151476, 12.605303954985658, 0.0 ], [ 4.691099379152499, 12.61175333698549, 0.0 ], [ 4.69223395515204, 12.618877156985523, 0.0 ], [ 4.695266045151151, 12.622789510985625, 0.0 ], [ 4.696400621150774, 12.627210489985629, 0.0 ], [ 4.699432712149878, 12.631122843985727, 0.0 ], [ 4.700967746149362, 12.637103949985738, 0.0 ], [ 4.706122843147991, 12.641099378985867, 0.0 ], [ 4.70833333314742, 12.641666666985937, 0.0 ], [ 4.735757785140898, 12.641313340986668, 0.0 ], [ 4.739242214140202, 12.637853326986775, 0.0 ], [ 4.744091118139071, 12.637146673986887, 0.0 ], [ 4.747575548138372, 12.633686659986937, 0.0 ], [ 4.754166667136881, 12.633333333987114, 0.0 ], [ 4.754166667137096, 12.624999999987137, 0.0 ], [ 4.754166667137201, 12.620833333987136, 0.0 ], [ 4.752006530137736, 12.620215860987102, 0.0 ], [ 4.747993469138709, 12.617284139986964, 0.0 ], [ 4.742593045139984, 12.615740288986824, 0.0 ], [ 4.741049025140501, 12.610339694986809, 0.0 ], [ 4.738117641141268, 12.606326972986713, 0.0 ], [ 4.736882358141809, 12.597839694986719, 0.0 ], [ 4.733950975142575, 12.593826972986621, 0.0 ] ] ] } },
{ "type": "Feature", "properties": { "Stra_Catch": "Sokoto-Zamfara", "State": "Kebbi", "LGA": "Kalgo", "Population": 0, "Cleard_TOR": "Cleared", "Status": "Not yet Submitted", "Start_Date": "2025-03-10T00:00:00", "End_Date": "1899-12-30T00:00:00", "Micr_Catch": "Kalgo", "Size_Ha": 47445.188635500002, "Comments": null, "OBJECTID_1": 0, "Shape_Leng": 0.0, "Shape_Area": 0.0, "parent_strategic_name": "Sokoto-Zamfara", "clipped_to_state": true }, "geometry": { "type": "Polygon", "coordinates": [ [ [ 4.353813341267892, 12.444091118973466, 0.0 ], [ 4.354519992267869, 12.439242214973477, 0.0 ], [ 4.3579800072666, 12.435757785973671, 0.0 ], [ 4.358687845267134, 12.418380058973726, 0.0 ], [ 4.364242215265172, 12.412853325973977, 0.0 ], [ 4.366666666264233, 12.412499999974047, 0.0 ], [ 4.366666666264433, 12.408333333974104, 0.0 ], [ 4.367262438265127, 12.388510132974142, 0.0 ], [ 4.372789510263124, 12.383900620974398, 0.0 ], [ 4.378505452260898, 12.382433743974611, 0.0 ], [ 4.379166666260973, 12.375000000974666, 0.0 ], [ 4.372789510263571, 12.374432712974372, 0.0 ], [ 4.367634412265797, 12.370437283974157, 0.0 ], [ 4.365770297266911, 12.363173760974076, 0.0 ], [ 4.353420003272058, 12.361932712973513, 0.0 ], [ 4.348043823274102, 12.366099379973251, 0.0 ], [ 4.344896104275337, 12.367233954973139, 0.0 ], [ 4.335543823279669, 12.358900620972666, 0.0 ], [ 4.299253337295507, 12.357766045970918, 0.0 ], [ 4.293877156297715, 12.361932712970635, 0.0 ], [ 4.287500000300507, 12.362500000970321, 0.0 ], [ 4.285289510301554, 12.3619327129702, 0.0 ], [ 4.280134413304113, 12.357937283969951, 0.0 ], [ 4.278599379305166, 12.351956176969853, 0.0 ], [ 4.271400621308901, 12.343877156969519, 0.0 ], [ 4.269982401309855, 12.338350762969435, 0.0 ], [ 4.266666667311431, 12.337500000969234, 0.0 ], [ 4.26424221431258, 12.337146674969123, 0.0 ], [ 4.256591118316639, 12.329519992968764, 0.0 ], [ 4.251742214318947, 12.328813340968487, 0.0 ], [ 4.248257785320779, 12.325353325968273, 0.0 ], [ 4.227453783330919, 12.324646674967152, 0.0 ], [ 4.223257785332737, 12.328813340966921, 0.0 ], [ 4.219120449334755, 12.329519992966704, 0.0 ], [ 4.214924452337079, 12.325353325966425, 0.0 ], [ 4.212500000338296, 12.325000000966291, 0.0 ], [ 4.211649068338929, 12.321684095966283, 0.0 ], [ 4.208333333340646, 12.320833333966069, 0.0 ], [ 4.208333333340895, 12.316666666966078, 0.0 ], [ 4.208686658342112, 12.293408881966128, 0.0 ], [ 4.212853325340254, 12.289213053966396, 0.0 ], [ 4.212146674340883, 12.285075547966356, 0.0 ], [ 4.208686658342821, 12.281591118966137, 0.0 ], [ 4.20833333334491, 12.250000000966164, 0.0 ], [ 4.207980007345506, 12.243408881966145, 0.0 ], [ 4.204519992347459, 12.23992445296598, 0.0 ], [ 4.204166667347794, 12.237500000965953, 0.0 ], [ 4.201956176348993, 12.236932712965812, 0.0 ], [ 4.198043823351165, 12.233900621965565, 0.0 ], [ 4.189456176355693, 12.232766045965096, 0.0 ], [ 4.185407850358038, 12.229628498964866, 0.0 ], [ 4.175919765362542, 12.238082886964309, 0.0 ], [ 4.174432712362963, 12.243877156964178, 0.0 ], [ 4.167233955366273, 12.251956176963759, 0.0 ], [ 4.165779283366726, 12.257624986963636, 0.0 ], [ 4.156122843371848, 12.258900621963054, 0.0 ], [ 4.152210489373759, 12.261932712962771, 0.0 ], [ 4.14778950937614, 12.263067288962521, 0.0 ], [ 4.14387715637806, 12.266099378962249, 0.0 ], [ 4.14166666637926, 12.26666666696212, 0.0 ], [ 4.118408881392285, 12.267019991960618, 0.0 ], [ 4.110757785396113, 12.274646674960112, 0.0 ], [ 4.097575547403735, 12.275353325959259, 0.0 ], [ 4.094091119405489, 12.278813340958992, 0.0 ], [ 4.085075547410734, 12.279519991958407, 0.0 ], [ 4.077424452414758, 12.287146674957821, 0.0 ], [ 4.075000000416167, 12.28750000095769, 0.0 ], [ 4.075567288415373, 12.293877156957704, 0.0 ], [ 4.083916219409733, 12.303247069958267, 0.0 ], [ 4.09093254940548, 12.305047607958745, 0.0 ], [ 4.092233954404112, 12.313437228958811, 0.0 ], [ 4.083900621408324, 12.322789509958245, 0.0 ], [ 4.08276604540804, 12.335543823958149, 0.0 ], [ 4.07556728841173, 12.343622843957609, 0.0 ], [ 4.075000000411891, 12.345833333957602, 0.0 ], [ 4.075358072411481, 12.348290337957572, 0.0 ], [ 4.080908881407805, 12.353813340957963, 0.0 ], [ 4.083333333406371, 12.35416666795815, 0.0 ], [ 4.08992445240251, 12.354519992958599, 0.0 ], [ 4.11424221438693, 12.37881334096021, 0.0 ], [ 4.120833333383231, 12.379166667960613, 0.0 ], [ 4.12140062138186, 12.393877156960665, 0.0 ], [ 4.132766045374797, 12.406122843961347, 0.0 ], [ 4.133970981372951, 12.42409430696144, 0.0 ], [ 4.137500000370963, 12.424999999961654, 0.0 ], [ 4.143877156367479, 12.425567287962016, 0.0 ], [ 4.147789509365221, 12.428599379962272, 0.0 ], [ 4.152210489362762, 12.429733954962582, 0.0 ], [ 4.156122843360516, 12.432766045962794, 0.0 ], [ 4.164710489355967, 12.43390062096336, 0.0 ], [ 4.172789509351285, 12.441099379963793, 0.0 ], [ 4.178315735348391, 12.442517429964166, 0.0 ], [ 4.18013441334702, 12.44960394996424, 0.0 ], [ 4.185289509344106, 12.453599379964571, 0.0 ], [ 4.202210489335576, 12.454733954965549, 0.0 ], [ 4.206122843333482, 12.457766045965794, 0.0 ], [ 4.225000000324227, 12.45833333296684, 0.0 ], [ 4.225896368323634, 12.461826239966893, 0.0 ], [ 4.238246663317661, 12.463067287967577, 0.0 ], [ 4.243749999315321, 12.458801948967915, 0.0 ], [ 4.247789510313282, 12.461932712968121, 0.0 ], [ 4.253315734310626, 12.463350762968405, 0.0 ], [ 4.254166667310026, 12.46666666696842, 0.0 ], [ 4.273043823301348, 12.467233954969437, 0.0 ], [ 4.276956176299454, 12.470266045969661, 0.0 ], [ 4.281377156297436, 12.471400620969872, 0.0 ], [ 4.293622843291374, 12.482766045970495, 0.0 ], [ 4.299604119288685, 12.48430107997077, 0.0 ], [ 4.303599379286695, 12.489456176970961, 0.0 ], [ 4.305381605285551, 12.496400621971086, 0.0 ], [ 4.327210490276338, 12.495266044972148, 0.0 ], [ 4.33112284327489, 12.492233954972361, 0.0 ], [ 4.339710490271402, 12.491099378972743, 0.0 ], [ 4.34362284326992, 12.488067287972912, 0.0 ], [ 4.345833333269026, 12.487499999973059, 0.0 ], [ 4.346186659269242, 12.480908881973065, 0.0 ], [ 4.349985419267876, 12.477083333973237, 0.0 ], [ 4.345480007269925, 12.472546386973011, 0.0 ], [ 4.346186659270677, 12.451742214973066, 0.0 ], [ 4.353813341267892, 12.444091118973466, 0.0 ] ] ] } },
{ "type": "Feature", "properties": { "Stra_Catch": "Sokoto-Zamfara\r", "State": "Kebbi", "LGA": "Augie", "Population": 0, "Cleard_TOR": "Cleared", "Status": "Not yet Submitted", "Start_Date": "2025-03-10T00:00:00", "End_Date": "1899-12-30T00:00:00", "Micr_Catch": "Tsilela/Argungu", "Size_Ha": 29043.024463099999, "Comments": null, "OBJECTID_1": 0, "Shape_Leng": 0.0, "Shape_Area": 0.0, "parent_strategic_name": "Sokoto-Zamfara", "clipped_to_state": true }, "geometry": { "type": "Polygon", "coordinates": [ [ [ 4.548257785185958, 12.779519992981019, 0.0 ], [ 4.552083333184703, 12.783318752981144, 0.0 ], [ 4.555908881183728, 12.779519992981283, 0.0 ], [ 4.558333333183048, 12.779166666981325, 0.0 ], [ 4.558333333183198, 12.775000000981329, 0.0 ], [ 4.558686659183162, 12.772575547981393, 0.0 ], [ 4.56285332618209, 12.768379720981491, 0.0 ], [ 4.56214667418248, 12.764242214981463, 0.0 ], [ 4.557980007183792, 12.760046387981339, 0.0 ], [ 4.558686659183752, 12.75590888198135, 0.0 ], [ 4.562146674182896, 12.752424451981518, 0.0 ], [ 4.562500000182861, 12.750000000981508, 0.0 ], [ 4.581591119177359, 12.750353325982134, 0.0 ], [ 4.585075547176236, 12.75381334098228, 0.0 ], [ 4.589955139174847, 12.75452440098239, 0.0 ], [ 4.599646674171833, 12.7642422149827, 0.0 ], [ 4.600358073171485, 12.769123670982738, 0.0 ], [ 4.60590888116979, 12.774646674982904, 0.0 ], [ 4.616666666166877, 12.775000000983221, 0.0 ], [ 4.644915263159406, 12.774411010984094, 0.0 ], [ 4.646400621159227, 12.768622843984145, 0.0 ], [ 4.653599379157639, 12.760543822984351, 0.0 ], [ 4.655017598157402, 12.755017428984436, 0.0 ], [ 4.660543823156078, 12.753599378984559, 0.0 ], [ 4.664456176155151, 12.750567288984692, 0.0 ], [ 4.686509535149685, 12.749380832985286, 0.0 ], [ 4.691099379148728, 12.743877156985427, 0.0 ], [ 4.692517598148555, 12.738350762985453, 0.0 ], [ 4.699417114146909, 12.736580403985668, 0.0 ], [ 4.708900621144958, 12.725937228985945, 0.0 ], [ 4.707694837145733, 12.709307522985915, 0.0 ], [ 4.702210489147141, 12.704733954985759, 0.0 ], [ 4.696229213148635, 12.703198920985569, 0.0 ], [ 4.692233955149785, 12.698043822985474, 0.0 ], [ 4.690698920150315, 12.692062717985445, 0.0 ], [ 4.685543823151704, 12.688067288985323, 0.0 ], [ 4.68333333315229, 12.687500000985246, 0.0 ], [ 4.679166667153326, 12.687500000985128, 0.0 ], [ 4.678315734153405, 12.690815904985081, 0.0 ], [ 4.672789510154762, 12.692233954984967, 0.0 ], [ 4.668877156155697, 12.695266045984823, 0.0 ], [ 4.651214938160201, 12.696400621984338, 0.0 ], [ 4.649112616160958, 12.688208346984281, 0.0 ], [ 4.639456176163581, 12.686932712983973, 0.0 ], [ 4.635543823164682, 12.68390062198389, 0.0 ], [ 4.614456176170419, 12.682766045983223, 0.0 ], [ 4.606377156172917, 12.675567288983004, 0.0 ], [ 4.601956176174166, 12.674432712982844, 0.0 ], [ 4.598043823175389, 12.671400621982695, 0.0 ], [ 4.593622843176656, 12.670266045982585, 0.0 ], [ 4.589710489177844, 12.667233954982439, 0.0 ], [ 4.583333333179703, 12.666666666982278, 0.0 ], [ 4.58275349917979, 12.668864610982245, 0.0 ], [ 4.575579833181613, 12.676968722982016, 0.0 ], [ 4.574345228181313, 12.694955443981964, 0.0 ], [ 4.567918905183159, 12.696413167981724, 0.0 ], [ 4.565748427184099, 12.688185967981635, 0.0 ], [ 4.553223673187823, 12.686920166981222, 0.0 ], [ 4.539697943191412, 12.699420166980737, 0.0 ], [ 4.535302056192721, 12.700579833980605, 0.0 ], [ 4.527197943194936, 12.707753499980285, 0.0 ], [ 4.518635389197565, 12.70891316797999, 0.0 ], [ 4.514697943198669, 12.711920165979835, 0.0 ], [ 4.506135389201342, 12.713079833979538, 0.0 ], [ 4.500610521202913, 12.717639498979315, 0.0 ], [ 4.500000000202335, 12.737500000979304, 0.0 ], [ 4.502424452201566, 12.737853325979387, 0.0 ], [ 4.505908881200301, 12.741313340979486, 0.0 ], [ 4.508333333199539, 12.741666666979617, 0.0 ], [ 4.511649068198469, 12.74251742897971, 0.0 ], [ 4.512500000198067, 12.745833333979755, 0.0 ], [ 4.516666666196775, 12.74583333397991, 0.0 ], [ 4.520833333195479, 12.745833333980062, 0.0 ], [ 4.520833333195324, 12.750000000980053, 0.0 ], [ 4.516666666196619, 12.750000000979901, 0.0 ], [ 4.516313340196655, 12.752424451979909, 0.0 ], [ 4.512853326197558, 12.755908881979737, 0.0 ], [ 4.512146674197468, 12.764924451979738, 0.0 ], [ 4.508686659198383, 12.768408881979623, 0.0 ], [ 4.507980007198456, 12.773257784979576, 0.0 ], [ 4.502456835199929, 12.778808593979367, 0.0 ], [ 4.500000000200713, 12.779166666979245, 0.0 ], [ 4.500567288200634, 12.77695617697929, 0.0 ], [ 4.504733954199534, 12.771579997979455, 0.0 ], [ 4.503522237200509, 12.75507066497943, 0.0 ], [ 4.500000000201688, 12.754166666979289, 0.0 ], [ 4.495833333203016, 12.754166666979135, 0.0 ], [ 4.494618394203568, 12.749432712979074, 0.0 ], [ 4.475981479209543, 12.750630018978354, 0.0 ], [ 4.471400621210826, 12.756122843978204, 0.0 ], [ 4.47026604521088, 12.764710489978121, 0.0 ], [ 4.458900621214118, 12.776956176977681, 0.0 ], [ 4.457766045214285, 12.781377156977653, 0.0 ], [ 4.450567287216399, 12.789456176977328, 0.0 ], [ 4.449344041216234, 12.803206719977284, 0.0 ], [ 4.443877157217842, 12.807766045977047, 0.0 ], [ 4.435289510220753, 12.808900620976729, 0.0 ], [ 4.43137715622194, 12.811932712976523, 0.0 ], [ 4.406122843230698, 12.813067287975484, 0.0 ], [ 4.402210490231979, 12.816099379975272, 0.0 ], [ 4.395833333234207, 12.816666667975001, 0.0 ], [ 4.395480008233847, 12.827424451974998, 0.0 ], [ 4.392019992234911, 12.830908881974862, 0.0 ], [ 4.391666666234945, 12.833333333974796, 0.0 ], [ 4.394982401233714, 12.834184095974972, 0.0 ], [ 4.396400621232959, 12.839710489975044, 0.0 ], [ 4.399432712231664, 12.843622843975137, 0.0 ], [ 4.400708516230815, 12.853279283975201, 0.0 ], [ 4.406377156228759, 12.854733954975423, 0.0 ], [ 4.410289510227213, 12.857766045975607, 0.0 ], [ 4.443877157215663, 12.858900620977, 0.0 ], [ 4.447789510214262, 12.86193271297717, 0.0 ], [ 4.45352088021228, 12.863403659977429, 0.0 ], [ 4.466099378207588, 12.876956176977918, 0.0 ], [ 4.467298550206509, 12.894839477977932, 0.0 ], [ 4.476956177203032, 12.903599379978317, 0.0 ], [ 4.479166666202302, 12.904166666978368, 0.0 ], [ 4.479519992203336, 12.876742214978409, 0.0 ], [ 4.482980008202341, 12.873257785978579, 0.0 ], [ 4.48368665920234, 12.868408881978581, 0.0 ], [ 4.487146674201361, 12.864924451978702, 0.0 ], [ 4.487500000201549, 12.858333333978756, 0.0 ], [ 4.490815735200542, 12.857482570978869, 0.0 ], [ 4.492562188200216, 12.850677150978964, 0.0 ], [ 4.510289510195403, 12.83390062097962, 0.0 ], [ 4.516931321193442, 12.832196045979844, 0.0 ], [ 4.511932712195177, 12.825746663979693, 0.0 ], [ 4.51355438219486, 12.821519639979769, 0.0 ], [ 4.524154323191694, 12.820119221980152, 0.0 ], [ 4.525201416191565, 12.815447998980193, 0.0 ], [ 4.521400621192883, 12.810543823980021, 0.0 ], [ 4.520833333193282, 12.804166667980015, 0.0 ], [ 4.521186659193248, 12.801742214980035, 0.0 ], [ 4.528813340191254, 12.794091118980292, 0.0 ], [ 4.529524400191234, 12.789211696980331, 0.0 ], [ 4.539950731188449, 12.778813340980708, 0.0 ], [ 4.548257785185958, 12.779519992981019, 0.0 ] ] ] } },
{ "type": "Feature", "properties": { "Stra_Catch": "Golbin-ka", "State": "Kebbi", "LGA": "Shanga", "Population": 0, "Cleard_TOR": "Cleared", "Status": "Not yet Submitted", "Start_Date": "2025-03-10T00:00:00", "End_Date": "1899-12-30T00:00:00", "Micr_Catch": "Bakin Turu", "Size_Ha": 26797.0672509, "Comments": null, "OBJECTID_1": 0, "Shape_Leng": 0.0, "Shape_Area": 0.0, "parent_strategic_name": "Golbin-Ka", "clipped_to_state": true }, "geometry": { "type": "Polygon", "coordinates": [ [ [ 4.877006361144022, 11.024382527990541, 0.0 ], [ 4.872993639145105, 11.021450805990497, 0.0 ], [ 4.866780599146656, 11.019674682990368, 0.0 ], [ 4.86188252814801, 11.01296929299024, 0.0 ], [ 4.863117472147784, 11.010339694990266, 0.0 ], [ 4.867284139146844, 11.004635959990351, 0.0 ], [ 4.866049194147269, 10.997839694990342, 0.0 ], [ 4.863117472148121, 10.993826971990272, 0.0 ], [ 4.861882528148487, 10.989506361990269, 0.0 ], [ 4.858950805149354, 10.985493638990201, 0.0 ], [ 4.858333333149569, 10.983333333990226, 0.0 ], [ 4.856122843150104, 10.982766045990177, 0.0 ], [ 4.843877156153544, 10.971400621989924, 0.0 ], [ 4.831122843156912, 10.970266045989696, 0.0 ], [ 4.82721049015799, 10.967233954989597, 0.0 ], [ 4.822789510159239, 10.966099378989536, 0.0 ], [ 4.81471049016156, 10.958900621989356, 0.0 ], [ 4.810289510162834, 10.957766045989292, 0.0 ], [ 4.806377156163952, 10.954733954989189, 0.0 ], [ 4.80066121416558, 10.953267076989039, 0.0 ], [ 4.800000000165939, 10.94583333398905, 0.0 ], [ 4.800353325166074, 10.935075547989067, 0.0 ], [ 4.804152086165087, 10.93124999998914, 0.0 ], [ 4.800353325166247, 10.927424451989054, 0.0 ], [ 4.800000000166781, 10.908333333989107, 0.0 ], [ 4.799646674166992, 10.901742214989095, 0.0 ], [ 4.795847913168164, 10.897916666989012, 0.0 ], [ 4.800353325167011, 10.893379720989076, 0.0 ], [ 4.799646674167272, 10.889242214989054, 0.0 ], [ 4.79168056916973, 10.881250677988943, 0.0 ], [ 4.795480007168721, 10.877424452989011, 0.0 ], [ 4.796186659168838, 10.864242214989023, 0.0 ], [ 4.807980007165751, 10.852424452989252, 0.0 ], [ 4.808333333165836, 10.84583333398932, 0.0 ], [ 4.793673197169934, 10.846450805988995, 0.0 ], [ 4.78549346917216, 10.853549194988782, 0.0 ], [ 4.781173197173355, 10.854784139988707, 0.0 ], [ 4.77716013617443, 10.8577158609886, 0.0 ], [ 4.768673197176931, 10.858950805988437, 0.0 ], [ 4.764660136178029, 10.861882527988316, 0.0 ], [ 4.738311258186012, 10.86317647398775, 0.0 ], [ 4.736731804186205, 10.874028184987683, 0.0 ], [ 4.733333333187264, 10.875000000987615, 0.0 ], [ 4.729166667188558, 10.875000000987518, 0.0 ], [ 4.72916666718835, 10.883333333987501, 0.0 ], [ 4.733597988186914, 10.8844706219876, 0.0 ], [ 4.729733954187983, 10.88945617698753, 0.0 ], [ 4.728599379188246, 10.89387715698752, 0.0 ], [ 4.725567288189069, 10.897789509987419, 0.0 ], [ 4.724432712189237, 10.906377156987396, 0.0 ], [ 4.721293131190089, 10.91042819598731, 0.0 ], [ 4.732766045186227, 10.922789509987549, 0.0 ], [ 4.73333333318601, 10.925000000987588, 0.0 ], [ 4.732482401186141, 10.928315904987546, 0.0 ], [ 4.725661214188253, 10.930066257987413, 0.0 ], [ 4.725000000188223, 10.937500000987372, 0.0 ], [ 4.724646674188183, 10.944091118987377, 0.0 ], [ 4.714955139190966, 10.953808933987123, 0.0 ], [ 4.712500000191727, 10.954166666987053, 0.0 ], [ 4.708333333193056, 10.954166666986945, 0.0 ], [ 4.708333333192947, 10.958333333986936, 0.0 ], [ 4.70906846719254, 10.965864054986973, 0.0 ], [ 4.718826802189386, 10.96728413898723, 0.0 ], [ 4.72384117918774, 10.970947265987327, 0.0 ], [ 4.725617641187037, 10.97716030598734, 0.0 ], [ 4.728549025186053, 10.981173027987438, 0.0 ], [ 4.729843648185076, 11.003169080987462, 0.0 ], [ 4.735493469183331, 11.004784138987567, 0.0 ], [ 4.743673197180643, 11.011882527987773, 0.0 ], [ 4.74799346917935, 11.013117471987846, 0.0 ], [ 4.760339864175438, 11.024382527988141, 0.0 ], [ 4.76466013617412, 11.025617471988211, 0.0 ], [ 4.768673197172911, 11.028549194988315, 0.0 ], [ 4.771302456172126, 11.029784138988406, 0.0 ], [ 4.777083333170576, 11.025561523988534, 0.0 ], [ 4.782174513169005, 11.029280598988636, 0.0 ], [ 4.783950975168369, 11.035493638988649, 0.0 ], [ 4.791049025166212, 11.043673027988822, 0.0 ], [ 4.79228430816574, 11.047993638988812, 0.0 ], [ 4.795215691164868, 11.052006361988887, 0.0 ], [ 4.796450975164292, 11.060493638988936, 0.0 ], [ 4.816049025158511, 11.081173027989289, 0.0 ], [ 4.817284308158116, 11.085493638989339, 0.0 ], [ 4.820947265156991, 11.090508016989411, 0.0 ], [ 4.828489685154945, 11.09266425298958, 0.0 ], [ 4.829166666154546, 11.104166666989597, 0.0 ], [ 4.831377156153939, 11.104733954989596, 0.0 ], [ 4.835289510152878, 11.107766045989694, 0.0 ], [ 4.843877156150665, 11.108900620989846, 0.0 ], [ 4.846111267150008, 11.110632066989901, 0.0 ], [ 4.850389999149009, 11.10849289998999, 0.0 ], [ 4.859366068846525, 11.104004560087176, 0.0 ], [ 4.8606739, 11.1033506, 0.0 ], [ 4.8632956, 11.1000738, 0.0 ], [ 4.8765616, 11.0916948, 0.0 ], [ 4.887495962600835, 11.089578825385388, 0.0 ], [ 4.882766045141431, 11.084270562990644, 0.0 ], [ 4.883900621141246, 11.081122843990642, 0.0 ], [ 4.886932711140564, 11.077210489990685, 0.0 ], [ 4.888067287140404, 11.072789510990727, 0.0 ], [ 4.891099378139716, 11.068877156990766, 0.0 ], [ 4.892517429139513, 11.063350762990835, 0.0 ], [ 4.89583333313871, 11.06249999999088, 0.0 ], [ 4.895215861138992, 11.056173027990859, 0.0 ], [ 4.888117472140836, 11.047993638990711, 0.0 ], [ 4.886811998141592, 11.025809393990695, 0.0 ], [ 4.877006361144022, 11.024382527990541, 0.0 ] ] ] } },
{ "type": "Feature", "properties": { "Stra_Catch": "Golbin-ka/Malenda", "State": "Kebbi", "LGA": "Yauri", "Population": 0, "Cleard_TOR": "Cleared", "Status": "Not yet Submitted", "Start_Date": "2025-03-10T00:00:00", "End_Date": "1899-12-30T00:00:00", "Micr_Catch": "Tungan Bindiga/Yauri", "Size_Ha": 19998.837539, "Comments": null, "OBJECTID_1": 0, "Shape_Leng": 0.0, "Shape_Area": 0.0, "parent_strategic_name": "Golbin-Ka", "clipped_to_state": true }, "geometry": { "type": "Polygon", "coordinates": [ [ [ 4.764660136178029, 10.861882527988316, 0.0 ], [ 4.768673197176931, 10.858950805988437, 0.0 ], [ 4.77716013617443, 10.8577158609886, 0.0 ], [ 4.781173197173355, 10.854784139988707, 0.0 ], [ 4.78549346917216, 10.853549194988782, 0.0 ], [ 4.793673197169934, 10.846450805988995, 0.0 ], [ 4.808333333165836, 10.84583333398932, 0.0 ], [ 4.808686659165864, 10.839242214989323, 0.0 ], [ 4.820480008162862, 10.827424452989545, 0.0 ], [ 4.821186659162747, 10.822575547989551, 0.0 ], [ 4.824646674161903, 10.819091118989656, 0.0 ], [ 4.824999999161937, 10.812499999989658, 0.0 ], [ 4.818408881163744, 10.812146673989544, 0.0 ], [ 4.815640157309217, 10.809385389191901, 0.0 ], [ 4.815414298550253, 10.809829698980979, 0.0 ], [ 4.814857861439802, 10.810087509320349, 0.0 ], [ 4.814058363944113, 10.810887806598823, 0.0 ], [ 4.813751694545687, 10.810889987264254, 0.0 ], [ 4.813487170328911, 10.810610199700685, 0.0 ], [ 4.812412401037326, 10.810249108602303, 0.0 ], [ 4.812404703273178, 10.809109596609114, 0.0 ], [ 4.812427961656218, 10.808435941427629, 0.0 ], [ 4.811882768126523, 10.807903635733757, 0.0 ], [ 4.811880910718178, 10.807613935004266, 0.0 ], [ 4.811925702963355, 10.806313647374235, 0.0 ], [ 4.81108472135539, 10.805424219707572, 0.0 ], [ 4.809989618279162, 10.80543155220322, 0.0 ], [ 4.809458758250714, 10.804310841139436, 0.0 ], [ 4.808922811387704, 10.80378738221701, 0.0 ], [ 4.808662052977153, 10.803237265236065, 0.0 ], [ 4.808113972626876, 10.802413660001291, 0.0 ], [ 4.80861725981864, 10.801948490651597, 0.0 ], [ 4.808516602705372, 10.801257763380844, 0.0 ], [ 4.8081393200746, 10.801070297402971, 0.0 ], [ 4.807331177396423, 10.800512747079756, 0.0 ], [ 4.806583010832245, 10.800141021637289, 0.0 ], [ 4.806028713319712, 10.796456543421979, 0.0 ], [ 4.805495750062421, 10.795892688328427, 0.0 ], [ 4.805200497565034, 10.795882598436261, 0.0 ], [ 4.803850592689978, 10.796319120145746, 0.0 ], [ 4.803586012039844, 10.794237071014905, 0.0 ], [ 4.80331066858141, 10.793967973641355, 0.0 ], [ 4.803046162709601, 10.793688450341529, 0.0 ], [ 4.801957289491559, 10.792867012541308, 0.0 ], [ 4.801692785898378, 10.792587488896878, 0.0 ], [ 4.801417445726029, 10.792318391007713, 0.0 ], [ 4.801156705394458, 10.7917682762198, 0.0 ], [ 4.800749340169478, 10.79095874204215, 0.0 ], [ 4.800358232856072, 10.790133571260499, 0.0 ], [ 4.800082895738622, 10.789864473434417, 0.0 ], [ 4.799825921199729, 10.789043768539067, 0.0 ], [ 4.799291859882304, 10.788522184278078, 0.0 ], [ 4.799282680164875, 10.787144536142899, 0.0 ], [ 4.799338696444692, 10.785518804453762, 0.0 ], [ 4.798771145277101, 10.784964522468728, 0.0 ], [ 4.798809462946008, 10.783861861678984, 0.0 ], [ 4.797717620400991, 10.782795645355344, 0.0 ], [ 4.797460651709499, 10.781974942892962, 0.0 ], [ 4.797185322838796, 10.78170584614131, 0.0 ], [ 4.796924593368815, 10.781155733839768, 0.0 ], [ 4.796653027967845, 10.780616047397061, 0.0 ], [ 4.796247568769873, 10.77840180116762, 0.0 ], [ 4.795621476598479, 10.777079732969383, 0.0 ], [ 4.793956216655842, 10.77678830497786, 0.0 ], [ 4.793434627801931, 10.776236761105029, 0.0 ], [ 4.792611975569949, 10.775960220672147, 0.0 ], [ 4.792347492556618, 10.775680697605727, 0.0 ], [ 4.791796584191334, 10.775142762230219, 0.0 ], [ 4.791267892487708, 10.774583456002119, 0.0 ], [ 4.788853934099651, 10.774216541047304, 0.0 ], [ 4.788536713399949, 10.772848724604549, 0.0 ], [ 4.787860587029505, 10.770803658366988, 0.0 ], [ 4.78845505681698, 10.769700144541353, 0.0 ], [ 4.788178202782157, 10.769422867020772, 0.0 ], [ 4.784942754430849, 10.768752657313289, 0.0 ], [ 4.783960301299016, 10.768264606647715, 0.0 ], [ 4.783525897874062, 10.767347406137489, 0.0 ], [ 4.78261087491103, 10.766893044188246, 0.0 ], [ 4.782361488594284, 10.765531179251315, 0.0 ], [ 4.782092182464872, 10.764716659666263, 0.0 ], [ 4.782376492769022, 10.764454124921226, 0.0 ], [ 4.782962290656816, 10.761467129217408, 0.0 ], [ 4.783572850751829, 10.760902824349044, 0.0 ], [ 4.78355977468013, 10.760440757455322, 0.0 ], [ 4.783452152908747, 10.76032042014775, 0.0 ], [ 4.78268505427112, 10.759571014430019, 0.0 ], [ 4.782805804662516, 10.756080813371009, 0.0 ], [ 4.781699076466146, 10.754999592541209, 0.0 ], [ 4.781686050809598, 10.753093333016704, 0.0 ], [ 4.782499949647448, 10.752341656699452, 0.0 ], [ 4.781968400595069, 10.750166163741092, 0.0 ], [ 4.782300976861845, 10.749833448727731, 0.0 ], [ 4.783235156555746, 10.748969782698566, 0.0 ], [ 4.783223832169774, 10.74856961482168, 0.0 ], [ 4.782891229070702, 10.747135111071939, 0.0 ], [ 4.782379666876475, 10.746635512740136, 0.0 ], [ 4.782367618651916, 10.744830224656573, 0.0 ], [ 4.782390919918524, 10.744153950335212, 0.0 ], [ 4.782385527603375, 10.743349896412683, 0.0 ], [ 4.782820924752688, 10.742541261912057, 0.0 ], [ 4.783040982544203, 10.742108289092641, 0.0 ], [ 4.782980007175475, 10.739953612988844, 0.0 ], [ 4.786310182312249, 10.736600129496123, 0.0 ], [ 4.786308574436714, 10.736358691262812, 0.0 ], [ 4.786344764415827, 10.735310989610964, 0.0 ], [ 4.786076049533103, 10.734452613632639, 0.0 ], [ 4.784986048638813, 10.734460019227919, 0.0 ], [ 4.784150477541267, 10.733312740047912, 0.0 ], [ 4.783371809266393, 10.732552629841805, 0.0 ], [ 4.782971431317016, 10.731707268577255, 0.0 ], [ 4.782564143141085, 10.730897757005485, 0.0 ], [ 4.782314724083172, 10.729535901048221, 0.0 ], [ 4.781801751413211, 10.727984405704607, 0.0 ], [ 4.78179568425832, 10.727093125818428, 0.0 ], [ 4.782365134169573, 10.725519323838506, 0.0 ], [ 4.781820346586836, 10.724865423381184, 0.0 ], [ 4.775899590177931, 10.724338785988659, 0.0 ], [ 4.774432712178472, 10.718622843988637, 0.0 ], [ 4.771400621179505, 10.714710490988601, 0.0 ], [ 4.771148323091539, 10.713727387780036, 0.0 ], [ 4.769937564608576, 10.71394154589176, 0.0 ], [ 4.768331178274622, 10.714460960989772, 0.0 ], [ 4.767658715670794, 10.713833376336598, 0.0 ], [ 4.767214423852134, 10.713363239046846, 0.0 ], [ 4.766395736412225, 10.712816121572947, 0.0 ], [ 4.766120523373687, 10.712388427816478, 0.0 ], [ 4.761503700024382, 10.712279128050438, 0.0 ], [ 4.761201206204746, 10.712469470463175, 0.0 ], [ 4.760743458999961, 10.712927849247086, 0.0 ], [ 4.759419040773502, 10.712229775335128, 0.0 ], [ 4.758986564298492, 10.712219536784946, 0.0 ], [ 4.757370852600582, 10.7124172575102, 0.0 ], [ 4.756300983566727, 10.712943921639994, 0.0 ], [ 4.75600280024242, 10.712403883941784, 0.0 ], [ 4.755856239772926, 10.71209440217911, 0.0 ], [ 4.755062243493273, 10.711305965567586, 0.0 ], [ 4.754789503863869, 10.711296890727521, 0.0 ], [ 4.754376597409484, 10.711299185043668, 0.0 ], [ 4.753564741685042, 10.711012192024608, 0.0 ], [ 4.752742321367518, 10.710735625716058, 0.0 ], [ 4.751072029034664, 10.709364445468289, 0.0 ], [ 4.751060047799603, 10.709364037768887, 0.0 ], [ 4.747916666186712, 10.712485419988077, 0.0 ], [ 4.746658304576778, 10.711235869923343, 0.0 ], [ 4.746163628740582, 10.711730895998192, 0.0 ], [ 4.745642750656472, 10.71117988215042, 0.0 ], [ 4.744452598151526, 10.711536771527756, 0.0 ], [ 4.74368509406027, 10.713047475412026, 0.0 ], [ 4.743272146423804, 10.713033896630892, 0.0 ], [ 4.742724815745436, 10.713036977173727, 0.0 ], [ 4.739125066751006, 10.712915279660237, 0.0 ], [ 4.738456549456693, 10.715140870527623, 0.0 ], [ 4.738166315732116, 10.715943474011393, 0.0 ], [ 4.737886618155684, 10.716756793343089, 0.0 ], [ 4.737603964132614, 10.717018255079379, 0.0 ], [ 4.7370501189206, 10.71862963717197, 0.0 ], [ 4.73675663380982, 10.718900991471314, 0.0 ], [ 4.736342757246818, 10.719715637697151, 0.0 ], [ 4.735415633295798, 10.719683894124371, 0.0 ], [ 4.734826293888323, 10.719957000969051, 0.0 ], [ 4.734279950661325, 10.721031988368345, 0.0 ], [ 4.733271265381349, 10.721499131496605, 0.0 ], [ 4.732878425257451, 10.72264176114181, 0.0 ], [ 4.732322164734107, 10.722899457812771, 0.0 ], [ 4.731818183798131, 10.725276319708751, 0.0 ], [ 4.731185975843389, 10.725860672394013, 0.0 ], [ 4.730894837566861, 10.727485676705195, 0.0 ], [ 4.729717665501029, 10.727845828075294, 0.0 ], [ 4.728681751558302, 10.728803066733837, 0.0 ], [ 4.72820161825982, 10.730639526274837, 0.0 ], [ 4.727279497741414, 10.731219348665483, 0.0 ], [ 4.726584122970133, 10.732587714186366, 0.0 ], [ 4.722474042762181, 10.73244814428123, 0.0 ], [ 4.721784339852559, 10.732767399945066, 0.0 ], [ 4.721789664144563, 10.733546553309427, 0.0 ], [ 4.721497213183022, 10.734121812687532, 0.0 ], [ 4.721221013797894, 10.734112720551657, 0.0 ], [ 4.720810498402214, 10.734114991254069, 0.0 ], [ 4.719855830102047, 10.734082805529342, 0.0 ], [ 4.719522691631306, 10.734738367795646, 0.0 ], [ 4.71682544673904, 10.735134575460176, 0.0 ], [ 4.716542993960573, 10.735417150575769, 0.0 ], [ 4.714898779437163, 10.735919831892778, 0.0 ], [ 4.714075603311493, 10.736454982319835, 0.0 ], [ 4.712151710195799, 10.737043107688732, 0.0 ], [ 4.711781369442793, 10.782156914179325, 0.0 ], [ 4.712054576166043, 10.782700079412331, 0.0 ], [ 4.711515888176127, 10.783197892130399, 0.0 ], [ 4.711476745141811, 10.784317591511503, 0.0 ], [ 4.712548411375002, 10.785928652259605, 0.0 ], [ 4.712598136828738, 10.793666658248094, 0.0 ], [ 4.712320201193418, 10.801640598366912, 0.0 ], [ 4.712866905982311, 10.802462674314411, 0.0 ], [ 4.713127457586608, 10.803012806059176, 0.0 ], [ 4.71339884930342, 10.803552516544439, 0.0 ], [ 4.713659402223068, 10.804102648543168, 0.0 ], [ 4.714728471403462, 10.805147097428803, 0.0 ], [ 4.715248467379221, 10.807849622644584, 0.0 ], [ 4.714686710259382, 10.828472144624165, 0.0 ], [ 4.714124566255431, 10.828732290972019, 0.0 ], [ 4.714129613559619, 10.8295415583107, 0.0 ], [ 4.713291754302209, 10.830315306796336, 0.0 ], [ 4.713532659095771, 10.832244665336837, 0.0 ], [ 4.713805623775149, 10.832787049885786, 0.0 ], [ 4.7132416322493, 10.833832578427348, 0.0 ], [ 4.713501812901738, 10.834409140725729, 0.0 ], [ 4.714875156113314, 10.834760455104137, 0.0 ], [ 4.714858437356118, 10.835239609707068, 0.0 ], [ 4.715390333164971, 10.836296701268349, 0.0 ], [ 4.71539320484853, 10.836733052657378, 0.0 ], [ 4.715369668030986, 10.837409259173604, 0.0 ], [ 4.715373926919402, 10.838085852742154, 0.0 ], [ 4.715341035855316, 10.839024350198809, 0.0 ], [ 4.716169338300801, 10.839317335051254, 0.0 ], [ 4.717259119671323, 10.839683725871176, 0.0 ], [ 4.716976496083769, 10.840681645308186, 0.0 ], [ 4.71667687949479, 10.840958393984474, 0.0 ], [ 4.716683557202018, 10.842027993624699, 0.0 ], [ 4.716637833143703, 10.843341579673993, 0.0 ], [ 4.71693029991119, 10.843923086243842, 0.0 ], [ 4.717342718341722, 10.845241997205115, 0.0 ], [ 4.719049894852341, 10.846090302007722, 0.0 ], [ 4.719360494553636, 10.846394046931945, 0.0 ], [ 4.71878494577696, 10.847742013605018, 0.0 ], [ 4.719840163379803, 10.84826622600637, 0.0 ], [ 4.720149184271841, 10.848568363436412, 0.0 ], [ 4.720402047892926, 10.849659631341497, 0.0 ], [ 4.720693670075811, 10.849944614106443, 0.0 ], [ 4.720656209651735, 10.851016247083159, 0.0 ], [ 4.721736725776224, 10.851379603912985, 0.0 ], [ 4.721744751591131, 10.85265509767942, 0.0 ], [ 4.721025748563917, 10.853318981228808, 0.0 ], [ 4.721450005309579, 10.853733455933085, 0.0 ], [ 4.721431066227866, 10.854274423349063, 0.0 ], [ 4.721949724488844, 10.85478085823952, 0.0 ], [ 4.722758082118793, 10.857227393864745, 0.0 ], [ 4.722358022237641, 10.865903142358761, 0.0 ], [ 4.722656300190774, 10.866920099987391, 0.0 ], [ 4.722392932542635, 10.869321789594673, 0.0 ], [ 4.722244464669704, 10.870675691664159, 0.0 ], [ 4.722236693304239, 10.870746559977817, 0.0 ], [ 4.727951727189047, 10.870266045987485, 0.0 ], [ 4.729166667188558, 10.875000000987518, 0.0 ], [ 4.733333333187264, 10.875000000987615, 0.0 ], [ 4.736731804186205, 10.874028184987683, 0.0 ], [ 4.738311258186012, 10.86317647398775, 0.0 ], [ 4.764660136178029, 10.861882527988316, 0.0 ] ] ] } },
{ "type": "Feature", "properties": { "Stra_Catch": "Malenda", "State": "Kebbi", "LGA": "Zuru", "Population": 0, "Cleard_TOR": "Cleared", "Status": "Not yet Submitted", "Start_Date": "2025-03-10T00:00:00", "End_Date": "1899-12-30T00:00:00", "Micr_Catch": "Zuru Dam/Rikoto", "Size_Ha": 31307.527529300001, "Comments": null, "OBJECTID_1": 0, "Shape_Leng": 0.0, "Shape_Area": 0.0, "parent_strategic_name": "Golbin-Ka", "clipped_to_state": true }, "geometry": { "type": "MultiPolygon", "coordinates": [ [ [ [ 5.241666666071619, 11.346144132431125, 0.0 ], [ 5.241492034378229, 11.344642687655714, 0.0 ], [ 5.241526945560799, 11.343613723588765, 0.0 ], [ 5.240981313432997, 11.342534519938189, 0.0 ], [ 5.24128261292018, 11.340069682491633, 0.0 ], [ 5.241583990377194, 11.339235823279203, 0.0 ], [ 5.241578179173093, 11.33845146241466, 0.0 ], [ 5.241641183977183, 11.336585419040865, 0.0 ], [ 5.241066507960172, 11.336026502984257, 0.0 ], [ 5.241598126187047, 11.334449366508521, 0.0 ], [ 5.241666666071741, 11.334322095949354, 0.0 ], [ 5.241666666071968, 11.312500000995474, 0.0 ], [ 5.242019992072101, 11.2934088809955, 0.0 ], [ 5.243434766071934, 11.291984124995507, 0.0 ], [ 5.243104201874295, 11.290758777784225, 0.0 ], [ 5.2430543, 11.2905738, 0.0 ], [ 5.2432458, 11.2678774, 0.0 ], [ 5.2443657, 11.2448668, 0.0 ], [ 5.244001617892959, 11.244074138279457, 0.0 ], [ 5.242117900072627, 11.239973000995521, 0.0 ], [ 5.23339019914619, 11.218191800175443, 0.0 ], [ 5.225650120257193, 11.219782264735725, 0.0 ], [ 5.225650119824712, 11.219782264824593, 0.0 ], [ 5.185467800080832, 11.228039100994909, 0.0 ], [ 5.157449900085138, 11.230375033994632, 0.0 ], [ 5.157980007085022, 11.230908880994624, 0.0 ], [ 5.158686658084835, 11.23504621799461, 0.0 ], [ 5.154519992085489, 11.239242214994571, 0.0 ], [ 5.153813341085416, 11.251712883994539, 0.0 ], [ 5.158318752084686, 11.256250000994632, 0.0 ], [ 5.154519992085236, 11.260075547994544, 0.0 ], [ 5.153813341085256, 11.264924452994556, 0.0 ], [ 5.146186658086349, 11.27257554799449, 0.0 ], [ 5.14548000708617, 11.298257785994425, 0.0 ], [ 5.142019992086643, 11.301742214994409, 0.0 ], [ 5.141313341086729, 11.30587955099438, 0.0 ], [ 5.145480007086022, 11.310075547994439, 0.0 ], [ 5.14618665808573, 11.322546217994475, 0.0 ], [ 5.142019992086331, 11.326742214994379, 0.0 ], [ 5.141313341086407, 11.331591119994382, 0.0 ], [ 5.137853325086891, 11.335075547994377, 0.0 ], [ 5.137146674086978, 11.339212884994344, 0.0 ], [ 5.141313341086259, 11.343408881994398, 0.0 ], [ 5.141666667086154, 11.345833333994419, 0.0 ], [ 5.141666667086103, 11.350000000994411, 0.0 ], [ 5.144982570085556, 11.350850931994453, 0.0 ], [ 5.146684095085253, 11.357482401994472, 0.0 ], [ 5.152210489084335, 11.358900621994485, 0.0 ], [ 5.156122843083717, 11.361932712994548, 0.0 ], [ 5.173043823081147, 11.363067288994767, 0.0 ], [ 5.176956176080505, 11.36609937899479, 0.0 ], [ 5.183333333079588, 11.366666666994876, 0.0 ], [ 5.202210490076824, 11.366099378995063, 0.0 ], [ 5.206250000076323, 11.362968783995093, 0.0 ], [ 5.210289510075703, 11.366099378995148, 0.0 ], [ 5.216059028074901, 11.367579989995178, 0.0 ], [ 5.216666667074594, 11.383333333995203, 0.0 ], [ 5.216313341074593, 11.389924451995215, 0.0 ], [ 5.214778528964399, 11.391464163840396, 0.0 ], [ 5.214817170061394, 11.3914523327444, 0.0 ], [ 5.216736303469257, 11.390337691288291, 0.0 ], [ 5.2170240734613, 11.391253114510226, 0.0 ], [ 5.217550301703286, 11.392294563830189, 0.0 ], [ 5.217937503160088, 11.393108674181176, 0.0 ], [ 5.218895177772742, 11.393140314498837, 0.0 ], [ 5.219740480484583, 11.392590632942843, 0.0 ], [ 5.2202546681406, 11.393672118448007, 0.0 ], [ 5.220826629959491, 11.393972195033788, 0.0 ], [ 5.221504735880576, 11.393967175676257, 0.0 ], [ 5.222187837515829, 11.393989718017259, 0.0 ], [ 5.222480613823567, 11.393696806945371, 0.0 ], [ 5.22357593168896, 11.393189729195736, 0.0 ], [ 5.223848605470049, 11.392917181714203, 0.0 ], [ 5.225478738129357, 11.392418296468568, 0.0 ], [ 5.226210455515115, 11.391742589163457, 0.0 ], [ 5.226891865136769, 11.391060943429066, 0.0 ], [ 5.227175111879569, 11.390799105083168, 0.0 ], [ 5.227585349903364, 11.389992074009873, 0.0 ], [ 5.229651783220922, 11.390284095560771, 0.0 ], [ 5.231547360938388, 11.390628118720867, 0.0 ], [ 5.232397408272138, 11.389777802468394, 0.0 ], [ 5.233503803823417, 11.389526516828141, 0.0 ], [ 5.233791134233188, 11.389239072134369, 0.0 ], [ 5.234886426042524, 11.388731940137077, 0.0 ], [ 5.23529541649131, 11.388323096584053, 0.0 ], [ 5.23572027396547, 11.387930320789398, 0.0 ], [ 5.236057079060428, 11.382784454384101, 0.0 ], [ 5.236583457986399, 11.382801774789691, 0.0 ], [ 5.237455627727057, 11.381183299426715, 0.0 ], [ 5.238193584781704, 11.378724345763674, 0.0 ], [ 5.23872013831858, 11.377688194071194, 0.0 ], [ 5.239694374345127, 11.377681091992077, 0.0 ], [ 5.240512729888041, 11.377707954894552, 0.0 ], [ 5.241622921723732, 11.376898731908719, 0.0 ], [ 5.24224438618587, 11.376919370314038, 0.0 ], [ 5.242211055474434, 11.372497482182764, 0.0 ], [ 5.242577507639112, 11.366892635768952, 0.0 ], [ 5.242599993744416, 11.366683242597961, 0.0 ], [ 5.241666666071406, 11.36666666699548, 0.0 ], [ 5.241666666071619, 11.346144132431125, 0.0 ] ] ], [ [ [ 5.208520731654317, 11.398090708768327, 0.0 ], [ 5.208978316921788, 11.397878983598595, 0.0 ], [ 5.208692837303198, 11.397600831771056, 0.0 ], [ 5.20868868849214, 11.39757344552258, 0.0 ], [ 5.208347235075648, 11.397915988995139, 0.0 ], [ 5.208520731654317, 11.398090708768327, 0.0 ] ] ], [ [ [ 5.212361890405543, 11.410639548342862, 0.0 ], [ 5.213195443977296, 11.409869759879003, 0.0 ], [ 5.212977123078761, 11.4060445255134, 0.0 ], [ 5.212704484321739, 11.405504767056042, 0.0 ], [ 5.21247874488769, 11.405030074599386, 0.0 ], [ 5.212333265030167, 11.41093961628849, 0.0 ], [ 5.212361890405543, 11.410639548342862, 0.0 ] ] ], [ [ [ 5.213071374506086, 11.419213712261532, 0.0 ], [ 5.212826179314431, 11.417414622045721, 0.0 ], [ 5.212546821091976, 11.416573337786732, 0.0 ], [ 5.212600067220098, 11.415006034619086, 0.0 ], [ 5.212250198546192, 11.414313862444427, 0.0 ], [ 5.212125401222716, 11.419383258292957, 0.0 ], [ 5.213071374506086, 11.419213712261532, 0.0 ] ] ], [ [ [ 5.204519992075626, 11.44409111899509, 0.0 ], [ 5.207980007075132, 11.447575547995086, 0.0 ], [ 5.208247095698017, 11.45255795205731, 0.0 ], [ 5.208771000084415, 11.452397766889861, 0.0 ], [ 5.209127970290763, 11.450192414586535, 0.0 ], [ 5.20886015862861, 11.446877663840441, 0.0 ], [ 5.209437734099288, 11.444770888451846, 0.0 ], [ 5.209060062506191, 11.443905846632614, 0.0 ], [ 5.20807351099389, 11.444158522625873, 0.0 ], [ 5.207798860866887, 11.444432860684879, 0.0 ], [ 5.20725558358604, 11.444147910647345, 0.0 ], [ 5.206440749562469, 11.443744681002075, 0.0 ], [ 5.20643749744295, 11.443325276319197, 0.0 ], [ 5.206786295474799, 11.442053207302264, 0.0 ], [ 5.206479982892893, 11.439777115932177, 0.0 ], [ 5.206542622667027, 11.437933369982808, 0.0 ], [ 5.205970079261458, 11.43763297058101, 0.0 ], [ 5.205177139457461, 11.437240691752532, 0.0 ], [ 5.204166667075758, 11.437500000995065, 0.0 ], [ 5.204519992075626, 11.44409111899509, 0.0 ] ] ], [ [ [ 5.21010287283741, 11.462183986578388, 0.0 ], [ 5.210589179400118, 11.461282201414539, 0.0 ], [ 5.210653436274493, 11.459399336286792, 0.0 ], [ 5.210099375922134, 11.458815453014831, 0.0 ], [ 5.208994766774814, 11.458268843166143, 0.0 ], [ 5.208989540175033, 11.457575742518118, 0.0 ], [ 5.209012398721134, 11.456907332606274, 0.0 ], [ 5.208464861619103, 11.456620265899495, 0.0 ], [ 5.208686659074849, 11.460757785995108, 0.0 ], [ 5.21010287283741, 11.462183986578388, 0.0 ] ] ], [ [ [ 5.208333333074712, 11.479166667995116, 0.0 ], [ 5.214684534255899, 11.479556622701788, 0.0 ], [ 5.214477765372661, 11.478899193231191, 0.0 ], [ 5.21365255562361, 11.478623000565888, 0.0 ], [ 5.213397981946181, 11.477531354585352, 0.0 ], [ 5.211340625240324, 11.477220639402177, 0.0 ], [ 5.210674634477372, 11.475903125170422, 0.0 ], [ 5.210947775186892, 11.475604182932397, 0.0 ], [ 5.211319352160944, 11.475261041386924, 0.0 ], [ 5.210958216088466, 11.474501440820495, 0.0 ], [ 5.210160877751637, 11.473725594369862, 0.0 ], [ 5.210156610712766, 11.473141973679876, 0.0 ], [ 5.211001587575288, 11.47157518541832, 0.0 ], [ 5.210747375416742, 11.470457104835207, 0.0 ], [ 5.209933768009229, 11.469093518982406, 0.0 ], [ 5.21076899283962, 11.468838103736731, 0.0 ], [ 5.211052613040844, 11.467753451344016, 0.0 ], [ 5.212429281048792, 11.467441336536627, 0.0 ], [ 5.212166623012096, 11.466955631146387, 0.0 ], [ 5.211291220524163, 11.46578595376468, 0.0 ], [ 5.208686659074763, 11.468408881995121, 0.0 ], [ 5.208333333074712, 11.479166667995116, 0.0 ] ] ], [ [ [ 5.223737991808162, 11.482779637166235, 0.0 ], [ 5.223773828845739, 11.481727437262979, 0.0 ], [ 5.223497265964355, 11.481458376721797, 0.0 ], [ 5.223231833358251, 11.481178882427399, 0.0 ], [ 5.220485319110962, 11.480877798180996, 0.0 ], [ 5.219672173709731, 11.48031884773901, 0.0 ], [ 5.219582360319247, 11.480363024940234, 0.0 ], [ 5.222865126072682, 11.482690599995273, 0.0 ], [ 5.223737991808162, 11.482779637166235, 0.0 ] ] ], [ [ [ 5.237327645356062, 11.485831566898158, 0.0 ], [ 5.236858148919445, 11.485374828178482, 0.0 ], [ 5.236917537677546, 11.485956995076222, 0.0 ], [ 5.237327645356062, 11.485831566898158, 0.0 ] ] ], [ [ [ 5.250794976525451, 11.505638903047402, 0.0 ], [ 5.250076787322212, 11.50589512738315, 0.0 ], [ 5.249843208581206, 11.506128486781771, 0.0 ], [ 5.251545518241416, 11.507447784350441, 0.0 ], [ 5.250794976525451, 11.505638903047402, 0.0 ] ] ], [ [ [ 5.270266046066205, 11.514456176995715, 0.0 ], [ 5.271684096065957, 11.519982401995712, 0.0 ], [ 5.274999999065523, 11.520833332995744, 0.0 ], [ 5.277447039136455, 11.520752963258618, 0.0 ], [ 5.277269516319161, 11.519991881696196, 0.0 ], [ 5.276777881915077, 11.519473636533812, 0.0 ], [ 5.273844206343835, 11.519495255780004, 0.0 ], [ 5.273238422803479, 11.519195551653782, 0.0 ], [ 5.272705523437944, 11.518371088473737, 0.0 ], [ 5.272333837593897, 11.518009336491813, 0.0 ], [ 5.272995688923311, 11.516781868361203, 0.0 ], [ 5.272569656745312, 11.514909243574888, 0.0 ], [ 5.271534109364404, 11.514220599479367, 0.0 ], [ 5.271129833846873, 11.512935295617238, 0.0 ], [ 5.27005107485819, 11.511031294568292, 0.0 ], [ 5.270104937931113, 11.509448037330003, 0.0 ], [ 5.268993796677493, 11.508028325563105, 0.0 ], [ 5.267651451355639, 11.508038070817708, 0.0 ], [ 5.266840632212105, 11.507613034075362, 0.0 ], [ 5.265422167913586, 11.508534871758073, 0.0 ], [ 5.263238615319428, 11.508769729900004, 0.0 ], [ 5.265706719066794, 11.508989291995643, 0.0 ], [ 5.270266046066205, 11.514456176995715, 0.0 ] ] ], [ [ [ 5.289242215063831, 11.517019992995911, 0.0 ], [ 5.289256919969045, 11.517019204720295, 0.0 ], [ 5.288502460402388, 11.516224327395483, 0.0 ], [ 5.285936085265864, 11.517412175891371, 0.0 ], [ 5.285618732952429, 11.517729409244135, 0.0 ], [ 5.284617776720589, 11.518035785359748, 0.0 ], [ 5.284231869731165, 11.518794805858835, 0.0 ], [ 5.283124647501676, 11.519046135295765, 0.0 ], [ 5.283130783025377, 11.51986384925735, 0.0 ], [ 5.282341896174891, 11.52059219826824, 0.0 ], [ 5.285757785064204, 11.520480007995857, 0.0 ], [ 5.289242215063831, 11.517019992995911, 0.0 ] ] ], [ [ [ 5.297473662267906, 11.516088878266663, 0.0 ], [ 5.295571155409916, 11.515419399924832, 0.0 ], [ 5.294861933242388, 11.515726362348861, 0.0 ], [ 5.294514571080896, 11.516737361478071, 0.0 ], [ 5.299234097519021, 11.516484365110534, 0.0 ], [ 5.297473662267906, 11.516088878266663, 0.0 ] ] ], [ [ [ 5.305908881061868, 11.512853325996012, 0.0 ], [ 5.308333333061598, 11.512499999996047, 0.0 ], [ 5.316666666060623, 11.512499999996123, 0.0 ], [ 5.31678480776704, 11.510296126158016, 0.0 ], [ 5.31674297683101, 11.510267388801617, 0.0 ], [ 5.315917492305531, 11.509991427750959, 0.0 ], [ 5.315110424280891, 11.508610848345848, 0.0 ], [ 5.313878759926446, 11.508620094925476, 0.0 ], [ 5.312416176464237, 11.508571931980322, 0.0 ], [ 5.311813794097294, 11.50885094878187, 0.0 ], [ 5.311535597348931, 11.509129052574307, 0.0 ], [ 5.310179148289377, 11.509084604236, 0.0 ], [ 5.309628993134262, 11.509635067964972, 0.0 ], [ 5.308772757244194, 11.509641387593341, 0.0 ], [ 5.307848601860549, 11.508668140586666, 0.0 ], [ 5.307417880943847, 11.50906594547078, 0.0 ], [ 5.306883753307931, 11.509600210584402, 0.0 ], [ 5.306452552402126, 11.509603459725035, 0.0 ], [ 5.305126932309009, 11.509559908702633, 0.0 ], [ 5.303283115047244, 11.510718788145301, 0.0 ], [ 5.303539104595041, 11.511729829172177, 0.0 ], [ 5.304074411744749, 11.512788055135942, 0.0 ], [ 5.303539272381325, 11.513890845286474, 0.0 ], [ 5.302694287547914, 11.513343811478681, 0.0 ], [ 5.301913505638042, 11.512521516141206, 0.0 ], [ 5.301205057062544, 11.513118599893932, 0.0 ], [ 5.300763798570833, 11.514402396856182, 0.0 ], [ 5.300198822691525, 11.515202276656462, 0.0 ], [ 5.299556015863171, 11.516467108258013, 0.0 ], [ 5.30242445206222, 11.516313341995996, 0.0 ], [ 5.305908881061868, 11.512853325996012, 0.0 ] ] ] ] } },
{ "type": "Feature", "properties": { "Stra_Catch": "Golbin-ka/Malenda", "State": "Kebbi", "LGA": "Yauri", "Population": 0, "Cleard_TOR": "Cleared", "Status": "Not yet Submitted", "Start_Date": "2025-03-10T00:00:00", "End_Date": "1899-12-30T00:00:00", "Micr_Catch": "Tungan Bindiga/Yauri", "Size_Ha": 19998.837539, "Comments": null, "OBJECTID_1": 0, "Shape_Leng": 0.0, "Shape_Area": 0.0, "parent_strategic_name": "Malenda", "clipped_to_state": true }, "geometry": { "type": "MultiPolygon", "coordinates": [ [ [ [ 4.80861725981864, 10.801948490651597, 0.0 ], [ 4.808113972626876, 10.802413660001291, 0.0 ], [ 4.808662052977153, 10.803237265236065, 0.0 ], [ 4.808922811387704, 10.80378738221701, 0.0 ], [ 4.809458758250714, 10.804310841139436, 0.0 ], [ 4.809989618279162, 10.80543155220322, 0.0 ], [ 4.81108472135539, 10.805424219707572, 0.0 ], [ 4.811925702963355, 10.806313647374235, 0.0 ], [ 4.811880910718178, 10.807613935004266, 0.0 ], [ 4.811882768126523, 10.807903635733757, 0.0 ], [ 4.812427961656218, 10.808435941427629, 0.0 ], [ 4.812404703273178, 10.809109596609114, 0.0 ], [ 4.812412401037326, 10.810249108602303, 0.0 ], [ 4.813487170328911, 10.810610199700685, 0.0 ], [ 4.813751694545687, 10.810889987264254, 0.0 ], [ 4.814058363944113, 10.810887806598823, 0.0 ], [ 4.814857861439802, 10.810087509320349, 0.0 ], [ 4.815414298550253, 10.809829698980979, 0.0 ], [ 4.815640157309217, 10.809385389191901, 0.0 ], [ 4.808691067166668, 10.802454969989315, 0.0 ], [ 4.80861725981864, 10.801948490651597, 0.0 ] ] ], [ [ [ 4.800353325169326, 10.789924452989133, 0.0 ], [ 4.799646674169698, 10.780908880989172, 0.0 ], [ 4.78845505681698, 10.769700144541353, 0.0 ], [ 4.787860587029505, 10.770803658366988, 0.0 ], [ 4.788536713399949, 10.772848724604549, 0.0 ], [ 4.788853934099651, 10.774216541047304, 0.0 ], [ 4.791267892487708, 10.774583456002119, 0.0 ], [ 4.791796584191334, 10.775142762230219, 0.0 ], [ 4.792347492556618, 10.775680697605727, 0.0 ], [ 4.792611975569949, 10.775960220672147, 0.0 ], [ 4.793434627801931, 10.776236761105029, 0.0 ], [ 4.793956216655842, 10.77678830497786, 0.0 ], [ 4.795621476598479, 10.777079732969383, 0.0 ], [ 4.796247568769873, 10.77840180116762, 0.0 ], [ 4.796653027967845, 10.780616047397061, 0.0 ], [ 4.796924593368815, 10.781155733839768, 0.0 ], [ 4.797185322838796, 10.78170584614131, 0.0 ], [ 4.797460651709499, 10.781974942892962, 0.0 ], [ 4.797717620400991, 10.782795645355344, 0.0 ], [ 4.798809462946008, 10.783861861678984, 0.0 ], [ 4.798771145277101, 10.784964522468728, 0.0 ], [ 4.799338696444692, 10.785518804453762, 0.0 ], [ 4.799282680164875, 10.787144536142899, 0.0 ], [ 4.799291859882304, 10.788522184278078, 0.0 ], [ 4.799825921199729, 10.789043768539067, 0.0 ], [ 4.800082895738622, 10.789864473434417, 0.0 ], [ 4.800358232856072, 10.790133571260499, 0.0 ], [ 4.800749340169478, 10.79095874204215, 0.0 ], [ 4.801156705394458, 10.7917682762198, 0.0 ], [ 4.801417445726029, 10.792318391007713, 0.0 ], [ 4.801692785898378, 10.792587488896878, 0.0 ], [ 4.801957289491559, 10.792867012541308, 0.0 ], [ 4.803046162709601, 10.793688450341529, 0.0 ], [ 4.80331066858141, 10.793967973641355, 0.0 ], [ 4.803586012039844, 10.794237071014905, 0.0 ], [ 4.803850592689978, 10.796319120145746, 0.0 ], [ 4.805200497565034, 10.795882598436261, 0.0 ], [ 4.805495750062421, 10.795892688328427, 0.0 ], [ 4.806028713319712, 10.796456543421979, 0.0 ], [ 4.806583010832245, 10.800141021637289, 0.0 ], [ 4.807331177396423, 10.800512747079756, 0.0 ], [ 4.8081393200746, 10.801070297402971, 0.0 ], [ 4.808516602705372, 10.801257763380844, 0.0 ], [ 4.807980007166961, 10.797575547989315, 0.0 ], [ 4.800353325169326, 10.789924452989133, 0.0 ] ] ], [ [ [ 4.783572850751829, 10.760902824349044, 0.0 ], [ 4.782962290656816, 10.761467129217408, 0.0 ], [ 4.782376492769022, 10.764454124921226, 0.0 ], [ 4.782092182464872, 10.764716659666263, 0.0 ], [ 4.782361488594284, 10.765531179251315, 0.0 ], [ 4.78261087491103, 10.766893044188246, 0.0 ], [ 4.783525897874062, 10.767347406137489, 0.0 ], [ 4.783960301299016, 10.768264606647715, 0.0 ], [ 4.784942754430849, 10.768752657313289, 0.0 ], [ 4.788178202782157, 10.769422867020772, 0.0 ], [ 4.783686659174714, 10.76492445298882, 0.0 ], [ 4.783572850751829, 10.760902824349044, 0.0 ] ] ], [ [ [ 4.782300976861845, 10.749833448727731, 0.0 ], [ 4.781968400595069, 10.750166163741092, 0.0 ], [ 4.782499949647448, 10.752341656699452, 0.0 ], [ 4.781686050809598, 10.753093333016704, 0.0 ], [ 4.781699076466146, 10.754999592541209, 0.0 ], [ 4.782805804662516, 10.756080813371009, 0.0 ], [ 4.78268505427112, 10.759571014430019, 0.0 ], [ 4.783452152908747, 10.76032042014775, 0.0 ], [ 4.78355977468013, 10.760440757455322, 0.0 ], [ 4.783235156555746, 10.748969782698566, 0.0 ], [ 4.782300976861845, 10.749833448727731, 0.0 ] ] ], [ [ [ 4.782820924752688, 10.742541261912057, 0.0 ], [ 4.782385527603375, 10.743349896412683, 0.0 ], [ 4.782390919918524, 10.744153950335212, 0.0 ], [ 4.782367618651916, 10.744830224656573, 0.0 ], [ 4.782379666876475, 10.746635512740136, 0.0 ], [ 4.782891229070702, 10.747135111071939, 0.0 ], [ 4.783223832169774, 10.74856961482168, 0.0 ], [ 4.783040982544203, 10.742108289092641, 0.0 ], [ 4.782820924752688, 10.742541261912057, 0.0 ] ] ], [ [ [ 4.783686659175477, 10.731591118988822, 0.0 ], [ 4.783333333175698, 10.724999999988809, 0.0 ], [ 4.781820346586836, 10.724865423381184, 0.0 ], [ 4.782365134169573, 10.725519323838506, 0.0 ], [ 4.78179568425832, 10.727093125818428, 0.0 ], [ 4.781801751413211, 10.727984405704607, 0.0 ], [ 4.782314724083172, 10.729535901048221, 0.0 ], [ 4.782564143141085, 10.730897757005485, 0.0 ], [ 4.782971431317016, 10.731707268577255, 0.0 ], [ 4.783371809266393, 10.732552629841805, 0.0 ], [ 4.784150477541267, 10.733312740047912, 0.0 ], [ 4.784986048638813, 10.734460019227919, 0.0 ], [ 4.786076049533103, 10.734452613632639, 0.0 ], [ 4.786344764415827, 10.735310989610964, 0.0 ], [ 4.786308574436714, 10.736358691262812, 0.0 ], [ 4.786310182312249, 10.736600129496123, 0.0 ], [ 4.787485419174272, 10.735416666988909, 0.0 ], [ 4.783686659175477, 10.731591118988822, 0.0 ] ] ], [ [ [ 4.766120523373687, 10.712388427816478, 0.0 ], [ 4.766395736412225, 10.712816121572947, 0.0 ], [ 4.767214423852134, 10.713363239046846, 0.0 ], [ 4.767658715670794, 10.713833376336598, 0.0 ], [ 4.768331178274622, 10.714460960989772, 0.0 ], [ 4.769937564608576, 10.71394154589176, 0.0 ], [ 4.771148323091539, 10.713727387780036, 0.0 ], [ 4.770833333179715, 10.712499999988559, 0.0 ], [ 4.766120523373687, 10.712388427816478, 0.0 ] ] ], [ [ [ 4.760743458999961, 10.712927849247086, 0.0 ], [ 4.761201206204746, 10.712469470463175, 0.0 ], [ 4.761503700024382, 10.712279128050438, 0.0 ], [ 4.759419040773502, 10.712229775335128, 0.0 ], [ 4.760743458999961, 10.712927849247086, 0.0 ] ] ], [ [ [ 4.755856239772926, 10.71209440217911, 0.0 ], [ 4.75600280024242, 10.712403883941784, 0.0 ], [ 4.756300983566727, 10.712943921639994, 0.0 ], [ 4.757370852600582, 10.7124172575102, 0.0 ], [ 4.758986564298492, 10.712219536784946, 0.0 ], [ 4.755908881184253, 10.712146674988235, 0.0 ], [ 4.755856239772926, 10.71209440217911, 0.0 ] ] ], [ [ [ 4.751060047799603, 10.709364037768887, 0.0 ], [ 4.751072029034664, 10.709364445468289, 0.0 ], [ 4.752742321367518, 10.710735625716058, 0.0 ], [ 4.753564741685042, 10.711012192024608, 0.0 ], [ 4.754376597409484, 10.711299185043668, 0.0 ], [ 4.754789503863869, 10.711296890727521, 0.0 ], [ 4.755062243493273, 10.711305965567586, 0.0 ], [ 4.752083333185515, 10.708347913988165, 0.0 ], [ 4.751060047799603, 10.709364037768887, 0.0 ] ] ], [ [ [ 4.741666667188785, 10.7083333339879, 0.0 ], [ 4.741313341189019, 10.701742214987895, 0.0 ], [ 4.72118665819594, 10.681591118987489, 0.0 ], [ 4.720480007196319, 10.676742214987444, 0.0 ], [ 4.71701999219756, 10.673257785987342, 0.0 ], [ 4.716313341197885, 10.668408881987355, 0.0 ], [ 4.712853325199087, 10.664924451987259, 0.0 ], [ 4.712500000199381, 10.658333332987253, 0.0 ], [ 4.710075548200176, 10.6579800079872, 0.0 ], [ 4.706591118201459, 10.654519992987151, 0.0 ], [ 4.701742214203065, 10.653813341987, 0.0 ], [ 4.698257785204357, 10.650353325986952, 0.0 ], [ 4.695833333205168, 10.649999999986857, 0.0 ], [ 4.691666667206573, 10.649999999986751, 0.0 ], [ 4.691313341206649, 10.652424451986754, 0.0 ], [ 4.686045824208304, 10.657718325986632, 0.0 ], [ 4.686247951626962, 10.658025895112814, 0.0 ], [ 4.6871036, 10.6593279, 0.0 ], [ 4.689537607043571, 10.66166427253415, 0.0 ], [ 4.690192400206755, 10.662292799986718, 0.0 ], [ 4.690256189137302, 10.662354028929759, 0.0 ], [ 4.6907829, 10.6628596, 0.0 ], [ 4.6907916, 10.6632099, 0.0 ], [ 4.690852520837986, 10.665666802493384, 0.0 ], [ 4.690868400206416, 10.666307199986749, 0.0 ], [ 4.690931900206323, 10.669386900986737, 0.0 ], [ 4.690256620401829, 10.673393250602297, 0.0 ], [ 4.6888149, 10.6819468, 0.0 ], [ 4.688406582103601, 10.682749279075704, 0.0 ], [ 4.688044800236316, 10.683460300928846, 0.0 ], [ 4.6888149, 10.6864872, 0.0 ], [ 4.688957152148165, 10.689562955827785, 0.0 ], [ 4.688986000206418, 10.690186700986692, 0.0 ], [ 4.68924270020625, 10.691952400986667, 0.0 ], [ 4.688472599947476, 10.691784300148399, 0.0 ], [ 4.6880277, 10.6930413, 0.0 ], [ 4.6877881, 10.6937181, 0.0 ], [ 4.6894994, 10.6945589, 0.0 ], [ 4.6909271, 10.6967907, 0.0 ], [ 4.691284533003754, 10.697349528067669, 0.0 ], [ 4.6913818002054, 10.69750159998674, 0.0 ], [ 4.691741937754243, 10.698421673781073, 0.0 ], [ 4.691741938158581, 10.698421674814071, 0.0 ], [ 4.6930931, 10.7018736, 0.0 ], [ 4.6936065, 10.7032188, 0.0 ], [ 4.693606500098341, 10.703218800708619, 0.0 ], [ 4.693606500204499, 10.70321880098677, 0.0 ], [ 4.693863200204386, 10.705068499986769, 0.0 ], [ 4.6939885629008, 10.705402815021264, 0.0 ], [ 4.6944622, 10.7066659, 0.0 ], [ 4.6951467, 10.7118785, 0.0 ], [ 4.6965157, 10.7160822, 0.0 ], [ 4.696864230338799, 10.71714067760351, 0.0 ], [ 4.697456900202769, 10.718940599986864, 0.0 ], [ 4.697206001548254, 10.720337523800925, 0.0 ], [ 4.6964301, 10.7246575, 0.0 ], [ 4.6957456, 10.7282724, 0.0 ], [ 4.695289215665448, 10.729567770573256, 0.0 ], [ 4.694975500203326, 10.730458200986776, 0.0 ], [ 4.695006097330848, 10.731464873631623, 0.0 ], [ 4.6951467, 10.7360908, 0.0 ], [ 4.695335700371594, 10.737945507994372, 0.0 ], [ 4.699088372201762, 10.738114081986872, 0.0 ], [ 4.700567288201118, 10.74387715698691, 0.0 ], [ 4.70359937919998, 10.747789510987007, 0.0 ], [ 4.70416666719975, 10.74999999998701, 0.0 ], [ 4.700000000201131, 10.749999999986906, 0.0 ], [ 4.699112616201323, 10.753458320986864, 0.0 ], [ 4.694561651202855, 10.754059511986739, 0.0 ], [ 4.694034300202791, 10.762486599986739, 0.0 ], [ 4.694265900202527, 10.769675700986731, 0.0 ], [ 4.694299406558684, 10.770715564015054, 0.0 ], [ 4.694299406591209, 10.770715565024458, 0.0 ], [ 4.6944622, 10.7757678, 0.0 ], [ 4.6955745, 10.7785416, 0.0 ], [ 4.695574499923125, 10.778541600291762, 0.0 ], [ 4.695574500201817, 10.778541600986749, 0.0 ], [ 4.695153500201952, 10.78013940098675, 0.0 ], [ 4.695152104197353, 10.78046706467139, 0.0 ], [ 4.6951467, 10.7817357, 0.0 ], [ 4.695457676653994, 10.784256410236264, 0.0 ], [ 4.695488900144566, 10.784509500523583, 0.0 ], [ 4.6963701, 10.787701, 0.0 ], [ 4.696422, 10.7899569, 0.0 ], [ 4.6964301, 10.7903091, 0.0 ], [ 4.6977186, 10.7919078, 0.0 ], [ 4.6980559, 10.7923263, 0.0 ], [ 4.6986548, 10.7938392, 0.0 ], [ 4.6986547999354, 10.793839200317349, 0.0 ], [ 4.698654800200414, 10.793839200986808, 0.0 ], [ 4.698245600200517, 10.795849399986841, 0.0 ], [ 4.698227000332565, 10.795940500339954, 0.0 ], [ 4.6988887, 10.7966169, 0.0 ], [ 4.6991682, 10.7974534, 0.0 ], [ 4.699168200139461, 10.797453400805241, 0.0 ], [ 4.699168200200137, 10.797453400986834, 0.0 ], [ 4.699345600200094, 10.798477700986822, 0.0 ], [ 4.698911500200204, 10.799470600986838, 0.0 ], [ 4.698475200200339, 10.800139300986832, 0.0 ], [ 4.698060600200465, 10.800490700986822, 0.0 ], [ 4.698091600156848, 10.801210699974906, 0.0 ], [ 4.6988054, 10.8010965, 0.0 ], [ 4.69880540006823, 10.801096500007915, 0.0 ], [ 4.698805400200157, 10.801096499986809, 0.0 ], [ 4.699133800200048, 10.801134599986858, 0.0 ], [ 4.699457400199934, 10.801477199986818, 0.0 ], [ 4.699700100199844, 10.801810299986862, 0.0 ], [ 4.699771500199841, 10.802067299986836, 0.0 ], [ 4.699732704655005, 10.802206941507896, 0.0 ], [ 4.6996287, 10.8025813, 0.0 ], [ 4.699517755378431, 10.802794641246972, 0.0 ], [ 4.699443100199924, 10.802938199986819, 0.0 ], [ 4.699650406482822, 10.803417454933566, 0.0 ], [ 4.7004517, 10.8052699, 0.0 ], [ 4.7013073, 10.8084637, 0.0 ], [ 4.701307300166889, 10.808463700866406, 0.0 ], [ 4.701307300166889, 10.808463700866408, 0.0 ], [ 4.701307300199167, 10.808463700986891, 0.0 ], [ 4.701906300198912, 10.811573400986884, 0.0 ], [ 4.701930515776572, 10.811930253647263, 0.0 ], [ 4.7020774, 10.8140948, 0.0 ], [ 4.7028698, 10.8164944, 0.0 ], [ 4.7031042, 10.8172045, 0.0 ], [ 4.7049202, 10.8190788, 0.0 ], [ 4.7053313, 10.8195032, 0.0 ], [ 4.7060629, 10.8220382, 0.0 ], [ 4.706099, 10.822163, 0.0 ], [ 4.7067695, 10.8233046, 0.0 ], [ 4.7073824, 10.8243481, 0.0 ], [ 4.707104500340693, 10.825748475783922, 0.0 ], [ 4.707037500196854, 10.826086099987021, 0.0 ], [ 4.707604492485862, 10.827116164115841, 0.0 ], [ 4.708569, 10.8288684, 0.0 ], [ 4.708947898932951, 10.830133687969715, 0.0 ], [ 4.709709900195811, 10.832678299987084, 0.0 ], [ 4.708912600195999, 10.835804899987036, 0.0 ], [ 4.710178000195385, 10.842363900987088, 0.0 ], [ 4.709639700195317, 10.850998100987088, 0.0 ], [ 4.709597600246935, 10.85167400015874, 0.0 ], [ 4.717047, 10.8564628, 0.0 ], [ 4.71952859620143, 10.858585026105724, 0.0 ], [ 4.72006190019183, 10.859041099987332, 0.0 ], [ 4.720097948864863, 10.85907193778424, 0.0 ], [ 4.7204403, 10.8593648, 0.0 ], [ 4.72232283743807, 10.865783182267982, 0.0 ], [ 4.722358022237641, 10.865903142358761, 0.0 ], [ 4.722758082118793, 10.857227393864745, 0.0 ], [ 4.721949724488844, 10.85478085823952, 0.0 ], [ 4.721431066227866, 10.854274423349063, 0.0 ], [ 4.721450005309579, 10.853733455933085, 0.0 ], [ 4.721025748563917, 10.853318981228808, 0.0 ], [ 4.721744751591131, 10.85265509767942, 0.0 ], [ 4.721736725776224, 10.851379603912985, 0.0 ], [ 4.720656209651735, 10.851016247083159, 0.0 ], [ 4.720693670075811, 10.849944614106443, 0.0 ], [ 4.720402047892926, 10.849659631341497, 0.0 ], [ 4.720149184271841, 10.848568363436412, 0.0 ], [ 4.719840163379803, 10.84826622600637, 0.0 ], [ 4.71878494577696, 10.847742013605018, 0.0 ], [ 4.719360494553636, 10.846394046931945, 0.0 ], [ 4.719049894852341, 10.846090302007722, 0.0 ], [ 4.717342718341722, 10.845241997205115, 0.0 ], [ 4.71693029991119, 10.843923086243842, 0.0 ], [ 4.716637833143703, 10.843341579673993, 0.0 ], [ 4.716683557202018, 10.842027993624699, 0.0 ], [ 4.71667687949479, 10.840958393984474, 0.0 ], [ 4.716976496083769, 10.840681645308186, 0.0 ], [ 4.717259119671323, 10.839683725871176, 0.0 ], [ 4.716169338300801, 10.839317335051254, 0.0 ], [ 4.715341035855316, 10.839024350198809, 0.0 ], [ 4.715373926919402, 10.838085852742154, 0.0 ], [ 4.715369668030986, 10.837409259173604, 0.0 ], [ 4.71539320484853, 10.836733052657378, 0.0 ], [ 4.715390333164971, 10.836296701268349, 0.0 ], [ 4.714858437356118, 10.835239609707068, 0.0 ], [ 4.714875156113314, 10.834760455104137, 0.0 ], [ 4.713501812901738, 10.834409140725729, 0.0 ], [ 4.7132416322493, 10.833832578427348, 0.0 ], [ 4.713805623775149, 10.832787049885786, 0.0 ], [ 4.713532659095771, 10.832244665336837, 0.0 ], [ 4.713291754302209, 10.830315306796336, 0.0 ], [ 4.714129613559619, 10.8295415583107, 0.0 ], [ 4.714124566255431, 10.828732290972019, 0.0 ], [ 4.714686710259382, 10.828472144624165, 0.0 ], [ 4.715248467379221, 10.807849622644584, 0.0 ], [ 4.714728471403462, 10.805147097428803, 0.0 ], [ 4.713659402223068, 10.804102648543168, 0.0 ], [ 4.71339884930342, 10.803552516544439, 0.0 ], [ 4.713127457586608, 10.803012806059176, 0.0 ], [ 4.712866905982311, 10.802462674314411, 0.0 ], [ 4.712320201193418, 10.801640598366912, 0.0 ], [ 4.712598136828738, 10.793666658248094, 0.0 ], [ 4.712548411375002, 10.785928652259605, 0.0 ], [ 4.711476745141811, 10.784317591511503, 0.0 ], [ 4.711515888176127, 10.783197892130399, 0.0 ], [ 4.712054576166043, 10.782700079412331, 0.0 ], [ 4.711781369442793, 10.782156914179325, 0.0 ], [ 4.712151710195799, 10.737043107688732, 0.0 ], [ 4.714075603311493, 10.736454982319835, 0.0 ], [ 4.714898779437163, 10.735919831892778, 0.0 ], [ 4.716542993960573, 10.735417150575769, 0.0 ], [ 4.71682544673904, 10.735134575460176, 0.0 ], [ 4.719522691631306, 10.734738367795646, 0.0 ], [ 4.719855830102047, 10.734082805529342, 0.0 ], [ 4.720810498402214, 10.734114991254069, 0.0 ], [ 4.721221013797894, 10.734112720551657, 0.0 ], [ 4.721497213183022, 10.734121812687532, 0.0 ], [ 4.721789664144563, 10.733546553309427, 0.0 ], [ 4.721784339852559, 10.732767399945066, 0.0 ], [ 4.722474042762181, 10.73244814428123, 0.0 ], [ 4.726584122970133, 10.732587714186366, 0.0 ], [ 4.727279497741414, 10.731219348665483, 0.0 ], [ 4.72820161825982, 10.730639526274837, 0.0 ], [ 4.728681751558302, 10.728803066733837, 0.0 ], [ 4.729717665501029, 10.727845828075294, 0.0 ], [ 4.730894837566861, 10.727485676705195, 0.0 ], [ 4.731185975843389, 10.725860672394013, 0.0 ], [ 4.731818183798131, 10.725276319708751, 0.0 ], [ 4.732322164734107, 10.722899457812771, 0.0 ], [ 4.732878425257451, 10.72264176114181, 0.0 ], [ 4.733271265381349, 10.721499131496605, 0.0 ], [ 4.734279950661325, 10.721031988368345, 0.0 ], [ 4.734826293888323, 10.719957000969051, 0.0 ], [ 4.735415633295798, 10.719683894124371, 0.0 ], [ 4.736342757246818, 10.719715637697151, 0.0 ], [ 4.73675663380982, 10.718900991471314, 0.0 ], [ 4.7370501189206, 10.71862963717197, 0.0 ], [ 4.737603964132614, 10.717018255079379, 0.0 ], [ 4.737886618155684, 10.716756793343089, 0.0 ], [ 4.738166315732116, 10.715943474011393, 0.0 ], [ 4.738456549456693, 10.715140870527623, 0.0 ], [ 4.739125066751006, 10.712915279660237, 0.0 ], [ 4.742724815745436, 10.713036977173727, 0.0 ], [ 4.743272146423804, 10.713033896630892, 0.0 ], [ 4.74368509406027, 10.713047475412026, 0.0 ], [ 4.744452598151526, 10.711536771527756, 0.0 ], [ 4.745642750656472, 10.71117988215042, 0.0 ], [ 4.746163628740582, 10.711730895998192, 0.0 ], [ 4.746658304576778, 10.711235869923343, 0.0 ], [ 4.744091118187985, 10.708686659987999, 0.0 ], [ 4.741666667188785, 10.7083333339879, 0.0 ] ] ] ] } },
{ "type": "Feature", "properties": { "Stra_Catch": "Malenda", "State": "Kebbi", "LGA": "Zuru", "Population": 0, "Cleard_TOR": "Cleared", "Status": "Not yet Submitted", "Start_Date": "2025-03-10T00:00:00", "End_Date": "1899-12-30T00:00:00", "Micr_Catch": "Zuru Dam/Rikoto", "Size_Ha": 31307.527529300001, "Comments": null, "OBJECTID_1": 0, "Shape_Leng": 0.0, "Shape_Area": 0.0, "parent_strategic_name": "Malenda", "clipped_to_state": true }, "geometry": { "type": "MultiPolygon", "coordinates": [ [ [ [ 5.295252482064371, 11.378669399995948, 0.0 ], [ 5.288867187065142, 11.383264669995931, 0.0 ], [ 5.279797024066384, 11.372980923995824, 0.0 ], [ 5.278134155066619, 11.367314317995836, 0.0 ], [ 5.242599993744416, 11.366683242597961, 0.0 ], [ 5.242577507639112, 11.366892635768952, 0.0 ], [ 5.242211055474434, 11.372497482182764, 0.0 ], [ 5.24224438618587, 11.376919370314038, 0.0 ], [ 5.241622921723732, 11.376898731908719, 0.0 ], [ 5.240512729888041, 11.377707954894552, 0.0 ], [ 5.239694374345127, 11.377681091992077, 0.0 ], [ 5.23872013831858, 11.377688194071194, 0.0 ], [ 5.238193584781704, 11.378724345763674, 0.0 ], [ 5.237455627727057, 11.381183299426715, 0.0 ], [ 5.236583457986399, 11.382801774789691, 0.0 ], [ 5.236057079060428, 11.382784454384101, 0.0 ], [ 5.23572027396547, 11.387930320789398, 0.0 ], [ 5.23529541649131, 11.388323096584053, 0.0 ], [ 5.234886426042524, 11.388731940137077, 0.0 ], [ 5.233791134233188, 11.389239072134369, 0.0 ], [ 5.233503803823417, 11.389526516828141, 0.0 ], [ 5.232397408272138, 11.389777802468394, 0.0 ], [ 5.231547360938388, 11.390628118720867, 0.0 ], [ 5.229651783220922, 11.390284095560771, 0.0 ], [ 5.227585349903364, 11.389992074009873, 0.0 ], [ 5.227175111879569, 11.390799105083168, 0.0 ], [ 5.226891865136769, 11.391060943429066, 0.0 ], [ 5.226210455515115, 11.391742589163457, 0.0 ], [ 5.225478738129357, 11.392418296468568, 0.0 ], [ 5.223848605470049, 11.392917181714203, 0.0 ], [ 5.22357593168896, 11.393189729195736, 0.0 ], [ 5.222480613823567, 11.393696806945371, 0.0 ], [ 5.222187837515829, 11.393989718017259, 0.0 ], [ 5.221504735880576, 11.393967175676257, 0.0 ], [ 5.220826629959491, 11.393972195033788, 0.0 ], [ 5.2202546681406, 11.393672118448007, 0.0 ], [ 5.219740480484583, 11.392590632942843, 0.0 ], [ 5.218895177772742, 11.393140314498837, 0.0 ], [ 5.217937503160088, 11.393108674181176, 0.0 ], [ 5.217550301703286, 11.392294563830189, 0.0 ], [ 5.2170240734613, 11.391253114510226, 0.0 ], [ 5.216736303469257, 11.390337691288291, 0.0 ], [ 5.214817170061394, 11.3914523327444, 0.0 ], [ 5.214778528964399, 11.391464163840396, 0.0 ], [ 5.20868868849214, 11.39757344552258, 0.0 ], [ 5.208692837303198, 11.397600831771056, 0.0 ], [ 5.208978316921788, 11.397878983598595, 0.0 ], [ 5.208520731654317, 11.398090708768327, 0.0 ], [ 5.21214667407505, 11.401742214995179, 0.0 ], [ 5.212500000074955, 11.404166666995136, 0.0 ], [ 5.21247874488769, 11.405030074599386, 0.0 ], [ 5.212704484321739, 11.405504767056042, 0.0 ], [ 5.212977123078761, 11.4060445255134, 0.0 ], [ 5.213195443977296, 11.409869759879003, 0.0 ], [ 5.212361890405543, 11.410639548342862, 0.0 ], [ 5.212333265030167, 11.41093961628849, 0.0 ], [ 5.212250198546192, 11.414313862444427, 0.0 ], [ 5.212600067220098, 11.415006034619086, 0.0 ], [ 5.212546821091976, 11.416573337786732, 0.0 ], [ 5.212826179314431, 11.417414622045721, 0.0 ], [ 5.213071374506086, 11.419213712261532, 0.0 ], [ 5.212125401222716, 11.419383258292957, 0.0 ], [ 5.211932712074767, 11.427210489995154, 0.0 ], [ 5.208900620075191, 11.431122843995142, 0.0 ], [ 5.207482570075288, 11.436649067995118, 0.0 ], [ 5.205177139457461, 11.437240691752532, 0.0 ], [ 5.205970079261458, 11.43763297058101, 0.0 ], [ 5.206542622667027, 11.437933369982808, 0.0 ], [ 5.206479982892893, 11.439777115932177, 0.0 ], [ 5.206786295474799, 11.442053207302264, 0.0 ], [ 5.20643749744295, 11.443325276319197, 0.0 ], [ 5.206440749562469, 11.443744681002075, 0.0 ], [ 5.20725558358604, 11.444147910647345, 0.0 ], [ 5.207798860866887, 11.444432860684879, 0.0 ], [ 5.20807351099389, 11.444158522625873, 0.0 ], [ 5.209060062506191, 11.443905846632614, 0.0 ], [ 5.209437734099288, 11.444770888451846, 0.0 ], [ 5.20886015862861, 11.446877663840441, 0.0 ], [ 5.209127970290763, 11.450192414586535, 0.0 ], [ 5.208771000084415, 11.452397766889861, 0.0 ], [ 5.208247095698017, 11.45255795205731, 0.0 ], [ 5.208464861619103, 11.456620265899495, 0.0 ], [ 5.209012398721134, 11.456907332606274, 0.0 ], [ 5.208989540175033, 11.457575742518118, 0.0 ], [ 5.208994766774814, 11.458268843166143, 0.0 ], [ 5.210099375922134, 11.458815453014831, 0.0 ], [ 5.210653436274493, 11.459399336286792, 0.0 ], [ 5.210589179400118, 11.461282201414539, 0.0 ], [ 5.21010287283741, 11.462183986578388, 0.0 ], [ 5.212485419074333, 11.464583333995154, 0.0 ], [ 5.211291220524163, 11.46578595376468, 0.0 ], [ 5.212166623012096, 11.466955631146387, 0.0 ], [ 5.212429281048792, 11.467441336536627, 0.0 ], [ 5.211052613040844, 11.467753451344016, 0.0 ], [ 5.21076899283962, 11.468838103736731, 0.0 ], [ 5.209933768009229, 11.469093518982406, 0.0 ], [ 5.210747375416742, 11.470457104835207, 0.0 ], [ 5.211001587575288, 11.47157518541832, 0.0 ], [ 5.210156610712766, 11.473141973679876, 0.0 ], [ 5.210160877751637, 11.473725594369862, 0.0 ], [ 5.210958216088466, 11.474501440820495, 0.0 ], [ 5.211319352160944, 11.475261041386924, 0.0 ], [ 5.210947775186892, 11.475604182932397, 0.0 ], [ 5.210674634477372, 11.475903125170422, 0.0 ], [ 5.211340625240324, 11.477220639402177, 0.0 ], [ 5.213397981946181, 11.477531354585352, 0.0 ], [ 5.21365255562361, 11.478623000565888, 0.0 ], [ 5.214477765372661, 11.478899193231191, 0.0 ], [ 5.214684534255899, 11.479556622701788, 0.0 ], [ 5.218801540073296, 11.479809400995229, 0.0 ], [ 5.219582360319247, 11.480363024940234, 0.0 ], [ 5.219672173709731, 11.48031884773901, 0.0 ], [ 5.220485319110962, 11.480877798180996, 0.0 ], [ 5.223231833358251, 11.481178882427399, 0.0 ], [ 5.223497265964355, 11.481458376721797, 0.0 ], [ 5.223773828845739, 11.481727437262979, 0.0 ], [ 5.223737991808162, 11.482779637166235, 0.0 ], [ 5.236728584070811, 11.484104749995369, 0.0 ], [ 5.236858148919445, 11.485374828178482, 0.0 ], [ 5.237327645356062, 11.485831566898158, 0.0 ], [ 5.236917537677546, 11.485956995076222, 0.0 ], [ 5.23750000007065, 11.491666666995412, 0.0 ], [ 5.238067287070518, 11.493877156995397, 0.0 ], [ 5.24109937907009, 11.497789510995448, 0.0 ], [ 5.24251742906983, 11.503315734995452, 0.0 ], [ 5.248043823069108, 11.504733954995515, 0.0 ], [ 5.249843208581206, 11.506128486781771, 0.0 ], [ 5.250076787322212, 11.50589512738315, 0.0 ], [ 5.250794976525451, 11.505638903047402, 0.0 ], [ 5.251545518241416, 11.507447784350441, 0.0 ], [ 5.251956176068546, 11.507766045995519, 0.0 ], [ 5.263238615319428, 11.508769729900004, 0.0 ], [ 5.265422167913586, 11.508534871758073, 0.0 ], [ 5.266840632212105, 11.507613034075362, 0.0 ], [ 5.267651451355639, 11.508038070817708, 0.0 ], [ 5.268993796677493, 11.508028325563105, 0.0 ], [ 5.270104937931113, 11.509448037330003, 0.0 ], [ 5.27005107485819, 11.511031294568292, 0.0 ], [ 5.271129833846873, 11.512935295617238, 0.0 ], [ 5.271534109364404, 11.514220599479367, 0.0 ], [ 5.272569656745312, 11.514909243574888, 0.0 ], [ 5.272995688923311, 11.516781868361203, 0.0 ], [ 5.272333837593897, 11.518009336491813, 0.0 ], [ 5.272705523437944, 11.518371088473737, 0.0 ], [ 5.273238422803479, 11.519195551653782, 0.0 ], [ 5.273844206343835, 11.519495255780004, 0.0 ], [ 5.276777881915077, 11.519473636533812, 0.0 ], [ 5.277269516319161, 11.519991881696196, 0.0 ], [ 5.277447039136455, 11.520752963258618, 0.0 ], [ 5.282341896174891, 11.52059219826824, 0.0 ], [ 5.283130783025377, 11.51986384925735, 0.0 ], [ 5.283124647501676, 11.519046135295765, 0.0 ], [ 5.284231869731165, 11.518794805858835, 0.0 ], [ 5.284617776720589, 11.518035785359748, 0.0 ], [ 5.285618732952429, 11.517729409244135, 0.0 ], [ 5.285936085265864, 11.517412175891371, 0.0 ], [ 5.288502460402388, 11.516224327395483, 0.0 ], [ 5.289256919969045, 11.517019204720295, 0.0 ], [ 5.294514571080896, 11.516737361478071, 0.0 ], [ 5.294861933242388, 11.515726362348861, 0.0 ], [ 5.295571155409916, 11.515419399924832, 0.0 ], [ 5.297473662267906, 11.516088878266663, 0.0 ], [ 5.299234097519021, 11.516484365110534, 0.0 ], [ 5.299556015863171, 11.516467108258013, 0.0 ], [ 5.300198822691525, 11.515202276656462, 0.0 ], [ 5.300763798570833, 11.514402396856182, 0.0 ], [ 5.301205057062544, 11.513118599893932, 0.0 ], [ 5.301913505638042, 11.512521516141206, 0.0 ], [ 5.302694287547914, 11.513343811478681, 0.0 ], [ 5.303539272381325, 11.513890845286474, 0.0 ], [ 5.304074411744749, 11.512788055135942, 0.0 ], [ 5.303539104595041, 11.511729829172177, 0.0 ], [ 5.303283115047244, 11.510718788145301, 0.0 ], [ 5.305126932309009, 11.509559908702633, 0.0 ], [ 5.306452552402126, 11.509603459725035, 0.0 ], [ 5.306883753307931, 11.509600210584402, 0.0 ], [ 5.307417880943847, 11.50906594547078, 0.0 ], [ 5.307848601860549, 11.508668140586666, 0.0 ], [ 5.308772757244194, 11.509641387593341, 0.0 ], [ 5.309628993134262, 11.509635067964972, 0.0 ], [ 5.310179148289377, 11.509084604236, 0.0 ], [ 5.311535597348931, 11.509129052574307, 0.0 ], [ 5.311813794097294, 11.50885094878187, 0.0 ], [ 5.312416176464237, 11.508571931980322, 0.0 ], [ 5.313878759926446, 11.508620094925476, 0.0 ], [ 5.315110424280891, 11.508610848345848, 0.0 ], [ 5.315917492305531, 11.509991427750959, 0.0 ], [ 5.31674297683101, 11.510267388801617, 0.0 ], [ 5.31678480776704, 11.510296126158016, 0.0 ], [ 5.317019992060621, 11.505908881996108, 0.0 ], [ 5.321186659060169, 11.501712883996147, 0.0 ], [ 5.32048000806039, 11.489242214996162, 0.0 ], [ 5.308686659061861, 11.47742445199605, 0.0 ], [ 5.307980008062016, 11.472575548996067, 0.0 ], [ 5.304519992062439, 11.469091118996017, 0.0 ], [ 5.303813341062693, 11.447575547996008, 0.0 ], [ 5.295480008063779, 11.43921559699595, 0.0 ], [ 5.296186659063996, 11.410075547995987, 0.0 ], [ 5.30381334106311, 11.402424451996032, 0.0 ], [ 5.304166666063216, 11.391666666996029, 0.0 ], [ 5.305017429063103, 11.388350931996037, 0.0 ], [ 5.308333333062747, 11.387500000996063, 0.0 ], [ 5.307577514062902, 11.379925706996064, 0.0 ], [ 5.295252482064371, 11.378669399995948, 0.0 ] ] ], [ [ [ 5.241598126187047, 11.334449366508521, 0.0 ], [ 5.241066507960172, 11.336026502984257, 0.0 ], [ 5.241641183977183, 11.336585419040865, 0.0 ], [ 5.241578179173093, 11.33845146241466, 0.0 ], [ 5.241583990377194, 11.339235823279203, 0.0 ], [ 5.24128261292018, 11.340069682491633, 0.0 ], [ 5.240981313432997, 11.342534519938189, 0.0 ], [ 5.241526945560799, 11.343613723588765, 0.0 ], [ 5.241492034378229, 11.344642687655714, 0.0 ], [ 5.241666666071619, 11.346144132431125, 0.0 ], [ 5.241666666071741, 11.334322095949354, 0.0 ], [ 5.241598126187047, 11.334449366508521, 0.0 ] ] ] ] } }
]
}
