{
"type": "FeatureCollection",
"name": "Kebbi_state_boundary",
"crs": { "type": "name", "properties": { "name": "urn:ogc:def:crs:OGC:1.3:CRS84" } },
"features": [
{ "type": "Feature", "properties": { "state_code": "KB", "state_name": "Kebbi", "cap_city": "Birnin Kebbi", "geo_zone": "NWZ" }, "geometry": { "type": "Polygon", "coordinates": [ [ [ 3.7700334, 10.9197438 ], [ 3.7423102, 10.9623345 ], [ 3.7173795, 11.0194973 ], [ 3.7172311, 11.0198377 ], [ 3.7247715, 11.0273642 ], [ 3.7255825, 11.0281737 ], [ 3.7227853, 11.0319675 ], [ 3.7220332, 11.0485552 ], [ 3.7205036, 11.0503034 ], [ 3.7218762, 11.0520179 ], [ 3.7282935, 11.0632147 ], [ 3.7285787, 11.0783298 ], [ 3.7314309, 11.0825283 ], [ 3.7310031, 11.0870066 ], [ 3.7240866, 11.0930942 ], [ 3.7204501, 11.0965927 ], [ 3.7195231, 11.1022603 ], [ 3.7192379, 11.1065284 ], [ 3.7204501, 11.1120559 ], [ 3.7218049, 11.1152743 ], [ 3.7210205, 11.1182129 ], [ 3.7214484, 11.1231105 ], [ 3.7197371, 11.1262589 ], [ 3.7231596, 11.1303167 ], [ 3.7224772, 11.1323891 ], [ 3.7175266, 11.1336749 ], [ 3.713391, 11.1347243 ], [ 3.7109667, 11.1327654 ], [ 3.7098258, 11.1345844 ], [ 3.708685, 11.1380125 ], [ 3.6997007, 11.1419303 ], [ 3.6914294, 11.1408809 ], [ 3.6854815, 11.1434898 ], [ 3.6822134, 11.1427028 ], [ 3.6811735, 11.1440728 ], [ 3.6793612, 11.1441894 ], [ 3.6741026, 11.1439271 ], [ 3.67027, 11.1434024 ], [ 3.6681903, 11.1461716 ], [ 3.6647439, 11.1467254 ], [ 3.6631099, 11.1478331 ], [ 3.6611193, 11.1509521 ], [ 3.66002, 11.1533715 ], [ 3.6577535, 11.1564632 ], [ 3.6550439, 11.1586551 ], [ 3.6526196, 11.1608937 ], [ 3.6490069, 11.163552 ], [ 3.6449663, 11.1652776 ], [ 3.6428272, 11.1683089 ], [ 3.6387391, 11.1720864 ], [ 3.6315136, 11.1766099 ], [ 3.6005875, 11.2039334 ], [ 3.564863, 11.2525335 ], [ 3.5436145, 11.2582328 ], [ 3.5304946, 11.2643867 ], [ 3.5166141, 11.2817289 ], [ 3.5086281, 11.2910522 ], [ 3.5036843, 11.2949679 ], [ 3.4972194, 11.2964596 ], [ 3.4920856, 11.3003753 ], [ 3.4882827, 11.3057825 ], [ 3.4856207, 11.313427 ], [ 3.4749999, 11.4297218 ], [ 3.4771355, 11.4554308 ], [ 3.4869398, 11.4793067 ], [ 3.5106606, 11.5246919 ], [ 3.5106227, 11.5674704 ], [ 3.5125242, 11.5926173 ], [ 3.5134654, 11.6234211 ], [ 3.5125147, 11.64414 ], [ 3.5108509, 11.6699783 ], [ 3.5263001, 11.6785905 ], [ 3.5705085, 11.686737 ], [ 3.5930881, 11.6944177 ], [ 3.6138875, 11.6996197 ], [ 3.6213958, 11.704884 ], [ 3.6275224, 11.7088328 ], [ 3.6284617, 11.7094382 ], [ 3.6288776, 11.7096099 ], [ 3.6291676, 11.7098345 ], [ 3.6295363, 11.7101669 ], [ 3.6298218, 11.7104993 ], [ 3.6299499, 11.7105961 ], [ 3.6303613, 11.7109571 ], [ 3.6307008, 11.7112631 ], [ 3.6312718, 11.711754 ], [ 3.6322789, 11.7125178 ], [ 3.6330846, 11.7131874 ], [ 3.6333186, 11.7133626 ], [ 3.6338356, 11.7137714 ], [ 3.637395, 11.7176038 ], [ 3.6506661, 11.7365112 ], [ 3.6532066, 11.7402056 ], [ 3.6558686, 11.7437893 ], [ 3.658697, 11.7485131 ], [ 3.6638547, 11.7554359 ], [ 3.6649361, 11.7591823 ], [ 3.6624648, 11.7866557 ], [ 3.6632594, 11.7982788 ], [ 3.6603953, 11.8101092 ], [ 3.6316667, 11.8252773 ], [ 3.6282386, 11.8472872 ], [ 3.6271662, 11.8541517 ], [ 3.6225466, 11.8837869 ], [ 3.6187369, 11.9082237 ], [ 3.6280023, 11.9200481 ], [ 3.6439269, 11.9423724 ], [ 3.6716661, 11.9755545 ], [ 3.6708331, 12.0099955 ], [ 3.6605922, 12.0395486 ], [ 3.6352373, 12.1014414 ], [ 3.628404, 12.1252612 ], [ 3.6295924, 12.1487883 ], [ 3.6321403, 12.1534252 ], [ 3.6327279, 12.1544946 ], [ 3.639991, 12.1643484 ], [ 3.6542602, 12.1770206 ], [ 3.654537, 12.1772663 ], [ 3.666075, 12.2071098 ], [ 3.6663602, 12.2193752 ], [ 3.6661148, 12.2494392 ], [ 3.6651748, 12.2862235 ], [ 3.6639106, 12.3356891 ], [ 3.6640778, 12.3828996 ], [ 3.6618726, 12.4154375 ], [ 3.6579183, 12.4371045 ], [ 3.6524041, 12.4864911 ], [ 3.6540934, 12.5117813 ], [ 3.6559842, 12.520562 ], [ 3.657726, 12.5286505 ], [ 3.6577773, 12.5288887 ], [ 3.672685, 12.5519094 ], [ 3.6917182, 12.5641191 ], [ 3.6982806, 12.5688066 ], [ 3.7055536, 12.5753021 ], [ 3.71411, 12.5827253 ], [ 3.7438887, 12.6044828 ], [ 3.7952275, 12.64252 ], [ 3.853036, 12.6815691 ], [ 3.8875612, 12.7053281 ], [ 3.9038789, 12.7115843 ], [ 3.922513, 12.725672 ], [ 3.9375135, 12.7371793 ], [ 3.9527774, 12.748888 ], [ 3.9802054, 12.7934725 ], [ 3.9913609, 12.8116037 ], [ 3.9982143, 12.8227421 ], [ 4.0072676, 12.8374549 ], [ 4.0309873, 12.8759984 ], [ 4.0376918, 12.8868919 ], [ 4.0432123, 12.8955338 ], [ 4.0508664, 12.903141 ], [ 4.0509953, 12.9032543 ], [ 4.0515988, 12.9037844 ], [ 4.0515988, 12.9050835 ], [ 4.0517871, 12.9063544 ], [ 4.0520479, 12.9065944 ], [ 4.0522652, 12.9070039 ], [ 4.0525108, 12.9103316 ], [ 4.0525173, 12.9104188 ], [ 4.062421, 12.9270679 ], [ 4.1044263, 12.9954533 ], [ 4.1049995, 12.9963865 ], [ 4.1122427, 13.03412 ], [ 4.1180727, 13.0644874 ], [ 4.1201448, 13.0752796 ], [ 4.1256706, 13.0994683 ], [ 4.1326205, 13.1402479 ], [ 4.1400035, 13.1523094 ], [ 4.1406898, 13.1558915 ], [ 4.1411839, 13.1580301 ], [ 4.1414593, 13.1591496 ], [ 4.1416007, 13.1600974 ], [ 4.1417338, 13.1607535 ], [ 4.1418419, 13.1612314 ], [ 4.1420143, 13.1616399 ], [ 4.1421283, 13.1618621 ], [ 4.1421141, 13.1621953 ], [ 4.1420499, 13.162723 ], [ 4.142, 13.1638755 ], [ 4.1420665, 13.1644217 ], [ 4.1420428, 13.1658624 ], [ 4.1420903, 13.1682288 ], [ 4.1428224, 13.1793881 ], [ 4.1432027, 13.1808136 ], [ 4.1431076, 13.1822206 ], [ 4.1371799, 13.2169585 ], [ 4.1334007, 13.2241775 ], [ 4.1324025, 13.2293835 ], [ 4.1264047, 13.2496741 ], [ 4.1785704, 13.2540686 ], [ 4.2139136, 13.2636862 ], [ 4.258027, 13.2644265 ], [ 4.3002389, 13.2596146 ], [ 4.3744473, 13.2010902 ], [ 4.3918455, 13.1971346 ], [ 4.407076, 13.1955419 ], [ 4.4297557, 13.192668 ], [ 4.4311223, 13.1920895 ], [ 4.4324296, 13.1918003 ], [ 4.4349252, 13.1909325 ], [ 4.4377774, 13.1898333 ], [ 4.4395006, 13.1887919 ], [ 4.4468686, 13.1867092 ], [ 4.4485324, 13.186015 ], [ 4.4504932, 13.1852629 ], [ 4.4522164, 13.1843372 ], [ 4.4537019, 13.1835851 ], [ 4.455128, 13.1830066 ], [ 4.4561381, 13.1827752 ], [ 4.4567918, 13.1827173 ], [ 4.4574226, 13.1826222 ], [ 4.4580929, 13.1826083 ], [ 4.459519, 13.1827055 ], [ 4.4604744, 13.182775 ], [ 4.4617864, 13.1823167 ], [ 4.4630314, 13.1813058 ], [ 4.4654229, 13.1808727 ], [ 4.4675468, 13.1805189 ], [ 4.4695076, 13.1794775 ], [ 4.4708743, 13.1788411 ], [ 4.4725975, 13.1775104 ], [ 4.4743206, 13.1763533 ], [ 4.4761627, 13.1750226 ], [ 4.4779453, 13.1742705 ], [ 4.4789554, 13.1734605 ], [ 4.4800249, 13.1725348 ], [ 4.4806786, 13.1717248 ], [ 4.4819858, 13.1709148 ], [ 4.4828771, 13.1702205 ], [ 4.4843032, 13.1695841 ], [ 4.4851945, 13.1690055 ], [ 4.4861452, 13.168832 ], [ 4.4870365, 13.1681377 ], [ 4.4883437, 13.1677905 ], [ 4.4888191, 13.1673277 ], [ 4.4895321, 13.1667491 ], [ 4.4903046, 13.1665755 ], [ 4.4910771, 13.1659969 ], [ 4.4917307, 13.1651291 ], [ 4.4921466, 13.1640876 ], [ 4.4925626, 13.1629304 ], [ 4.4930379, 13.162294 ], [ 4.4941075, 13.1615418 ], [ 4.4957118, 13.1603268 ], [ 4.4966031, 13.1603268 ], [ 4.4975303, 13.1599619 ], [ 4.5129507, 13.1367035 ], [ 4.5547152, 13.1114445 ], [ 4.6230468, 13.0701123 ], [ 4.6231642, 13.070269 ], [ 4.6829859, 13.0789115 ], [ 4.702156, 13.0732034 ], [ 4.7172211, 13.0618347 ], [ 4.7263465, 13.0544966 ], [ 4.7316277, 13.0527711 ], [ 4.7300175, 13.052009 ], [ 4.7247065, 13.0494953 ], [ 4.7212126, 13.0451886 ], [ 4.7165779, 13.0408818 ], [ 4.7152571, 13.0383671 ], [ 4.7025906, 13.025758 ], [ 4.6866694, 13.0061299 ], [ 4.6777576, 12.9990942 ], [ 4.6777733, 12.9984921 ], [ 4.6780428, 12.988163 ], [ 4.6794125, 12.9839614 ], [ 4.6806098, 12.9802885 ], [ 4.6791679, 12.9794585 ], [ 4.6784548, 12.9794585 ], [ 4.6782766, 12.9802113 ], [ 4.6780389, 12.9809061 ], [ 4.6773853, 12.9806745 ], [ 4.6766128, 12.9805587 ], [ 4.6758403, 12.9805008 ], [ 4.6747114, 12.9802692 ], [ 4.6740577, 12.9806745 ], [ 4.673523, 12.9806166 ], [ 4.6734635, 12.9800955 ], [ 4.6736073, 12.9794886 ], [ 4.6736418, 12.9793427 ], [ 4.673107, 12.97859 ], [ 4.6723346, 12.9776057 ], [ 4.6717998, 12.9766213 ], [ 4.6709085, 12.9763897 ], [ 4.6704331, 12.9755212 ], [ 4.6694824, 12.9754633 ], [ 4.6678781, 12.975058 ], [ 4.6661549, 12.9734946 ], [ 4.6656201, 12.9715259 ], [ 4.665739, 12.969615 ], [ 4.6650707, 12.9695649 ], [ 4.6649665, 12.9695571 ], [ 4.6641346, 12.9694413 ], [ 4.6634216, 12.9704836 ], [ 4.6620549, 12.9701941 ], [ 4.6605694, 12.9694413 ], [ 4.6594404, 12.9689202 ], [ 4.6593216, 12.9681095 ], [ 4.6589651, 12.9671252 ], [ 4.6594999, 12.9662566 ], [ 4.6604506, 12.9659671 ], [ 4.661639, 12.9658512 ], [ 4.6611636, 12.964809 ], [ 4.6611042, 12.9633613 ], [ 4.6609854, 12.9613346 ], [ 4.6606883, 12.9594816 ], [ 4.660174, 12.958947 ], [ 4.659797, 12.9585551 ], [ 4.658668, 12.958034 ], [ 4.6577767, 12.957976 ], [ 4.656826, 12.9568179 ], [ 4.6553405, 12.9562388 ], [ 4.6545086, 12.9567021 ], [ 4.653855, 12.9559493 ], [ 4.6529042, 12.9550807 ], [ 4.6523695, 12.9543279 ], [ 4.6512405, 12.9543279 ], [ 4.6503492, 12.95427 ], [ 4.6495173, 12.9540963 ], [ 4.6489231, 12.9532276 ], [ 4.6484478, 12.9531118 ], [ 4.6480318, 12.9525907 ], [ 4.6485666, 12.9516641 ], [ 4.6483289, 12.9505639 ], [ 4.647878, 12.9501794 ], [ 4.6473782, 12.9497531 ], [ 4.6463718, 12.9498961 ], [ 4.6462305, 12.9487395 ], [ 4.6462153, 12.9486152 ], [ 4.6579165, 12.9442452 ], [ 4.6869206, 12.9387557 ], [ 4.6874763, 12.938452 ], [ 4.6881685, 12.938165 ], [ 4.6892737, 12.9372269 ], [ 4.6898592, 12.9361768 ], [ 4.690985, 12.935142 ], [ 4.6943, 12.9333 ], [ 4.6953296, 12.931837 ], [ 4.696618, 12.9304511 ], [ 4.6973667, 12.9287485 ], [ 4.6979728, 12.9266983 ], [ 4.6981154, 12.9252389 ], [ 4.6979, 12.9241 ], [ 4.6979015, 12.9233624 ], [ 4.6982223, 12.9224358 ], [ 4.6998861, 12.9205825 ], [ 4.7014072, 12.9180342 ], [ 4.7034988, 12.9156712 ], [ 4.7048298, 12.9141886 ], [ 4.7063034, 12.9124279 ], [ 4.7074918, 12.9121962 ], [ 4.7078852, 12.9115417 ], [ 4.7091244, 12.9108478 ], [ 4.7100909, 12.9097254 ], [ 4.7104521, 12.9087246 ], [ 4.7110416, 12.9078721 ], [ 4.7117241, 12.9075339 ], [ 4.7126388, 12.9075384 ], [ 4.7404911, 12.8932812 ], [ 4.7592464, 12.8744439 ], [ 4.7742537, 12.8557247 ], [ 4.7751876, 12.8546858 ], [ 4.8068353, 12.8194766 ], [ 4.8063054, 12.8041855 ], [ 4.7951896, 12.7996837 ], [ 4.7884015, 12.7969024 ], [ 4.7803014, 12.7923966 ], [ 4.7783049, 12.7913953 ], [ 4.775795, 12.7903384 ], [ 4.7737985, 12.7901715 ], [ 4.7702504, 12.7892761 ], [ 4.7646831, 12.7798797 ], [ 4.760286, 12.7724623 ], [ 4.7571962, 12.764581 ], [ 4.7528585, 12.7566995 ], [ 4.7503263, 12.7509092 ], [ 4.7435524, 12.7373475 ], [ 4.7399872, 12.7270308 ], [ 4.734702, 12.7138619 ], [ 4.7316121, 12.7065585 ], [ 4.7304167, 12.7020973 ], [ 4.7303482, 12.7018414 ], [ 4.7304447, 12.6998058 ], [ 4.7308471, 12.6911016 ], [ 4.731932, 12.672115 ], [ 4.7574567, 12.6369705 ], [ 4.7932891, 12.5777564 ], [ 4.7946897, 12.5754416 ], [ 4.7949114, 12.5637933 ], [ 4.7958895, 12.5123992 ], [ 4.8119367, 12.5035566 ], [ 4.8031327, 12.4852348 ], [ 4.7816086, 12.4752772 ], [ 4.7693695, 12.4696151 ], [ 4.7585141, 12.4513793 ], [ 4.7574535, 12.4495976 ], [ 4.7539971, 12.4366431 ], [ 4.7498193, 12.4209839 ], [ 4.7517861, 12.3927123 ], [ 4.7508734, 12.3894162 ], [ 4.7529106, 12.3753314 ], [ 4.7538248, 12.3695246 ], [ 4.7538771, 12.3637266 ], [ 4.7397594, 12.3656087 ], [ 4.7359906, 12.3638277 ], [ 4.73275, 12.3634202 ], [ 4.7220791, 12.3631712 ], [ 4.7119889, 12.3636903 ], [ 4.7118, 12.3637 ], [ 4.7111448, 12.3640024 ], [ 4.7092, 12.3649 ], [ 4.7073812, 12.3690274 ], [ 4.7066, 12.3708 ], [ 4.703, 12.3797 ], [ 4.7032571, 12.3818429 ], [ 4.7033, 12.3822 ], [ 4.703, 12.3839 ], [ 4.7013653, 12.3864137 ], [ 4.6997663, 12.3885328 ], [ 4.6911444, 12.3999581 ], [ 4.6847905, 12.397782 ], [ 4.6812444, 12.396559 ], [ 4.6721037, 12.4066261 ], [ 4.6706357, 12.4073135 ], [ 4.6685, 12.4087 ], [ 4.6657089, 12.4112896 ], [ 4.6643423, 12.4122761 ], [ 4.6622923, 12.4134367 ], [ 4.6607726, 12.4142909 ], [ 4.6599155, 12.4149745 ], [ 4.6582517, 12.4160481 ], [ 4.6564394, 12.4169476 ], [ 4.6539787, 12.4187754 ], [ 4.643427, 12.4255671 ], [ 4.6298105, 12.4329395 ], [ 4.612006, 12.4137632 ], [ 4.6079698, 12.410886 ], [ 4.6074856, 12.4099823 ], [ 4.6064099, 12.4087566 ], [ 4.6040025, 12.4064554 ], [ 4.5993412, 12.4006523 ], [ 4.5970932, 12.4031324 ], [ 4.59582, 12.4019943 ], [ 4.5912565, 12.3984426 ], [ 4.5878339, 12.3959355 ], [ 4.5857707, 12.3889179 ], [ 4.5864169, 12.3806814 ], [ 4.59019, 12.3638434 ], [ 4.5925193, 12.3468017 ], [ 4.5764902, 12.3330162 ], [ 4.5599189, 12.3047622 ], [ 4.5565845, 12.3042225 ], [ 4.5485458, 12.3014877 ], [ 4.5490801, 12.3007838 ], [ 4.5518903, 12.2970817 ], [ 4.5570937, 12.289848 ], [ 4.5563266, 12.2889846 ], [ 4.5520365, 12.2841563 ], [ 4.5519757, 12.2836761 ], [ 4.5512582, 12.2780137 ], [ 4.550389, 12.2692112 ], [ 4.5492037, 12.2507558 ], [ 4.5486764, 12.2508515 ], [ 4.5436722, 12.2517597 ], [ 4.5236633, 12.2558041 ], [ 4.5211228, 12.2514023 ], [ 4.5211906, 12.2508387 ], [ 4.5214451, 12.25059 ], [ 4.5220558, 12.2503911 ], [ 4.5227683, 12.2502585 ], [ 4.5232942, 12.2504077 ], [ 4.5239388, 12.2501093 ], [ 4.5243459, 12.2495954 ], [ 4.524268, 12.2491099 ], [ 4.5241084, 12.248783 ], [ 4.5244816, 12.2482028 ], [ 4.5249082, 12.2480946 ], [ 4.5254468, 12.2472402 ], [ 4.5253508, 12.2469826 ], [ 4.5250941, 12.2467039 ], [ 4.5250656, 12.2462719 ], [ 4.52498, 12.2458259 ], [ 4.5302505, 12.2396216 ], [ 4.5621492, 12.229987 ], [ 4.5559406, 12.2128923 ], [ 4.5525851, 12.1543131 ], [ 4.5509072, 12.1318055 ], [ 4.5523197, 12.0977261 ], [ 4.5748418, 12.0747081 ], [ 4.5758043, 12.0724585 ], [ 4.5767075, 12.0699483 ], [ 4.5789036, 12.065787 ], [ 4.5881818, 12.0388275 ], [ 4.5820233, 11.9965141 ], [ 4.5740373, 11.9600574 ], [ 4.5671351, 11.9196024 ], [ 4.5507524, 11.8919085 ], [ 4.5512499, 11.8920928 ], [ 4.5497349, 11.8109224 ], [ 4.5440242, 11.8034985 ], [ 4.5489735, 11.7955035 ], [ 4.5354, 11.785 ], [ 4.5097, 11.7558 ], [ 4.4986812, 11.7500387 ], [ 4.4868791, 11.7405209 ], [ 4.4490948, 11.7203948 ], [ 4.4364345, 11.7108252 ], [ 4.4172084, 11.7085409 ], [ 4.4136115, 11.730237 ], [ 4.3949313, 11.7567299 ], [ 4.3939045, 11.7574559 ], [ 4.3929918, 11.757065 ], [ 4.3917852, 11.7558478 ], [ 4.3909382, 11.7568416 ], [ 4.3902537, 11.7587962 ], [ 4.3891699, 11.7597456 ], [ 4.3878009, 11.7596339 ], [ 4.3865459, 11.7595781 ], [ 4.3848346, 11.7602482 ], [ 4.3831233, 11.7608067 ], [ 4.3816402, 11.7603041 ], [ 4.3803589, 11.7607271 ], [ 4.3793585, 11.7616444 ], [ 4.3778754, 11.7625379 ], [ 4.3776472, 11.7615885 ], [ 4.3775522, 11.7606051 ], [ 4.3775901, 11.7592989 ], [ 4.3777042, 11.7580702 ], [ 4.3786169, 11.7571209 ], [ 4.3806705, 11.7560598 ], [ 4.3810698, 11.7547195 ], [ 4.381355, 11.7535467 ], [ 4.3830403, 11.7531306 ], [ 4.3848917, 11.7532116 ], [ 4.385405, 11.7525414 ], [ 4.3854735, 11.7516379 ], [ 4.3863177, 11.749514 ], [ 4.3861038, 11.748048 ], [ 4.3853908, 11.7459537 ], [ 4.3838221, 11.7433707 ], [ 4.382578, 11.7414347 ], [ 4.3810412, 11.740299 ], [ 4.3790447, 11.7405782 ], [ 4.3766917, 11.7416254 ], [ 4.3749091, 11.7432311 ], [ 4.3737683, 11.7445575 ], [ 4.37277, 11.7466518 ], [ 4.3702744, 11.7466518 ], [ 4.3687738, 11.7469842 ], [ 4.3715578, 11.7246606 ], [ 4.3751016, 11.7146202 ], [ 4.3968251, 11.6922476 ], [ 4.4272804, 11.6705613 ], [ 4.4192309, 11.614178 ], [ 4.4341824, 11.6035839 ], [ 4.4693569, 11.5765158 ], [ 4.496796, 11.552431 ], [ 4.4827859, 11.5319983 ], [ 4.4947078, 11.5325874 ], [ 4.5155348, 11.5311551 ], [ 4.5227613, 11.5303145 ], [ 4.5419858, 11.5602793 ], [ 4.5541297, 11.5645735 ], [ 4.5699354, 11.5736547 ], [ 4.5561542, 11.5866277 ], [ 4.554229, 11.5902779 ], [ 4.5514481, 11.593002 ], [ 4.5495229, 11.5960754 ], [ 4.5474551, 11.5974025 ], [ 4.5482394, 11.6009647 ], [ 4.5479542, 11.6045968 ], [ 4.548596, 11.6071811 ], [ 4.5487386, 11.610813 ], [ 4.5498794, 11.6140259 ], [ 4.5510203, 11.6166799 ], [ 4.5508894, 11.6184819 ], [ 4.5483456, 11.6230978 ], [ 4.547162, 11.6282241 ], [ 4.5461637, 11.6343979 ], [ 4.5698789, 11.6328577 ], [ 4.5859913, 11.6548723 ], [ 4.5936921, 11.6553611 ], [ 4.6020722, 11.6564198 ], [ 4.6152972, 11.6577355 ], [ 4.6192694, 11.6556253 ], [ 4.6231406, 11.656688 ], [ 4.6253133, 11.6616714 ], [ 4.6267406, 11.6635679 ], [ 4.6288594, 11.6681032 ], [ 4.6326546, 11.6714253 ], [ 4.6349916, 11.672293 ], [ 4.6410524, 11.6709662 ], [ 4.6668106, 11.6675621 ], [ 4.6693102, 11.6748193 ], [ 4.6591988, 11.6785562 ], [ 4.6594726, 11.680684 ], [ 4.6596291, 11.6857696 ], [ 4.659786, 11.6866773 ], [ 4.6603279, 11.6874594 ], [ 4.6608213, 11.6883124 ], [ 4.6607788, 11.6893125 ], [ 4.6608213, 11.6898543 ], [ 4.6608639, 11.6909378 ], [ 4.6606937, 11.6916879 ], [ 4.6606086, 11.6922713 ], [ 4.6606937, 11.6928547 ], [ 4.6610767, 11.6933547 ], [ 4.6615022, 11.6938965 ], [ 4.6623533, 11.6942715 ], [ 4.6632895, 11.6945632 ], [ 4.6643534, 11.6943965 ], [ 4.6649492, 11.6938131 ], [ 4.6659279, 11.693063 ], [ 4.6665237, 11.6926463 ], [ 4.6673322, 11.692438 ], [ 4.668311, 11.6923129 ], [ 4.669077, 11.6918129 ], [ 4.6695025, 11.6914795 ], [ 4.6702685, 11.6911878 ], [ 4.6710345, 11.6907294 ], [ 4.6715452, 11.6897293 ], [ 4.6718005, 11.6881874 ], [ 4.671758, 11.6873956 ], [ 4.6716355, 11.6863119 ], [ 4.6718795, 11.6851529 ], [ 4.6727351, 11.6834771 ], [ 4.67428, 11.6827672 ], [ 4.6765142, 11.6818824 ], [ 4.6820978, 11.6838668 ], [ 4.6860452, 11.6861887 ], [ 4.6897596, 11.6865898 ], [ 4.6918921, 11.6859094 ], [ 4.6946558, 11.6883298 ], [ 4.6959564, 11.6903782 ], [ 4.6968834, 11.6919842 ], [ 4.6988799, 11.6926824 ], [ 4.7010463, 11.6906009 ], [ 4.702565, 11.6911407 ], [ 4.7080272, 11.692098 ], [ 4.7125324, 11.6911519 ], [ 4.7210836, 11.6947501 ], [ 4.7271734, 11.6976688 ], [ 4.730036, 11.6992038 ], [ 4.7311665, 11.69981 ], [ 4.7322123, 11.7023236 ], [ 4.7334482, 11.7042786 ], [ 4.7356348, 11.7051165 ], [ 4.7382077, 11.7073775 ], [ 4.738487, 11.7101435 ], [ 4.7425609, 11.7152206 ], [ 4.7435258, 11.7195458 ], [ 4.7440564, 11.7207426 ], [ 4.7450742, 11.7214069 ], [ 4.746205, 11.7210748 ], [ 4.7469401, 11.7202443 ], [ 4.7477316, 11.719746 ], [ 4.7493148, 11.7196907 ], [ 4.7503891, 11.7195246 ], [ 4.7516896, 11.7202997 ], [ 4.7524812, 11.7202443 ], [ 4.753499, 11.7205765 ], [ 4.7543471, 11.7210194 ], [ 4.7552518, 11.7210748 ], [ 4.7558172, 11.7219606 ], [ 4.7557035, 11.7226137 ], [ 4.7570765, 11.7230178 ], [ 4.7587009, 11.7225696 ], [ 4.759549, 11.7219052 ], [ 4.7611057, 11.7212098 ], [ 4.7630155, 11.7189872 ], [ 4.7648219, 11.7180563 ], [ 4.7672983, 11.720413 ], [ 4.7657489, 11.7253266 ], [ 4.762659, 11.7300973 ], [ 4.7615419, 11.734356 ], [ 4.7657891, 11.7367818 ], [ 4.7683396, 11.7390009 ], [ 4.7726653, 11.7374278 ], [ 4.7772288, 11.7372882 ], [ 4.7804583, 11.7396308 ], [ 4.7849296, 11.7384052 ], [ 4.7912044, 11.7409184 ], [ 4.7937238, 11.7430035 ], [ 4.7947696, 11.7473411 ], [ 4.7994281, 11.7494261 ], [ 4.8004472, 11.7520649 ], [ 4.802613, 11.7576728 ], [ 4.8093156, 11.7596274 ], [ 4.81521, 11.7660869 ], [ 4.8198, 11.7669 ], [ 4.8207785, 11.7628907 ], [ 4.8235763, 11.7600463 ], [ 4.8282824, 11.7592086 ], [ 4.8315624, 11.7566955 ], [ 4.8326684, 11.7520378 ], [ 4.8368389, 11.7533447 ], [ 4.8439693, 11.7520881 ], [ 4.8485327, 11.744409 ], [ 4.8498297, 11.7351075 ], [ 4.8615014, 11.7357783 ], [ 4.8697726, 11.7338235 ], [ 4.8730526, 11.7345216 ], [ 4.8726248, 11.7381519 ], [ 4.874804, 11.7400568 ], [ 4.8770458, 11.7449349 ], [ 4.8786143, 11.7501595 ], [ 4.8838908, 11.7511368 ], [ 4.8894525, 11.7501595 ], [ 4.8927, 11.7468 ], [ 4.8924473, 11.7452727 ], [ 4.891196, 11.7375126 ], [ 4.8924473, 11.7318687 ], [ 4.8911638, 11.7267024 ], [ 4.8894525, 11.7193018 ], [ 4.8897377, 11.713856 ], [ 4.8910118, 11.7124364 ], [ 4.8937399, 11.7112728 ], [ 4.8938734, 11.7092479 ], [ 4.8991499, 11.7086894 ], [ 4.9038559, 11.7120407 ], [ 4.9139811, 11.7166488 ], [ 4.9151219, 11.7218153 ], [ 4.9192576, 11.7227927 ], [ 4.9259336, 11.723235 ], [ 4.9280727, 11.7233746 ], [ 4.9304258, 11.7236539 ], [ 4.9317805, 11.7239332 ], [ 4.9324936, 11.7233746 ], [ 4.9337057, 11.7230256 ], [ 4.934374, 11.7220945 ], [ 4.9387948, 11.7223738 ], [ 4.9430731, 11.726842 ], [ 4.9410111, 11.7308303 ], [ 4.9441157, 11.7322727 ], [ 4.9450041, 11.7350192 ], [ 4.9474983, 11.7360676 ], [ 4.9507089, 11.7379147 ], [ 4.9527049, 11.7392778 ], [ 4.9564613, 11.7391681 ], [ 4.9602908, 11.7397324 ], [ 4.9639229, 11.7385123 ], [ 4.9649692, 11.7368343 ], [ 4.96611, 11.7359966 ], [ 4.9694364, 11.7368653 ], [ 4.9722422, 11.7378815 ], [ 4.9737396, 11.7381608 ], [ 4.9773048, 11.7369739 ], [ 4.9795152, 11.7374626 ], [ 4.9840786, 11.7392778 ], [ 4.9870734, 11.740674 ], [ 4.9879868, 11.7450184 ], [ 4.9898619, 11.7464258 ], [ 4.9923176, 11.7465527 ], [ 4.9933016, 11.745529 ], [ 4.9952995, 11.7446512 ], [ 4.997862, 11.7469154 ], [ 5.0004871, 11.7479556 ], [ 5.0057005, 11.7465785 ], [ 5.0067697, 11.7484644 ], [ 5.0071167, 11.7497384 ], [ 5.008765, 11.7493137 ], [ 5.0100056, 11.7454413 ], [ 5.0145487, 11.7442413 ], [ 5.0202375, 11.7388991 ], [ 5.022819, 11.7362334 ], [ 5.0252481, 11.7342798 ], [ 5.0273302, 11.7336002 ], [ 5.028458, 11.7309671 ], [ 5.0281977, 11.7291833 ], [ 5.0272434, 11.7274845 ], [ 5.0271567, 11.7245964 ], [ 5.0271567, 11.7230674 ], [ 5.0288917, 11.7221331 ], [ 5.0302798, 11.7198396 ], [ 5.0324486, 11.7194148 ], [ 5.0341837, 11.7194998 ], [ 5.0345307, 11.7206041 ], [ 5.0360055, 11.7211987 ], [ 5.0371333, 11.7227277 ], [ 5.0380875, 11.7234072 ], [ 5.0417312, 11.7245115 ], [ 5.0440735, 11.7238319 ], [ 5.0470578, 11.7224728 ], [ 5.0497472, 11.7211137 ], [ 5.051569, 11.7200944 ], [ 5.0527835, 11.7172912 ], [ 5.0540848, 11.7155074 ], [ 5.0566007, 11.7127891 ], [ 5.0578152, 11.7116848 ], [ 5.0594635, 11.7110901 ], [ 5.0605913, 11.7094761 ], [ 5.0615456, 11.7087966 ], [ 5.0628469, 11.708117 ], [ 5.0655362, 11.7088815 ], [ 5.0651025, 11.7114299 ], [ 5.0669243, 11.7142332 ], [ 5.0697004, 11.717631 ], [ 5.0711752, 11.7199245 ], [ 5.0714354, 11.722218 ], [ 5.0718692, 11.7247663 ], [ 5.0731705, 11.7268899 ], [ 5.0742983, 11.7270598 ], [ 5.0760262, 11.7286988 ], [ 5.078409, 11.7308715 ], [ 5.081412, 11.7323261 ], [ 5.0846219, 11.7324111 ], [ 5.0908805, 11.7346741 ], [ 5.093037, 11.7356388 ], [ 5.0947861, 11.7364746 ], [ 5.0973746, 11.736828 ], [ 5.1005845, 11.7372526 ], [ 5.1030136, 11.7378472 ], [ 5.1073055, 11.7362402 ], [ 5.108479, 11.7349593 ], [ 5.1123829, 11.7346195 ], [ 5.1154193, 11.7333454 ], [ 5.1188026, 11.7324111 ], [ 5.1223595, 11.7306273 ], [ 5.1248754, 11.7297779 ], [ 5.1273044, 11.7309671 ], [ 5.1286925, 11.7301177 ], [ 5.12956, 11.7289285 ], [ 5.1308613, 11.7289285 ], [ 5.1322494, 11.7291833 ], [ 5.1333772, 11.7290134 ], [ 5.1341579, 11.7284188 ], [ 5.134852, 11.7302875 ], [ 5.1370208, 11.7307972 ], [ 5.1379751, 11.7302026 ], [ 5.1404042, 11.7304574 ], [ 5.1428332, 11.7314767 ], [ 5.1450021, 11.732496 ], [ 5.1458696, 11.7369129 ], [ 5.1478649, 11.7378472 ], [ 5.1489927, 11.7374225 ], [ 5.1511615, 11.7385267 ], [ 5.1538509, 11.7378472 ], [ 5.1554992, 11.7373376 ], [ 5.1565402, 11.736743 ], [ 5.157668, 11.7371677 ], [ 5.158362, 11.7387815 ], [ 5.1588826, 11.7407351 ], [ 5.1617454, 11.7420941 ], [ 5.1628732, 11.7417544 ], [ 5.1638275, 11.7432833 ], [ 5.1659096, 11.7437929 ], [ 5.1681651, 11.743623 ], [ 5.1688592, 11.7426887 ], [ 5.1702472, 11.7421791 ], [ 5.1728498, 11.7427736 ], [ 5.1757994, 11.7433682 ], [ 5.1774477, 11.7441326 ], [ 5.1788157, 11.7470303 ], [ 5.1803106, 11.7483795 ], [ 5.1814336, 11.7503016 ], [ 5.1818662, 11.7518262 ], [ 5.1817797, 11.7534355 ], [ 5.1823853, 11.7553837 ], [ 5.1829909, 11.7577553 ], [ 5.1840291, 11.7597034 ], [ 5.1839426, 11.7615667 ], [ 5.1831639, 11.7635995 ], [ 5.183337, 11.76487 ], [ 5.1835965, 11.7661405 ], [ 5.1829044, 11.7673262 ], [ 5.180828, 11.7678344 ], [ 5.1787516, 11.7681732 ], [ 5.1762427, 11.7680038 ], [ 5.1744259, 11.7680038 ], [ 5.1729551, 11.7690202 ], [ 5.1717439, 11.77046 ], [ 5.1707922, 11.7722386 ], [ 5.1694945, 11.7739325 ], [ 5.1680237, 11.7758805 ], [ 5.1675046, 11.777405 ], [ 5.1666988, 11.778322 ], [ 5.1662069, 11.7798611 ], [ 5.1673316, 11.7811315 ], [ 5.1690619, 11.7824019 ], [ 5.1703596, 11.7833335 ], [ 5.1717439, 11.7832488 ], [ 5.1741663, 11.7834182 ], [ 5.1755506, 11.7850274 ], [ 5.1765022, 11.7866365 ], [ 5.1772809, 11.7878222 ], [ 5.1772809, 11.7894313 ], [ 5.1773674, 11.7911251 ], [ 5.1778865, 11.7923954 ], [ 5.1800494, 11.7926495 ], [ 5.1824718, 11.791972 ], [ 5.1848942, 11.7902782 ], [ 5.1858459, 11.7886691 ], [ 5.1880088, 11.7882456 ], [ 5.1898256, 11.7865518 ], [ 5.1896526, 11.7854508 ], [ 5.1906439, 11.7841463 ], [ 5.1927671, 11.7834182 ], [ 5.1951896, 11.7835876 ], [ 5.1968334, 11.7824019 ], [ 5.1997749, 11.781555 ], [ 5.2022838, 11.7807927 ], [ 5.206177, 11.7786754 ], [ 5.2085995, 11.777405 ], [ 5.211887, 11.7762193 ], [ 5.2141364, 11.7751182 ], [ 5.2150016, 11.7741019 ], [ 5.2149151, 11.7719845 ], [ 5.2138769, 11.77046 ], [ 5.2152516, 11.7684211 ], [ 5.2173375, 11.7670721 ], [ 5.2194139, 11.7664792 ], [ 5.2207116, 11.7655476 ], [ 5.2207981, 11.7636842 ], [ 5.2198243, 11.7616388 ], [ 5.2192409, 11.7597034 ], [ 5.2193274, 11.7577553 ], [ 5.2206251, 11.7571624 ], [ 5.2231305, 11.7567349 ], [ 5.2244318, 11.7573318 ], [ 5.2288496, 11.7564081 ], [ 5.2379685, 11.7558871 ], [ 5.2538046, 11.7648127 ], [ 5.2547759, 11.7673022 ], [ 5.2516515, 11.7743253 ], [ 5.2546257, 11.7740172 ], [ 5.256702, 11.7737631 ], [ 5.2579133, 11.773509 ], [ 5.2599896, 11.774356 ], [ 5.2621525, 11.7748642 ], [ 5.2637963, 11.7751182 ], [ 5.2652671, 11.7766428 ], [ 5.2681212, 11.7790792 ], [ 5.2707967, 11.7800289 ], [ 5.2723613, 11.7788448 ], [ 5.2736591, 11.7773203 ], [ 5.2742647, 11.7758805 ], [ 5.2755624, 11.7752029 ], [ 5.2772062, 11.7751182 ], [ 5.2792826, 11.7742713 ], [ 5.281878, 11.7729162 ], [ 5.2836948, 11.7724927 ], [ 5.2849061, 11.7718998 ], [ 5.2856847, 11.7703753 ], [ 5.2865499, 11.7692742 ], [ 5.2880206, 11.7694436 ], [ 5.2895064, 11.7713809 ], [ 5.2914812, 11.7722386 ], [ 5.2928105, 11.7742219 ], [ 5.2951149, 11.7741019 ], [ 5.2952485, 11.7741837 ], [ 5.295807, 11.7745254 ], [ 5.2958597, 11.7754026 ], [ 5.2958935, 11.7759652 ], [ 5.2975373, 11.7774897 ], [ 5.2982513, 11.7786379 ], [ 5.2987485, 11.7794376 ], [ 5.2988153, 11.7796207 ], [ 5.2991811, 11.7806234 ], [ 5.2995932, 11.7807765 ], [ 5.3000052, 11.7809295 ], [ 5.3003058, 11.7824019 ], [ 5.3006089, 11.7858569 ], [ 5.3014249, 11.7902593 ], [ 5.3015282, 11.7908165 ], [ 5.3027224, 11.7920909 ], [ 5.3044133, 11.792452 ], [ 5.307211, 11.7930539 ], [ 5.3095475, 11.7936859 ], [ 5.3122529, 11.7929335 ], [ 5.3157576, 11.7908269 ], [ 5.3176945, 11.7875766 ], [ 5.3183401, 11.7848681 ], [ 5.3181556, 11.7818585 ], [ 5.31751, 11.7778558 ], [ 5.316956, 11.7770714 ], [ 5.3155117, 11.7750267 ], [ 5.3131752, 11.7722879 ], [ 5.3100748, 11.7707867 ], [ 5.3084383, 11.7695283 ], [ 5.3057563, 11.7678344 ], [ 5.3034204, 11.765717 ], [ 5.3007384, 11.7635995 ], [ 5.2989216, 11.762329 ], [ 5.2971047, 11.7607198 ], [ 5.2969811, 11.7600538 ], [ 5.2967587, 11.7588564 ], [ 5.2960666, 11.7564001 ], [ 5.2961531, 11.755299 ], [ 5.2972778, 11.7548754 ], [ 5.2982294, 11.755299 ], [ 5.3000463, 11.7554684 ], [ 5.3022957, 11.7562307 ], [ 5.3051507, 11.7571624 ], [ 5.307054, 11.7582635 ], [ 5.3090439, 11.7608892 ], [ 5.3102537, 11.7620667 ], [ 5.3115528, 11.7639383 ], [ 5.3130236, 11.765717 ], [ 5.3139752, 11.7672415 ], [ 5.3152074, 11.7680926 ], [ 5.3167437, 11.7689355 ], [ 5.3172524, 11.7693919 ], [ 5.3177819, 11.7698671 ], [ 5.317917, 11.7709911 ], [ 5.317955, 11.771307 ], [ 5.3192527, 11.7730856 ], [ 5.3202044, 11.773509 ], [ 5.3233189, 11.7731703 ], [ 5.3263469, 11.7730856 ], [ 5.3279907, 11.7721539 ], [ 5.3288559, 11.7702059 ], [ 5.3302401, 11.768512 ], [ 5.3308458, 11.7653782 ], [ 5.3318839, 11.7624137 ], [ 5.3331817, 11.7594493 ], [ 5.3332682, 11.7581788 ], [ 5.3347389, 11.7560613 ], [ 5.3347389, 11.753012 ], [ 5.3360367, 11.751318 ], [ 5.3366423, 11.7494545 ], [ 5.3364693, 11.7478452 ], [ 5.3357771, 11.7463205 ], [ 5.3363827, 11.7449652 ], [ 5.3362097, 11.7435253 ], [ 5.3358636, 11.7412382 ], [ 5.3365225, 11.7395831 ], [ 5.3386321, 11.7379347 ], [ 5.3399299, 11.7364947 ], [ 5.340795, 11.7344617 ], [ 5.3426118, 11.7334453 ], [ 5.3477904, 11.7319124 ], [ 5.3484169, 11.7316837 ], [ 5.3490803, 11.7315521 ], [ 5.3500263, 11.7310058 ], [ 5.3505275, 11.7305527 ], [ 5.3513831, 11.7305387 ], [ 5.3517254, 11.7302315 ], [ 5.352253, 11.7298824 ], [ 5.3527094, 11.7296311 ], [ 5.3528092, 11.7290726 ], [ 5.352852, 11.7285141 ], [ 5.3529492, 11.7280953 ], [ 5.3532798, 11.7273831 ], [ 5.3537549, 11.7263938 ], [ 5.3542063, 11.7244786 ], [ 5.3547068, 11.7234922 ], [ 5.3555187, 11.7227752 ], [ 5.3558752, 11.7222167 ], [ 5.3549842, 11.7196989 ], [ 5.3546149, 11.7192696 ], [ 5.353294, 11.7177344 ], [ 5.3526784, 11.7174018 ], [ 5.3521389, 11.7172177 ], [ 5.351868, 11.7169803 ], [ 5.3512975, 11.7163799 ], [ 5.3507556, 11.7154862 ], [ 5.3507303, 11.7153271 ], [ 5.3506121, 11.7145856 ], [ 5.3503563, 11.7135127 ], [ 5.3498619, 11.7122653 ], [ 5.3493125, 11.7113108 ], [ 5.3492725, 11.7112412 ], [ 5.3492605, 11.7111795 ], [ 5.3490443, 11.7100683 ], [ 5.3498677, 11.7093466 ], [ 5.3516112, 11.7093328 ], [ 5.3527902, 11.7093235 ], [ 5.3548247, 11.7097331 ], [ 5.3601253, 11.7101577 ], [ 5.3616318, 11.7101055 ], [ 5.3622783, 11.7101241 ], [ 5.3639136, 11.7109061 ], [ 5.3643417, 11.7112516 ], [ 5.3644929, 11.7113737 ], [ 5.3648643, 11.7120977 ], [ 5.3650421, 11.7126357 ], [ 5.3650734, 11.7127307 ], [ 5.3654728, 11.7136058 ], [ 5.3658721, 11.7138851 ], [ 5.3667467, 11.7138478 ], [ 5.3673383, 11.7137702 ], [ 5.3679636, 11.7140154 ], [ 5.3689334, 11.7143691 ], [ 5.3696369, 11.7141457 ], [ 5.3700362, 11.7137547 ], [ 5.3709869, 11.7136616 ], [ 5.3730299, 11.7124937 ], [ 5.3758794, 11.7095979 ], [ 5.3853771, 11.7121115 ], [ 5.3860739, 11.7120459 ], [ 5.3867761, 11.7118497 ], [ 5.387514, 11.7115709 ], [ 5.3886014, 11.7113807 ], [ 5.389158, 11.7115329 ], [ 5.3898311, 11.7113554 ], [ 5.3907244, 11.711292 ], [ 5.3914278, 11.7114882 ], [ 5.3920577, 11.7116596 ], [ 5.392692, 11.7115709 ], [ 5.3930674, 11.7115075 ], [ 5.3934445, 11.7110894 ], [ 5.3935335, 11.7107977 ], [ 5.3940254, 11.7107343 ], [ 5.3943602, 11.7108926 ], [ 5.3957795, 11.7121448 ], [ 5.3964502, 11.7120822 ], [ 5.3970092, 11.7120301 ], [ 5.3984526, 11.709454 ], [ 5.3991429, 11.7082725 ], [ 5.4013074, 11.7052808 ], [ 5.4037906, 11.7033915 ], [ 5.4046938, 11.7029609 ], [ 5.4051692, 11.7028794 ], [ 5.4057734, 11.7029681 ], [ 5.4065953, 11.7034845 ], [ 5.4076648, 11.7037987 ], [ 5.4094935, 11.7039953 ], [ 5.4105047, 11.7039426 ], [ 5.4113349, 11.7038994 ], [ 5.4127631, 11.704334 ], [ 5.4151582, 11.7053996 ], [ 5.4176141, 11.7061014 ], [ 5.4185149, 11.7069291 ], [ 5.4195607, 11.7076971 ], [ 5.4198816, 11.7082207 ], [ 5.420122, 11.7082796 ], [ 5.4205114, 11.7082673 ], [ 5.4210796, 11.7082844 ], [ 5.421474, 11.7085698 ], [ 5.4222328, 11.7087302 ], [ 5.4226505, 11.708756 ], [ 5.4232923, 11.7086513 ], [ 5.4236963, 11.7084069 ], [ 5.4243856, 11.7080927 ], [ 5.4256572, 11.7079065 ], [ 5.4264296, 11.7076505 ], [ 5.4273414, 11.7074808 ], [ 5.4278556, 11.7074287 ], [ 5.4281671, 11.706971 ], [ 5.4284523, 11.7067196 ], [ 5.4289944, 11.7068024 ], [ 5.4294005, 11.7073116 ], [ 5.4298071, 11.7076831 ], [ 5.4328931, 11.7073982 ], [ 5.4363683, 11.7081544 ], [ 5.4401524, 11.708835 ], [ 5.4428553, 11.7070201 ], [ 5.4456355, 11.7046002 ], [ 5.448879, 11.7025585 ], [ 5.4541304, 11.6989286 ], [ 5.45637, 11.6950719 ], [ 5.4576828, 11.6907613 ], [ 5.4602313, 11.6844088 ], [ 5.4600769, 11.6816862 ], [ 5.4594591, 11.6781317 ], [ 5.4599996, 11.6730646 ], [ 5.4614904, 11.6713559 ], [ 5.4630591, 11.6704248 ], [ 5.4659112, 11.6693075 ], [ 5.4678185, 11.6667124 ], [ 5.4690351, 11.665199 ], [ 5.4711975, 11.6638376 ], [ 5.4745955, 11.6642914 ], [ 5.4791518, 11.6645183 ], [ 5.4813142, 11.6648209 ], [ 5.4937476, 11.657182 ], [ 5.4972228, 11.6558962 ], [ 5.5001575, 11.6572576 ], [ 5.5024743, 11.6581652 ], [ 5.5041308, 11.6595848 ], [ 5.5043277, 11.6597535 ], [ 5.5053274, 11.6620209 ], [ 5.505795, 11.6630813 ], [ 5.5095019, 11.6639133 ], [ 5.5137327, 11.6647421 ], [ 5.5140748, 11.6648091 ], [ 5.5152599, 11.6694509 ], [ 5.5155298, 11.6705081 ], [ 5.5182869, 11.6707874 ], [ 5.5204735, 11.6694839 ], [ 5.5219947, 11.6666907 ], [ 5.5258926, 11.6640837 ], [ 5.5275088, 11.6612904 ], [ 5.5416, 11.6657 ], [ 5.5417498, 11.6659642 ], [ 5.546506, 11.668726 ], [ 5.551464, 11.6725516 ], [ 5.5531423, 11.6756074 ], [ 5.5537345, 11.6766899 ], [ 5.5640825, 11.6843597 ], [ 5.5802448, 11.6754218 ], [ 5.5962168, 11.6715113 ], [ 5.6049, 11.6686 ], [ 5.6393685, 11.6628561 ], [ 5.64608, 11.6628561 ], [ 5.659627, 11.6626712 ], [ 5.6696878, 11.6614448 ], [ 5.6910228, 11.667317 ], [ 5.6961252, 11.6705577 ], [ 5.6961971, 11.6706034 ], [ 5.7044757, 11.6868814 ], [ 5.7050309, 11.687973 ], [ 5.7207431, 11.6877505 ], [ 5.7558315, 11.6862758 ], [ 5.760736, 11.6865527 ], [ 5.7803258, 11.6838981 ], [ 5.7878315, 11.6788717 ], [ 5.8028053, 11.6642075 ], [ 5.8194934, 11.6484399 ], [ 5.8222766, 11.6343346 ], [ 5.8288388, 11.6248148 ], [ 5.8298985, 11.594369 ], [ 5.8297559, 11.5917497 ], [ 5.8288289, 11.5896891 ], [ 5.8273672, 11.5886414 ], [ 5.8265828, 11.5860918 ], [ 5.8265828, 11.5821801 ], [ 5.8261194, 11.5792463 ], [ 5.8242298, 11.5783382 ], [ 5.8235321, 11.5776627 ], [ 5.8230176, 11.5775698 ], [ 5.8223402, 11.577011 ], [ 5.8214133, 11.5766967 ], [ 5.8209498, 11.5761728 ], [ 5.8207716, 11.5755092 ], [ 5.8202724, 11.5751948 ], [ 5.8200229, 11.5746709 ], [ 5.8199923, 11.572752 ], [ 5.8204082, 11.5710639 ], [ 5.820943, 11.5693757 ], [ 5.821366, 11.5663403 ], [ 5.8192912, 11.5646565 ], [ 5.8186909, 11.56149 ], [ 5.8171996, 11.5601197 ], [ 5.8178564, 11.5570878 ], [ 5.8169216, 11.5565217 ], [ 5.8159518, 11.5531921 ], [ 5.8168193, 11.5516164 ], [ 5.8173419, 11.5477381 ], [ 5.8162893, 11.5463129 ], [ 5.8158955, 11.5423719 ], [ 5.8171561, 11.5367745 ], [ 5.8164431, 11.5154654 ], [ 5.8245717, 11.4984868 ], [ 5.8242865, 11.4886345 ], [ 5.8240012, 11.4678514 ], [ 5.8237159, 11.4566703 ], [ 5.826754, 11.4442971 ], [ 5.8302479, 11.4398244 ], [ 5.835453, 11.4353515 ], [ 5.8441521, 11.4327656 ], [ 5.8656451, 11.4377974 ], [ 5.876053, 11.4396183 ], [ 5.890599, 11.440457 ], [ 5.9337991, 11.4366401 ], [ 5.9366039, 11.443826 ], [ 5.9462731, 11.4495422 ], [ 5.9611606, 11.4540549 ], [ 5.9679532, 11.4669102 ], [ 6.0095434, 11.4626467 ], [ 6.0256509, 11.4449267 ], [ 6.0280186, 11.4439319 ], [ 6.0300532, 11.4435537 ], [ 6.0388467, 11.4207293 ], [ 6.0529445, 11.4015431 ], [ 6.0537, 11.4008 ], [ 6.0736873, 11.3913804 ], [ 6.0756772, 11.390193 ], [ 6.0795704, 11.388412 ], [ 6.0870972, 11.3871398 ], [ 6.0922881, 11.3862917 ], [ 6.1244942, 11.384871 ], [ 6.1278619, 11.3844939 ], [ 6.1314838, 11.3838928 ], [ 6.1542963, 11.3830219 ], [ 6.1775889, 11.3839539 ], [ 6.2008815, 11.3900119 ], [ 6.2044315, 11.3836736 ], [ 6.2035985, 11.3829924 ], [ 6.174735, 11.3593892 ], [ 6.1749823, 11.3589939 ], [ 6.1905645, 11.3340817 ], [ 6.1730807, 11.3178561 ], [ 6.1477587, 11.305567 ], [ 6.1357236, 11.2953745 ], [ 6.1217562, 11.2646376 ], [ 6.1179573, 11.2574997 ], [ 6.1124548, 11.2453347 ], [ 6.1097969, 11.2423247 ], [ 6.1086666, 11.2383986 ], [ 6.109083, 11.2354242 ], [ 6.1108676, 11.2329258 ], [ 6.1129497, 11.229773 ], [ 6.1147937, 11.2270961 ], [ 6.1165188, 11.2238839 ], [ 6.1172922, 11.2204336 ], [ 6.1172373, 11.2074024 ], [ 6.1128093, 11.1971055 ], [ 6.1059195, 11.1833454 ], [ 6.0957, 11.1769 ], [ 6.0762535, 11.1686886 ], [ 6.0692785, 11.1641875 ], [ 6.0621482, 11.1629284 ], [ 6.0515278, 11.162711 ], [ 6.0468353, 11.1626149 ], [ 6.0468748, 11.1628105 ], [ 6.0470342, 11.1636012 ], [ 6.0547073, 11.2016472 ], [ 6.0658789, 11.2101972 ], [ 6.0699378, 11.2270782 ], [ 6.0590711, 11.2297639 ], [ 6.0562184, 11.2223784 ], [ 6.0562706, 11.2223609 ], [ 6.0552207, 11.2177622 ], [ 6.0484611, 11.2097048 ], [ 6.0415303, 11.1989612 ], [ 6.0323749, 11.1813343 ], [ 6.0289523, 11.1761299 ], [ 6.0253462, 11.1717278 ], [ 6.0254295, 11.1716629 ], [ 6.0159, 11.138 ], [ 6.015636, 11.1381084 ], [ 6.0062122, 11.1419783 ], [ 6.0005903, 11.1435843 ], [ 5.9946524, 11.1497055 ], [ 5.9777457, 11.1669777 ], [ 5.956658, 11.1597526 ], [ 5.9370925, 11.1519634 ], [ 5.9149684, 11.1450876 ], [ 5.9068168, 11.1371048 ], [ 5.8975098, 11.1135658 ], [ 5.8923122, 11.1108458 ], [ 5.8679359, 11.1069087 ], [ 5.8604294, 11.1019137 ], [ 5.8552004, 11.0986484 ], [ 5.8490207, 11.0968992 ], [ 5.8358295, 11.093284 ], [ 5.826077, 11.0930778 ], [ 5.8089543, 11.0874954 ], [ 5.8003226, 11.0825317 ], [ 5.7832882, 11.0677704 ], [ 5.7751855, 11.059973 ], [ 5.7690694, 11.049424 ], [ 5.7656035, 11.0394215 ], [ 5.7569224, 11.0289442 ], [ 5.7533616, 11.0270829 ], [ 5.740148, 11.0234413 ], [ 5.7397078, 11.0223953 ], [ 5.7374893, 11.017124 ], [ 5.7348002, 11.006177 ], [ 5.7342973, 11.0054956 ], [ 5.7290654, 10.9984071 ], [ 5.729029, 10.9983577 ], [ 5.7210808, 10.9949951 ], [ 5.7110317, 10.9921235 ], [ 5.7033662, 10.9897396 ], [ 5.6912121, 10.9821434 ], [ 5.6799678, 10.9757185 ], [ 5.6651078, 10.9734891 ], [ 5.6651203, 10.9734684 ], [ 5.6651488, 10.9731407 ], [ 5.6364889, 10.964991 ], [ 5.6094379, 10.9652767 ], [ 5.5849521, 10.9667717 ], [ 5.5782919, 10.9688528 ], [ 5.5768397, 10.9679217 ], [ 5.5767897, 10.9671856 ], [ 5.5767532, 10.9666477 ], [ 5.5764071, 10.9655435 ], [ 5.5761104, 10.9654315 ], [ 5.5752824, 10.9651188 ], [ 5.5749463, 10.9641288 ], [ 5.5748499, 10.9638448 ], [ 5.5749004, 10.9635635 ], [ 5.5751094, 10.9624009 ], [ 5.5748328, 10.9607179 ], [ 5.5743232, 10.9601987 ], [ 5.5738117, 10.9606172 ], [ 5.57286, 10.9606172 ], [ 5.5726219, 10.9595262 ], [ 5.5726005, 10.9594281 ], [ 5.571992, 10.9581568 ], [ 5.5718377, 10.9580043 ], [ 5.5710432, 10.9572197 ], [ 5.5710432, 10.9567248 ], [ 5.5710432, 10.9564552 ], [ 5.5715623, 10.9557757 ], [ 5.5713892, 10.9550113 ], [ 5.5716488, 10.9536523 ], [ 5.5709351, 10.9531384 ], [ 5.5703511, 10.9527179 ], [ 5.5690533, 10.9522932 ], [ 5.5677556, 10.9520384 ], [ 5.5667174, 10.9523782 ], [ 5.5656792, 10.9532276 ], [ 5.5642085, 10.9542468 ], [ 5.5624484, 10.9534047 ], [ 5.5613535, 10.952633 ], [ 5.5602288, 10.9521233 ], [ 5.5601752, 10.9512816 ], [ 5.5601422, 10.9507643 ], [ 5.5594753, 10.9492903 ], [ 5.559302, 10.9491503 ], [ 5.5572007, 10.9474516 ], [ 5.556249, 10.9473667 ], [ 5.5554704, 10.9484709 ], [ 5.5539996, 10.9485559 ], [ 5.553048, 10.949745 ], [ 5.5521828, 10.9513589 ], [ 5.5508851, 10.952633 ], [ 5.5492413, 10.9528029 ], [ 5.547338, 10.9530577 ], [ 5.5460402, 10.9534824 ], [ 5.544829, 10.9548414 ], [ 5.5437908, 10.95671 ], [ 5.5427526, 10.9582389 ], [ 5.542147, 10.9596829 ], [ 5.5411088, 10.9600226 ], [ 5.5405032, 10.9593431 ], [ 5.5396381, 10.9588335 ], [ 5.5385134, 10.9590034 ], [ 5.5379943, 10.9601925 ], [ 5.5370426, 10.9607871 ], [ 5.5360044, 10.9623159 ], [ 5.5358886, 10.9630942 ], [ 5.5356869, 10.9644501 ], [ 5.5342365, 10.9716433 ], [ 5.5310278, 10.9775933 ], [ 5.5261779, 10.9808741 ], [ 5.5245141, 10.9830907 ], [ 5.5235634, 10.985599 ], [ 5.523088, 10.9892155 ], [ 5.522375, 10.9904987 ], [ 5.5211866, 10.9902071 ], [ 5.5197011, 10.9898571 ], [ 5.5189071, 10.9909646 ], [ 5.5188692, 10.9920153 ], [ 5.5170272, 10.9928903 ], [ 5.5150663, 10.9935902 ], [ 5.5138185, 10.9930652 ], [ 5.5133896, 10.9920477 ], [ 5.5131055, 10.9913737 ], [ 5.5125113, 10.9898571 ], [ 5.512123, 10.9893154 ], [ 5.5113823, 10.9882822 ], [ 5.5103127, 10.9865323 ], [ 5.5103103, 10.9864248 ], [ 5.5102839, 10.9852456 ], [ 5.5102599, 10.9841728 ], [ 5.5103722, 10.9823907 ], [ 5.5101679, 10.9810483 ], [ 5.5097278, 10.9810316 ], [ 5.508649, 10.9809908 ], [ 5.5079114, 10.9819655 ], [ 5.5060939, 10.9834407 ], [ 5.5051116, 10.9849638 ], [ 5.5033623, 10.9851821 ], [ 5.5016374, 10.9846657 ], [ 5.5009244, 10.9837907 ], [ 5.5009152, 10.983429 ], [ 5.500865, 10.9814574 ], [ 5.5013999, 10.9784043 ], [ 5.500748, 10.9753003 ], [ 5.5003915, 10.9753854 ], [ 5.4954715, 10.9765603 ], [ 5.492252, 10.9771276 ], [ 5.4871289, 10.9780303 ], [ 5.4770037, 10.9790803 ], [ 5.4626004, 10.9802702 ], [ 5.44727, 10.9834901 ], [ 5.4456511, 10.9841803 ], [ 5.4306324, 10.9905832 ], [ 5.4112184, 11.0044063 ], [ 5.4007003, 11.0200562 ], [ 5.3966651, 11.0260598 ], [ 5.3889933, 11.0374739 ], [ 5.3897918, 11.0474173 ], [ 5.3898105, 11.0476498 ], [ 5.3911272, 11.0640471 ], [ 5.3870775, 11.0922067 ], [ 5.3938264, 11.1178075 ], [ 5.4084409, 11.1167856 ], [ 5.4134009, 11.1208966 ], [ 5.4051505, 11.1265545 ], [ 5.402762, 11.1440094 ], [ 5.4040308, 11.1469994 ], [ 5.3998199, 11.1542592 ], [ 5.3938827, 11.1619347 ], [ 5.3897058, 11.1734478 ], [ 5.3884542, 11.1821497 ], [ 5.3869725, 11.1924509 ], [ 5.3845957, 11.20236 ], [ 5.3870041, 11.2105069 ], [ 5.3876592, 11.2127051 ], [ 5.3892364, 11.2179982 ], [ 5.3898068, 11.220586 ], [ 5.3899582, 11.2230456 ], [ 5.3894503, 11.2261113 ], [ 5.3896642, 11.2289089 ], [ 5.3891592, 11.2310794 ], [ 5.3796039, 11.2350261 ], [ 5.3803239, 11.2367324 ], [ 5.380205, 11.2384226 ], [ 5.379492, 11.2430267 ], [ 5.3777094, 11.2487963 ], [ 5.3765804, 11.2535168 ], [ 5.3747978, 11.2570135 ], [ 5.3739065, 11.2606849 ], [ 5.3729558, 11.2627828 ], [ 5.373123, 11.2657595 ], [ 5.372354, 11.2701005 ], [ 5.3685892, 11.2826036 ], [ 5.3625997, 11.2941831 ], [ 5.3573802, 11.3064333 ], [ 5.3545566, 11.3175923 ], [ 5.3484539, 11.3389266 ], [ 5.3423965, 11.3386503 ], [ 5.3363543, 11.3403654 ], [ 5.3363543, 11.3475943 ], [ 5.3331413, 11.3564291 ], [ 5.3132817, 11.3452169 ], [ 5.3128565, 11.3445901 ], [ 5.3037633, 11.3387832 ], [ 5.291181, 11.3328827 ], [ 5.2834219, 11.3276088 ], [ 5.2755733, 11.3232143 ], [ 5.2686574, 11.3189436 ], [ 5.260529, 11.3147012 ], [ 5.2496511, 11.309372 ], [ 5.2460512, 11.3016828 ], [ 5.2430543, 11.2905738 ], [ 5.2432458, 11.2678774 ], [ 5.2443657, 11.2448668 ], [ 5.2421179, 11.239973 ], [ 5.2333902, 11.2181918 ], [ 5.1854678, 11.2280391 ], [ 5.0713024, 11.2375574 ], [ 5.0713024, 11.2363705 ], [ 5.0713024, 11.2319345 ], [ 5.0713024, 11.2288371 ], [ 5.0713024, 11.2271156 ], [ 5.0706989, 11.2261097 ], [ 5.068893, 11.2230997 ], [ 5.0688079, 11.2228728 ], [ 5.0664835, 11.2166748 ], [ 5.0624676, 11.208642 ], [ 5.062368, 11.208559 ], [ 5.0576482, 11.2046261 ], [ 5.0528293, 11.20543 ], [ 5.0488133, 11.2110519 ], [ 5.0488133, 11.2190838 ], [ 5.0488133, 11.2273105 ], [ 5.0488133, 11.2279186 ], [ 5.0528293, 11.2311316 ], [ 5.0568452, 11.2375574 ], [ 5.0619801, 11.2441595 ], [ 5.0624676, 11.2447863 ], [ 5.064877, 11.2544241 ], [ 5.0624676, 11.2624559 ], [ 5.0585972, 11.2701966 ], [ 5.0584517, 11.2704878 ], [ 5.0520258, 11.2728977 ], [ 5.0456004, 11.2728977 ], [ 5.0407815, 11.2704878 ], [ 5.0343556, 11.2648659 ], [ 5.0340094, 11.264 ], [ 5.0327497, 11.26085 ], [ 5.0325216, 11.2606979 ], [ 5.0255208, 11.2560301 ], [ 5.0166855, 11.2512112 ], [ 5.0118666, 11.2520142 ], [ 5.0054412, 11.257637 ], [ 5.0032381, 11.2670152 ], [ 5.0023112, 11.2696725 ], [ 4.9988886, 11.2754066 ], [ 4.9964572, 11.2839612 ], [ 4.9963845, 11.284217 ], [ 4.9964354, 11.2842799 ], [ 5.0011123, 11.2900555 ], [ 5.0018377, 11.2909514 ], [ 5.0006712, 11.2928181 ], [ 4.9997443, 11.2944963 ], [ 4.9971773, 11.3046349 ], [ 4.9960365, 11.3103683 ], [ 4.9882643, 11.3130253 ], [ 4.9813457, 11.3194819 ], [ 4.9773297, 11.3291206 ], [ 4.9725103, 11.3395624 ], [ 4.9725103, 11.3445618 ], [ 4.9725103, 11.3475943 ], [ 4.9712063, 11.3521579 ], [ 4.9709039, 11.3532162 ], [ 4.966788, 11.3607621 ], [ 4.966085, 11.362051 ], [ 4.9588561, 11.3692799 ], [ 4.9524307, 11.3692799 ], [ 4.9443259, 11.3674325 ], [ 4.9385108, 11.3641003 ], [ 4.9357568, 11.3663461 ], [ 4.931513, 11.3723131 ], [ 4.9284771, 11.3762199 ], [ 4.9132526, 11.3854516 ], [ 4.8981181, 11.390633 ], [ 4.897898, 11.3894107 ], [ 4.8978585, 11.3891912 ], [ 4.897772, 11.3874949 ], [ 4.8971953, 11.3869296 ], [ 4.8957821, 11.3855443 ], [ 4.892408, 11.3826606 ], [ 4.888089, 11.3781786 ], [ 4.8816801, 11.3731613 ], [ 4.8786445, 11.3723391 ], [ 4.8773459, 11.3709069 ], [ 4.8774126, 11.3705551 ], [ 4.8777869, 11.3685812 ], [ 4.8788251, 11.3667152 ], [ 4.8804689, 11.3655277 ], [ 4.8816801, 11.3642554 ], [ 4.8822312, 11.3631749 ], [ 4.8825453, 11.362559 ], [ 4.8831509, 11.3607778 ], [ 4.8832374, 11.359251 ], [ 4.882589, 11.3589527 ], [ 4.8809947, 11.3582192 ], [ 4.8796903, 11.3567912 ], [ 4.8794572, 11.3561058 ], [ 4.8789982, 11.3547555 ], [ 4.8787411, 11.3546836 ], [ 4.8762898, 11.3539977 ], [ 4.8742398, 11.3528894 ], [ 4.8714713, 11.3528894 ], [ 4.8710377, 11.3531145 ], [ 4.8700005, 11.3536528 ], [ 4.8691354, 11.3554341 ], [ 4.8681493, 11.357063 ], [ 4.8674051, 11.3581484 ], [ 4.8648961, 11.3578939 ], [ 4.8631658, 11.3578091 ], [ 4.8602243, 11.3566216 ], [ 4.8577154, 11.355943 ], [ 4.8561581, 11.3554341 ], [ 4.8543413, 11.3549252 ], [ 4.8538362, 11.3538618 ], [ 4.8537036, 11.3535826 ], [ 4.8542547, 11.3514474 ], [ 4.853493, 11.3509695 ], [ 4.8520919, 11.3500903 ], [ 4.850102, 11.349751 ], [ 4.8475931, 11.3487331 ], [ 4.8456897, 11.349242 ], [ 4.8438729, 11.3502599 ], [ 4.841883, 11.3509385 ], [ 4.8404123, 11.3508537 ], [ 4.8387685, 11.3482241 ], [ 4.8382009, 11.3471906 ], [ 4.8369517, 11.344916 ], [ 4.8369325, 11.344889 ], [ 4.8349618, 11.3421167 ], [ 4.8326259, 11.3394023 ], [ 4.8300102, 11.3360721 ], [ 4.8263302, 11.3355465 ], [ 4.8231957, 11.3361789 ], [ 4.8212924, 11.3376209 ], [ 4.8200812, 11.3387237 ], [ 4.819389, 11.3397416 ], [ 4.8184374, 11.3393175 ], [ 4.8169666, 11.3370272 ], [ 4.8155823, 11.3360941 ], [ 4.8143711, 11.337112 ], [ 4.813679, 11.3387237 ], [ 4.8127273, 11.3397416 ], [ 4.8115161, 11.3402506 ], [ 4.8090072, 11.3382996 ], [ 4.805287, 11.3363485 ], [ 4.8013073, 11.3338037 ], [ 4.7990579, 11.3322768 ], [ 4.7969815, 11.3309195 ], [ 4.7939535, 11.3283746 ], [ 4.7914558, 11.3267695 ], [ 4.7886761, 11.3251511 ], [ 4.7864267, 11.3243028 ], [ 4.7839177, 11.3236241 ], [ 4.7806301, 11.3217578 ], [ 4.7756122, 11.3198067 ], [ 4.771373, 11.318619 ], [ 4.7642787, 11.3159892 ], [ 4.760472, 11.3144622 ], [ 4.7567519, 11.3131897 ], [ 4.7525126, 11.3122565 ], [ 4.7477272, 11.3114365 ], [ 4.7438293, 11.3067752 ], [ 4.7378397, 11.3041648 ], [ 4.732896, 11.3067752 ], [ 4.7278572, 11.3062158 ], [ 4.7275947, 11.3051627 ], [ 4.7268114, 11.3020206 ], [ 4.7264323, 11.3018299 ], [ 4.7231036, 11.300156 ], [ 4.7196421, 11.2993074 ], [ 4.7166387, 11.2985711 ], [ 4.7118851, 11.2970794 ], [ 4.711656, 11.296106 ], [ 4.710459, 11.2910194 ], [ 4.7133112, 11.2837473 ], [ 4.7126112, 11.2829024 ], [ 4.7096034, 11.279272 ], [ 4.7093944, 11.2786573 ], [ 4.7081773, 11.2750763 ], [ 4.7078607, 11.2748296 ], [ 4.7044695, 11.272186 ], [ 4.7043678, 11.2714862 ], [ 4.7038566, 11.2679689 ], [ 4.7081207, 11.2640695 ], [ 4.7389906, 11.2511048 ], [ 4.7376507, 11.2503231 ], [ 4.7362223, 11.2494898 ], [ 4.7034063, 11.2285433 ], [ 4.7035602, 11.2279357 ], [ 4.705303, 11.2210517 ], [ 4.7223058, 11.2059015 ], [ 4.7327111, 11.1895866 ], [ 4.740542, 11.1693468 ], [ 4.7413115, 11.1532284 ], [ 4.7435873, 11.1505624 ], [ 4.7461224, 11.1475925 ], [ 4.7576222, 11.142993 ], [ 4.7652893, 11.1368599 ], [ 4.7794318, 11.1314201 ], [ 4.7802091, 11.1287003 ], [ 4.7857947, 11.1238127 ], [ 4.7885876, 11.1189251 ], [ 4.8025517, 11.1140375 ], [ 4.8144212, 11.1161327 ], [ 4.8178005, 11.1195116 ], [ 4.830965, 11.116107 ], [ 4.8396564, 11.1138592 ], [ 4.85039, 11.1084929 ], [ 4.8606739, 11.1033506 ], [ 4.8632956, 11.1000738 ], [ 4.8765616, 11.0916948 ], [ 4.8982058, 11.0875063 ], [ 4.908679, 11.0819206 ], [ 4.9345126, 11.0840149 ], [ 4.9477782, 11.0826187 ], [ 4.9603462, 11.0826187 ], [ 4.9722157, 11.0805235 ], [ 4.9758597, 11.0805235 ], [ 4.9798961, 11.0805235 ], [ 4.9917655, 11.0700502 ], [ 4.9910674, 11.0609741 ], [ 4.9959545, 11.0539923 ], [ 5.0092206, 11.051897 ], [ 5.0136657, 11.0526817 ], [ 5.02109, 11.0539923 ], [ 5.0273738, 11.0505009 ], [ 5.0357523, 11.051897 ], [ 5.0406399, 11.051897 ], [ 5.0462394, 11.0416861 ], [ 5.0551091, 11.0261641 ], [ 5.0629702, 11.0124073 ], [ 5.0679889, 10.9898214 ], [ 5.0813737, 10.9505043 ], [ 5.0820895, 10.9304571 ], [ 5.0822101, 10.9270811 ], [ 5.0816054, 10.926023 ], [ 5.0755177, 10.91537 ], [ 5.0546045, 10.9044952 ], [ 5.0345278, 10.8994761 ], [ 5.0253263, 10.890274 ], [ 5.0253474, 10.8898078 ], [ 5.0261626, 10.87187 ], [ 5.0286722, 10.8593225 ], [ 5.0344519, 10.8458367 ], [ 5.0470757, 10.8250246 ], [ 5.0587873, 10.8208418 ], [ 5.0838595, 10.8174995 ], [ 5.0838833, 10.8174963 ], [ 5.0997772, 10.8082943 ], [ 5.1089792, 10.7957459 ], [ 5.107306, 10.7857075 ], [ 5.1022868, 10.7723236 ], [ 5.1010484, 10.7613348 ], [ 5.1005685, 10.7613407 ], [ 5.0947352, 10.761413 ], [ 5.0921581, 10.7604004 ], [ 5.090311, 10.7582454 ], [ 5.089802, 10.7576516 ], [ 5.0880349, 10.7567836 ], [ 5.0871918, 10.7574658 ], [ 5.0867832, 10.7577963 ], [ 5.0856052, 10.7590983 ], [ 5.0847952, 10.7588813 ], [ 5.0839853, 10.757941 ], [ 5.0835673, 10.7570654 ], [ 5.0832932, 10.7564913 ], [ 5.080083, 10.749767 ], [ 5.0799384, 10.7496373 ], [ 5.0783895, 10.7482479 ], [ 5.0754443, 10.7475246 ], [ 5.0660935, 10.7470905 ], [ 5.0646945, 10.7464395 ], [ 5.0633692, 10.7446311 ], [ 5.063088, 10.74398 ], [ 5.0613076, 10.7398567 ], [ 5.0611552, 10.7398105 ], [ 5.0553436, 10.7380482 ], [ 5.0479071, 10.7371801 ], [ 5.0466958, 10.737763 ], [ 5.0442993, 10.7389163 ], [ 5.0392925, 10.7414482 ], [ 5.0362927, 10.744355 ], [ 5.0335088, 10.7474436 ], [ 5.0299436, 10.7497787 ], [ 5.0268538, 10.7504209 ], [ 5.0242393, 10.7486695 ], [ 5.020377, 10.7445247 ], [ 5.0175843, 10.7408469 ], [ 5.0138408, 10.7383949 ], [ 5.0132837, 10.7373343 ], [ 5.0128901, 10.7365852 ], [ 5.0126524, 10.7338413 ], [ 5.0133061, 10.7302801 ], [ 5.0131278, 10.7268356 ], [ 5.0119988, 10.7238581 ], [ 5.0117511, 10.7237055 ], [ 5.0084931, 10.721698 ], [ 5.0030858, 10.7221067 ], [ 4.9952424, 10.7194794 ], [ 4.986846, 10.7171125 ], [ 4.9793172, 10.7171125 ], [ 4.9759707, 10.7137661 ], [ 4.9734612, 10.7104206 ], [ 4.9652353, 10.7075107 ], [ 4.957689, 10.7072771 ], [ 4.9550151, 10.7061678 ], [ 4.953589, 10.7045914 ], [ 4.9520441, 10.701964 ], [ 4.9519562, 10.7017499 ], [ 4.9506775, 10.698636 ], [ 4.951034, 10.6937898 ], [ 4.9504202, 10.6928387 ], [ 4.9494891, 10.6913959 ], [ 4.946934, 10.690053 ], [ 4.9416733, 10.6886702 ], [ 4.9326851, 10.6888618 ], [ 4.9302132, 10.6937197 ], [ 4.9274562, 10.6946539 ], [ 4.9251286, 10.6923882 ], [ 4.9205159, 10.6891421 ], [ 4.9138609, 10.689796 ], [ 4.9082516, 10.6901697 ], [ 4.9006459, 10.6952145 ], [ 4.8980789, 10.7001657 ], [ 4.8965578, 10.7048366 ], [ 4.8937056, 10.7066115 ], [ 4.8892373, 10.706051 ], [ 4.8810611, 10.7039024 ], [ 4.8735504, 10.7024078 ], [ 4.8702229, 10.7035288 ], [ 4.8661662, 10.7079626 ], [ 4.8625285, 10.7082212 ], [ 4.8591772, 10.7066798 ], [ 4.8551129, 10.7050684 ], [ 4.8514051, 10.7019155 ], [ 4.8493373, 10.6999538 ], [ 4.8461999, 10.6991831 ], [ 4.8437991, 10.6995449 ], [ 4.8405669, 10.7037372 ], [ 4.8364313, 10.705769 ], [ 4.8257357, 10.7084314 ], [ 4.8224557, 10.7071703 ], [ 4.8187652, 10.7043519 ], [ 4.8130436, 10.7007245 ], [ 4.8095016, 10.6978722 ], [ 4.8089953, 10.6968594 ], [ 4.8069921, 10.692853 ], [ 4.8145208, 10.6744499 ], [ 4.8120112, 10.6619015 ], [ 4.8115296, 10.6614198 ], [ 4.810232, 10.6601222 ], [ 4.8028092, 10.6526995 ], [ 4.8026143, 10.6520171 ], [ 4.7961173, 10.6292772 ], [ 4.8019729, 10.6133833 ], [ 4.8145208, 10.6041813 ], [ 4.8237224, 10.5949793 ], [ 4.8223731, 10.5730349 ], [ 4.8220496, 10.5590086 ], [ 4.81954, 10.5380955 ], [ 4.8190959, 10.5296602 ], [ 4.8187032, 10.5222015 ], [ 4.8187032, 10.507144 ], [ 4.826232, 10.4954319 ], [ 4.8329244, 10.4879036 ], [ 4.8450542, 10.4787016 ], [ 4.8534193, 10.4602976 ], [ 4.8758613, 10.4593117 ], [ 4.8758588, 10.4592551 ], [ 4.8758546, 10.4591702 ], [ 4.891074, 10.4566529 ], [ 4.9061992, 10.4541513 ], [ 4.9320353, 10.4395248 ], [ 4.9503095, 10.3896513 ], [ 4.9465024, 10.2853358 ], [ 4.9459197, 10.2848152 ], [ 4.8715018, 10.2183301 ], [ 4.7939361, 10.2606659 ], [ 4.777713, 10.2565721 ], [ 4.7716284, 10.2557302 ], [ 4.7623114, 10.2538591 ], [ 4.7563219, 10.2525493 ], [ 4.7506175, 10.2515202 ], [ 4.7457689, 10.2505847 ], [ 4.7359765, 10.2488072 ], [ 4.7286559, 10.2482458 ], [ 4.7197192, 10.2460005 ], [ 4.7078352, 10.2430067 ], [ 4.6969886, 10.2402906 ], [ 4.6969008, 10.2402467 ], [ 4.6843313, 10.233962 ], [ 4.6769118, 10.2302523 ], [ 4.669383, 10.2260695 ], [ 4.6694665, 10.2253601 ], [ 4.6710558, 10.2118492 ], [ 4.6703471, 10.2116528 ], [ 4.6465187, 10.2050487 ], [ 4.6469939, 10.2042567 ], [ 4.6503734, 10.1986242 ], [ 4.6495168, 10.1814921 ], [ 4.6392375, 10.1378052 ], [ 4.6248142, 10.1026725 ], [ 4.6246567, 10.102668 ], [ 4.5376673, 10.100172 ], [ 4.5299826, 10.1005802 ], [ 4.5290056, 10.1039023 ], [ 4.5268612, 10.1111937 ], [ 4.5269213, 10.1142635 ], [ 4.5274854, 10.143034 ], [ 4.5518201, 10.1948231 ], [ 4.5518341, 10.1948528 ], [ 4.553959, 10.1986778 ], [ 4.5668392, 10.2218623 ], [ 4.5674424, 10.2229481 ], [ 4.5686908, 10.246048 ], [ 4.5660558, 10.2460299 ], [ 4.5659945, 10.2473452 ], [ 4.5660558, 10.256835 ], [ 4.5599966, 10.2680874 ], [ 4.5418196, 10.2871294 ], [ 4.5184493, 10.2983818 ], [ 4.5099247, 10.3031769 ], [ 4.4907513, 10.313962 ], [ 4.4829612, 10.3286772 ], [ 4.4838266, 10.3407946 ], [ 4.4864235, 10.3684931 ], [ 4.4835449, 10.3904423 ], [ 4.4794989, 10.4212923 ], [ 4.4797027, 10.4229403 ], [ 4.485558, 10.4697647 ], [ 4.4984667, 10.5170965 ], [ 4.4985414, 10.5173702 ], [ 4.5100584, 10.5351677 ], [ 4.5423769, 10.5475459 ], [ 4.5778973, 10.5611504 ], [ 4.5850887, 10.5639048 ], [ 4.5930366, 10.5694932 ], [ 4.5936935, 10.5699551 ], [ 4.5936032, 10.5710204 ], [ 4.5935473, 10.5716795 ], [ 4.5950497, 10.5726634 ], [ 4.5969095, 10.5759905 ], [ 4.5980789, 10.5764216 ], [ 4.5992177, 10.5701916 ], [ 4.6003397, 10.5705619 ], [ 4.6007567, 10.5706995 ], [ 4.6018078, 10.5760724 ], [ 4.6020401, 10.5772602 ], [ 4.6031429, 10.5769723 ], [ 4.6052816, 10.5793043 ], [ 4.607174, 10.5827274 ], [ 4.6067462, 10.583989 ], [ 4.6046927, 10.5843255 ], [ 4.6043019, 10.5844718 ], [ 4.6028958, 10.5849983 ], [ 4.6052916, 10.5856712 ], [ 4.6070885, 10.5865123 ], [ 4.6105111, 10.5860076 ], [ 4.6156377, 10.5905955 ], [ 4.6172984, 10.5880032 ], [ 4.6173757, 10.5880932 ], [ 4.6180407, 10.5888673 ], [ 4.6172059, 10.5931657 ], [ 4.6171951, 10.5932211 ], [ 4.6179552, 10.5945025 ], [ 4.6192387, 10.5955117 ], [ 4.6201799, 10.5950071 ], [ 4.6202106, 10.5950252 ], [ 4.6210355, 10.5955117 ], [ 4.6197333, 10.5990672 ], [ 4.6194953, 10.599717 ], [ 4.6207788, 10.6003898 ], [ 4.62172, 10.5987077 ], [ 4.6230891, 10.5975303 ], [ 4.6237015, 10.597499 ], [ 4.6244312, 10.5974617 ], [ 4.6241801, 10.5997075 ], [ 4.6240913, 10.6005008 ], [ 4.6249766, 10.6008815 ], [ 4.6254604, 10.6010895 ], [ 4.6257544, 10.6032574 ], [ 4.6258026, 10.6036126 ], [ 4.6297386, 10.608827 ], [ 4.6338457, 10.6114342 ], [ 4.6368405, 10.6145459 ], [ 4.6397497, 10.6158915 ], [ 4.6438103, 10.6190386 ], [ 4.6460814, 10.6165643 ], [ 4.6486484, 10.6169848 ], [ 4.6513009, 10.6184986 ], [ 4.6552369, 10.6242173 ], [ 4.6588306, 10.6295154 ], [ 4.6636222, 10.634393 ], [ 4.6684994, 10.6386818 ], [ 4.6714942, 10.6411205 ], [ 4.6767992, 10.6480161 ], [ 4.6809063, 10.6520524 ], [ 4.6844511, 10.6552917 ], [ 4.6871036, 10.6593279 ], [ 4.6901924, 10.6622928 ], [ 4.6907829, 10.6628596 ], [ 4.6907916, 10.6632099 ], [ 4.6908684, 10.6663072 ], [ 4.6909319, 10.6693869 ], [ 4.6888149, 10.6819468 ], [ 4.6880448, 10.6834603 ], [ 4.6888149, 10.6864872 ], [ 4.688986, 10.6901867 ], [ 4.6892427, 10.6919524 ], [ 4.6884726, 10.6917843 ], [ 4.6880277, 10.6930413 ], [ 4.6877881, 10.6937181 ], [ 4.6894994, 10.6945589 ], [ 4.6909271, 10.6967907 ], [ 4.6913818, 10.6975016 ], [ 4.6930931, 10.7018736 ], [ 4.6936065, 10.7032188 ], [ 4.6938632, 10.7050685 ], [ 4.6944622, 10.7066659 ], [ 4.6951467, 10.7118785 ], [ 4.6965157, 10.7160822 ], [ 4.6974569, 10.7189406 ], [ 4.6964301, 10.7246575 ], [ 4.6957456, 10.7282724 ], [ 4.6949755, 10.7304582 ], [ 4.6951467, 10.7360908 ], [ 4.6958712, 10.7432005 ], [ 4.6939488, 10.7444974 ], [ 4.6924942, 10.7446655 ], [ 4.6935209, 10.7468512 ], [ 4.6947712, 10.7507109 ], [ 4.6940343, 10.7624866 ], [ 4.6942659, 10.7696757 ], [ 4.6944622, 10.7757678 ], [ 4.6955745, 10.7785416 ], [ 4.6951535, 10.7801394 ], [ 4.6951467, 10.7817357 ], [ 4.6954889, 10.7845095 ], [ 4.6963701, 10.787701 ], [ 4.696422, 10.7899569 ], [ 4.6964301, 10.7903091 ], [ 4.6977186, 10.7919078 ], [ 4.6980559, 10.7923263 ], [ 4.6986548, 10.7938392 ], [ 4.6982456, 10.7958494 ], [ 4.698227, 10.7959405 ], [ 4.6988887, 10.7966169 ], [ 4.6991682, 10.7974534 ], [ 4.6993456, 10.7984777 ], [ 4.6989115, 10.7994706 ], [ 4.6984752, 10.8001393 ], [ 4.6980606, 10.8004907 ], [ 4.6980916, 10.8012107 ], [ 4.6988054, 10.8010965 ], [ 4.6991338, 10.8011346 ], [ 4.6994574, 10.8014772 ], [ 4.6997001, 10.8018103 ], [ 4.6997715, 10.8020673 ], [ 4.6996287, 10.8025813 ], [ 4.6994431, 10.8029382 ], [ 4.7004517, 10.8052699 ], [ 4.7013073, 10.8084637 ], [ 4.7019063, 10.8115734 ], [ 4.7020774, 10.8140948 ], [ 4.7028698, 10.8164944 ], [ 4.7031042, 10.8172045 ], [ 4.7049202, 10.8190788 ], [ 4.7053313, 10.8195032 ], [ 4.7060629, 10.8220382 ], [ 4.706099, 10.822163 ], [ 4.7067695, 10.8233046 ], [ 4.7073824, 10.8243481 ], [ 4.7070375, 10.8260861 ], [ 4.708569, 10.8288684 ], [ 4.7097099, 10.8326783 ], [ 4.7089126, 10.8358049 ], [ 4.710178, 10.8423639 ], [ 4.7096397, 10.8509981 ], [ 4.7095976, 10.851674 ], [ 4.717047, 10.8564628 ], [ 4.7200619, 10.8590411 ], [ 4.7204403, 10.8593648 ], [ 4.7226563, 10.8669201 ], [ 4.7219908, 10.8729889 ], [ 4.7201844, 10.8797111 ], [ 4.7181879, 10.8854062 ], [ 4.7156209, 10.890261 ], [ 4.7104871, 10.8963293 ], [ 4.7060187, 10.8999702 ], [ 4.6949903, 10.9192944 ], [ 4.6935099, 10.9190578 ], [ 4.6914421, 10.9177276 ], [ 4.6903012, 10.9168174 ], [ 4.6840978, 10.9170275 ], [ 4.6805326, 10.9171675 ], [ 4.6802297, 10.9171751 ], [ 4.6777517, 10.9172375 ], [ 4.6761118, 10.9162573 ], [ 4.6751135, 10.9168174 ], [ 4.67383, 10.9174475 ], [ 4.6717622, 10.9160473 ], [ 4.6702648, 10.9142269 ], [ 4.6689814, 10.9131067 ], [ 4.6674127, 10.9115664 ], [ 4.6674691, 10.9111234 ], [ 4.6676266, 10.909886 ], [ 4.6669565, 10.9093178 ], [ 4.6660579, 10.9085557 ], [ 4.6639901, 10.9078556 ], [ 4.6623501, 10.9061752 ], [ 4.661847, 10.9051871 ], [ 4.6615658, 10.9046348 ], [ 4.6614821, 10.9045649 ], [ 4.6596406, 10.9030244 ], [ 4.6582145, 10.9018341 ], [ 4.6576558, 10.9007807 ], [ 4.6575078, 10.9005014 ], [ 4.6574781, 10.9004927 ], [ 4.6553687, 10.8998713 ], [ 4.6538713, 10.8985409 ], [ 4.6529107, 10.8972971 ], [ 4.6516995, 10.8962776 ], [ 4.6498827, 10.8967024 ], [ 4.648585, 10.8958529 ], [ 4.6468547, 10.8950033 ], [ 4.64573, 10.893729 ], [ 4.6439996, 10.8938139 ], [ 4.643048, 10.8944936 ], [ 4.6427019, 10.8938989 ], [ 4.6361838, 10.8923874 ], [ 4.6353281, 10.8911971 ], [ 4.6343865, 10.8914332 ], [ 4.6331177, 10.891057 ], [ 4.6302656, 10.8915472 ], [ 4.6298377, 10.8905669 ], [ 4.6293386, 10.8906369 ], [ 4.6279125, 10.8911971 ], [ 4.6272708, 10.8923874 ], [ 4.6265669, 10.894131 ], [ 4.6256492, 10.8936895 ], [ 4.6252926, 10.8927173 ], [ 4.6252743, 10.8926675 ], [ 4.6251543, 10.8926507 ], [ 4.6228104, 10.8923237 ], [ 4.6207753, 10.8924365 ], [ 4.6164326, 10.8907069 ], [ 4.6161272, 10.8899857 ], [ 4.6161389, 10.8897394 ], [ 4.616168, 10.889128 ], [ 4.6155273, 10.8888197 ], [ 4.6147926, 10.8884663 ], [ 4.6125109, 10.8881862 ], [ 4.6115696, 10.8888673 ], [ 4.6092309, 10.8888864 ], [ 4.6080187, 10.8877661 ], [ 4.606664, 10.8881162 ], [ 4.605737, 10.8890264 ], [ 4.6055944, 10.8895166 ], [ 4.6033127, 10.8884663 ], [ 4.6022431, 10.8881862 ], [ 4.6013875, 10.8892365 ], [ 4.5997475, 10.8891665 ], [ 4.5990578, 10.8909232 ], [ 4.5982501, 10.8916172 ], [ 4.5980362, 10.8929475 ], [ 4.5967527, 10.8931576 ], [ 4.596111, 10.8923874 ], [ 4.5950414, 10.8935777 ], [ 4.5934727, 10.8928775 ], [ 4.5684924, 10.9086514 ], [ 4.5534048, 10.9154406 ], [ 4.5398264, 10.9199667 ], [ 4.5239844, 10.9161949 ], [ 4.4502924, 10.8859234 ], [ 4.4321099, 10.8817222 ], [ 4.4071535, 10.8771707 ], [ 4.3811276, 10.8799716 ], [ 4.3622321, 10.8890743 ], [ 4.3385482, 10.9034871 ], [ 4.3357907, 10.9186531 ], [ 4.3298449, 10.9513553 ], [ 4.3141107, 10.9498647 ], [ 4.3015888, 10.9486784 ], [ 4.2772142, 10.9543579 ], [ 4.2750961, 10.9609431 ], [ 4.2696411, 10.969399 ], [ 4.2633248, 10.9767272 ], [ 4.2636862, 10.9829021 ], [ 4.2565518, 10.9903358 ], [ 4.2588932, 10.9980453 ], [ 4.2619199, 11.0028423 ], [ 4.2636902, 11.0081532 ], [ 4.2660269, 11.0119809 ], [ 4.2657892, 11.0145472 ], [ 4.2658367, 11.0168336 ], [ 4.2655515, 11.0190266 ], [ 4.2663121, 11.0216395 ], [ 4.2668825, 11.0236925 ], [ 4.2671202, 11.0252789 ], [ 4.2608454, 11.0250922 ], [ 4.2588014, 11.0252322 ], [ 4.2563771, 11.0249056 ], [ 4.2548084, 11.0246257 ], [ 4.2530971, 11.0245323 ], [ 4.2511956, 11.0246723 ], [ 4.249722, 11.024299 ], [ 4.248391, 11.0234592 ], [ 4.2467273, 11.0236458 ], [ 4.2452061, 11.0238325 ], [ 4.2439226, 11.0240191 ], [ 4.2428769, 11.0235992 ], [ 4.2415458, 11.0234125 ], [ 4.2398346, 11.0231792 ], [ 4.237838, 11.022526 ], [ 4.2352236, 11.0219194 ], [ 4.23375, 11.0215462 ], [ 4.2312305, 11.0213595 ], [ 4.2293766, 11.020613 ], [ 4.2273801, 11.0198664 ], [ 4.2254312, 11.0192599 ], [ 4.214904, 11.0222489 ], [ 4.1839581, 11.0246285 ], [ 4.1670289, 11.0245934 ], [ 4.1324062, 11.0254583 ], [ 4.1003804, 11.0263243 ], [ 4.0791656, 11.0238379 ], [ 4.0705564, 11.0223715 ], [ 4.0683546, 11.0219965 ], [ 3.9994105, 11.0179882 ], [ 3.9979765, 11.0179048 ], [ 3.9972007, 11.017428 ], [ 3.9959272, 11.0171881 ], [ 3.9958549, 11.0163144 ], [ 3.9944957, 11.016006 ], [ 3.9929732, 11.0164672 ], [ 3.9531407, 10.9656955 ], [ 3.9327838, 10.9430114 ], [ 3.8022735, 10.9460659 ], [ 3.7731713, 10.920054 ], [ 3.7700334, 10.9197438 ] ] ] } }
]
}
