{
"type": "FeatureCollection",
"name": "Adamawa_state_boundary",
"crs": { "type": "name", "properties": { "name": "urn:ogc:def:crs:OGC:1.3:CRS84" } },
"features": [
{ "type": "Feature", "properties": { "state_code": "AD", "state_name": "Adamawa", "cap_city": "Yola", "geo_zone": "NEZ" }, "geometry": { "type": "Polygon", "coordinates": [ [ [ 11.8526721, 7.3912172 ], [ 11.8193989, 7.4309796 ], [ 11.816824, 7.4340568 ], [ 11.8099175, 7.4420815 ], [ 11.8047485, 7.4467974 ], [ 11.8017416, 7.4495406 ], [ 11.7960863, 7.4546995 ], [ 11.7914944, 7.4627194 ], [ 11.7857447, 7.4707413 ], [ 11.7765331, 7.48106 ], [ 11.7719355, 7.4879355 ], [ 11.7674217, 7.5131173 ], [ 11.7663012, 7.5211291 ], [ 11.7651758, 7.527997 ], [ 11.7629194, 7.5405879 ], [ 11.7629509, 7.5474525 ], [ 11.7641668, 7.5600357 ], [ 11.7653666, 7.5691862 ], [ 11.7665501, 7.5749044 ], [ 11.7665877, 7.5749992 ], [ 11.768425, 7.5796208 ], [ 11.7678213, 7.5825706 ], [ 11.7679867, 7.5881227 ], [ 11.768058, 7.5887918 ], [ 11.7681292, 7.5911822 ], [ 11.7682828, 7.5963497 ], [ 11.7683438, 7.5983982 ], [ 11.7665729, 7.6031408 ], [ 11.7665438, 7.6042913 ], [ 11.7663306, 7.61272 ], [ 11.766158, 7.6149244 ], [ 11.7691602, 7.6275301 ], [ 11.7727441, 7.6515493 ], [ 11.7716502, 7.6652818 ], [ 11.7694148, 7.6824493 ], [ 11.7648381, 7.6939011 ], [ 11.7580365, 7.7248092 ], [ 11.7265461, 7.7191846 ], [ 11.6827219, 7.7341471 ], [ 11.6486901, 7.742869 ], [ 11.6329776, 7.7504053 ], [ 11.6320645, 7.7644576 ], [ 11.636128, 7.7730301 ], [ 11.6488011, 7.7907676 ], [ 11.646158, 7.8171506 ], [ 11.6478652, 7.8455229 ], [ 11.6506436, 7.8573267 ], [ 11.6464204, 7.865797 ], [ 11.632421, 7.867192 ], [ 11.6196741, 7.8737148 ], [ 11.6099319, 7.8876073 ], [ 11.5994298, 7.8977244 ], [ 11.5904205, 7.9080177 ], [ 11.5844467, 7.9082681 ], [ 11.570218, 7.9060173 ], [ 11.5632733, 7.906033 ], [ 11.5632219, 7.906033 ], [ 11.5555849, 7.9037886 ], [ 11.5515528, 7.9033318 ], [ 11.5499725, 7.9018621 ], [ 11.5446625, 7.8969221 ], [ 11.5411682, 7.8923535 ], [ 11.5388269, 7.8866382 ], [ 11.5376482, 7.8820643 ], [ 11.5352907, 7.8729162 ], [ 11.5329447, 7.8660569 ], [ 11.5294304, 7.8569112 ], [ 11.5282516, 7.8523374 ], [ 11.5259047, 7.8454776 ], [ 11.5165501, 7.8249044 ], [ 11.5141935, 7.8157563 ], [ 11.5072069, 7.8066192 ], [ 11.5009836, 7.800509 ], [ 11.5009906, 7.8004654 ], [ 11.5002822, 7.7997699 ], [ 11.4944896, 7.7986393 ], [ 11.494467, 7.7986449 ], [ 11.4944382, 7.7986393 ], [ 11.4898138, 7.7997937 ], [ 11.4821901, 7.8102388 ], [ 11.4806128, 7.8124008 ], [ 11.4725266, 7.8158512 ], [ 11.465641, 7.8284535 ], [ 11.4621849, 7.8318939 ], [ 11.4575825, 7.837625 ], [ 11.4541302, 7.8422093 ], [ 11.446679, 7.8504532 ], [ 11.4437666, 7.8536754 ], [ 11.4380226, 7.8628416 ], [ 11.4345655, 7.866282 ], [ 11.4265118, 7.8765979 ], [ 11.4207726, 7.8869081 ], [ 11.4115667, 7.8983707 ], [ 11.4081364, 7.9075322 ], [ 11.4035444, 7.9155521 ], [ 11.4001093, 7.9235687 ], [ 11.3932333, 7.9384589 ], [ 11.3828754, 7.9510679 ], [ 11.3725224, 7.9648218 ], [ 11.3667774, 7.9739885 ], [ 11.3656311, 7.9762793 ], [ 11.3633528, 7.9842935 ], [ 11.3587551, 7.9911695 ], [ 11.356451, 7.993463 ], [ 11.3541517, 7.996901 ], [ 11.3518639, 8.0026264 ], [ 11.350749, 8.0117826 ], [ 11.3461351, 8.0152254 ], [ 11.3415213, 8.0186682 ], [ 11.3415375, 8.0221014 ], [ 11.342721, 8.0278196 ], [ 11.3473616, 8.030097 ], [ 11.3473834, 8.0300825 ], [ 11.347413, 8.030097 ], [ 11.3508748, 8.0278006 ], [ 11.3542901, 8.0266656 ], [ 11.3543414, 8.0266485 ], [ 11.3543681, 8.0323696 ], [ 11.352064, 8.0346632 ], [ 11.3468608, 8.0358191 ], [ 11.3463086, 8.0415411 ], [ 11.3497914, 8.0438213 ], [ 11.3521222, 8.0472488 ], [ 11.354453, 8.0506763 ], [ 11.3579463, 8.0552444 ], [ 11.3626183, 8.0643873 ], [ 11.371909, 8.0712309 ], [ 11.3765706, 8.0780849 ], [ 11.3800649, 8.082654 ], [ 11.3835515, 8.0860777 ], [ 11.3905276, 8.092927 ], [ 11.4009818, 8.1009121 ], [ 11.4079522, 8.1066179 ], [ 11.4184159, 8.1168909 ], [ 11.4265498, 8.1237373 ], [ 11.4335317, 8.1317301 ], [ 11.4393395, 8.1362944 ], [ 11.448636, 8.1442823 ], [ 11.4552226, 8.1498689 ], [ 11.4567184, 8.1511278 ], [ 11.4613686, 8.155694 ], [ 11.4695082, 8.1636848 ], [ 11.4776363, 8.1693869 ], [ 11.485775, 8.1773777 ], [ 11.4962339, 8.1865072 ], [ 11.5043726, 8.1944971 ], [ 11.510191, 8.2013493 ], [ 11.514842, 8.2059155 ], [ 11.5229864, 8.2150497 ], [ 11.5288153, 8.2241898 ], [ 11.5381279, 8.23561 ], [ 11.546277, 8.2458887 ], [ 11.5497761, 8.2516012 ], [ 11.5544424, 8.2595997 ], [ 11.56145, 8.2733145 ], [ 11.5661325, 8.2847452 ], [ 11.5668845, 8.2860949 ], [ 11.5731354, 8.2973146 ], [ 11.5777969, 8.3041687 ], [ 11.5801382, 8.309885 ], [ 11.584816, 8.3201714 ], [ 11.5894995, 8.3316021 ], [ 11.5953274, 8.3407421 ], [ 11.5988264, 8.3464556 ], [ 11.6011677, 8.3521709 ], [ 11.6151352, 8.3693008 ], [ 11.6186237, 8.3727255 ], [ 11.6221123, 8.3761501 ], [ 11.6297879, 8.3865666 ], [ 11.6128945, 8.4037211 ], [ 11.6181183, 8.4067704 ], [ 11.63301, 8.4113116 ], [ 11.638274, 8.4138399 ], [ 11.6429738, 8.4268528 ], [ 11.6459221, 8.4331227 ], [ 11.648308, 8.4423685 ], [ 11.6558051, 8.4453619 ], [ 11.6617883, 8.4497799 ], [ 11.6702188, 8.451773 ], [ 11.6794999, 8.46258 ], [ 11.6901738, 8.4646073 ], [ 11.6994483, 8.4688536 ], [ 11.7090456, 8.4653037 ], [ 11.7162743, 8.4651794 ], [ 11.7243919, 8.4685936 ], [ 11.7301893, 8.4708691 ], [ 11.7360029, 8.4765759 ], [ 11.7387725, 8.4790484 ], [ 11.7414641, 8.4814512 ], [ 11.7487869, 8.4879885 ], [ 11.7569208, 8.4948349 ], [ 11.766222, 8.5039663 ], [ 11.780158, 8.5142326 ], [ 11.7859821, 8.5222282 ], [ 11.7906542, 8.5313711 ], [ 11.7945471, 8.5462341 ], [ 11.7941393, 8.5539291 ], [ 11.7932393, 8.5603509 ], [ 11.7926653, 8.5644824 ], [ 11.7900008, 8.5727664 ], [ 11.7667631, 8.5969072 ], [ 11.759708, 8.6074694 ], [ 11.7576119, 8.6172123 ], [ 11.7675141, 8.6206818 ], [ 11.7769339, 8.6251292 ], [ 11.7841654, 8.6297836 ], [ 11.7888993, 8.6412144 ], [ 11.7883201, 8.6424738 ], [ 11.787881, 8.6434287 ], [ 11.7741348, 8.6542632 ], [ 11.7658481, 8.6622464 ], [ 11.7614317, 8.666501 ], [ 11.760457, 8.6636581 ], [ 11.7571259, 8.6667213 ], [ 11.7516766, 8.6733961 ], [ 11.7431424, 8.6776045 ], [ 11.7496665, 8.6889904 ], [ 11.7542721, 8.7000779 ], [ 11.7691684, 8.7120187 ], [ 11.7854729, 8.7109554 ], [ 11.8270696, 8.7390894 ], [ 11.8312004, 8.7694985 ], [ 11.8317023, 8.7922616 ], [ 11.8364992, 8.8204243 ], [ 11.8406849, 8.8449986 ], [ 11.84508, 8.8598451 ], [ 11.8433668, 8.866698 ], [ 11.8506003, 8.869934 ], [ 11.8498389, 8.8750737 ], [ 11.8540268, 8.8952134 ], [ 11.8555612, 8.8977708 ], [ 11.859648, 8.9045821 ], [ 11.8608796, 8.9066348 ], [ 11.8646867, 8.9098709 ], [ 11.8624025, 8.9151628 ], [ 11.869516, 8.9293898 ], [ 11.8696062, 8.9295702 ], [ 11.8736335, 8.9376249 ], [ 11.8715396, 8.9470666 ], [ 11.8639253, 8.9541098 ], [ 11.8542171, 8.9662927 ], [ 11.8437475, 8.9788562 ], [ 11.8298514, 8.9935137 ], [ 11.8311082, 9.008386 ], [ 11.8310575, 9.0083952 ], [ 11.8252811, 9.0106964 ], [ 11.8193226, 9.0120201 ], [ 11.8162408, 9.0127049 ], [ 11.7998505, 9.0176201 ], [ 11.794934, 9.0190217 ], [ 11.7948738, 9.0190389 ], [ 11.7927046, 9.0196573 ], [ 11.7917585, 9.019927 ], [ 11.7859879, 9.0233727 ], [ 11.7767496, 9.0279703 ], [ 11.7728124, 9.030419 ], [ 11.7675171, 9.0337124 ], [ 11.7583008, 9.0428867 ], [ 11.7525349, 9.049715 ], [ 11.7490072, 9.0504389 ], [ 11.7420864, 9.0518579 ], [ 11.7362066, 9.0530656 ], [ 11.735177, 9.053277 ], [ 11.7296362, 9.0616779 ], [ 11.7226372, 9.0648232 ], [ 11.7156363, 9.0679684 ], [ 11.7103472, 9.0711908 ], [ 11.7067566, 9.0744905 ], [ 11.7048063, 9.0795918 ], [ 11.7028465, 9.0846949 ], [ 11.7008867, 9.089797 ], [ 11.6989269, 9.0948992 ], [ 11.696887, 9.1017275 ], [ 11.6949358, 9.1068296 ], [ 11.6963072, 9.1138124 ], [ 11.6960659, 9.1189919 ], [ 11.6957369, 9.1258974 ], [ 11.6953974, 9.132803 ], [ 11.696867, 9.1380587 ], [ 11.6984663, 9.1438398 ], [ 11.6997862, 9.148571 ], [ 11.7011566, 9.1555529 ], [ 11.7026157, 9.1608095 ], [ 11.6986458, 9.173696 ], [ 11.6963857, 9.1803791 ], [ 11.6895667, 9.1901917 ], [ 11.6836446, 9.1928175 ], [ 11.6820392, 9.1992131 ], [ 11.67774, 9.2105555 ], [ 11.6795166, 9.2174906 ], [ 11.6789658, 9.2239342 ], [ 11.6874056, 9.2295475 ], [ 11.6816502, 9.2364264 ], [ 11.6770573, 9.2444458 ], [ 11.6754788, 9.2465427 ], [ 11.6754666, 9.246559 ], [ 11.6701555, 9.2536144 ], [ 11.6655788, 9.2650671 ], [ 11.6633015, 9.2730808 ], [ 11.6608076, 9.2782097 ], [ 11.6563835, 9.2855024 ], [ 11.6536169, 9.2900925 ], [ 11.6507359, 9.2948885 ], [ 11.6488476, 9.2980328 ], [ 11.647747, 9.3053999 ], [ 11.6396093, 9.3067113 ], [ 11.6249223, 9.309078 ], [ 11.6115759, 9.3035667 ], [ 11.5990391, 9.3015825 ], [ 11.5932632, 9.3036953 ], [ 11.5907278, 9.3108132 ], [ 11.5818151, 9.3167445 ], [ 11.5526847, 9.3220641 ], [ 11.5525718, 9.3220848 ], [ 11.530694, 9.32608 ], [ 11.530128, 9.3430408 ], [ 11.5358829, 9.3666434 ], [ 11.5348545, 9.3723947 ], [ 11.5302452, 9.3784473 ], [ 11.5261422, 9.3807804 ], [ 11.5238565, 9.3851036 ], [ 11.5243617, 9.3908237 ], [ 11.5239932, 9.3960877 ], [ 11.5221986, 9.4004836 ], [ 11.5200833, 9.4039775 ], [ 11.5259256, 9.4078159 ], [ 11.5209665, 9.4138832 ], [ 11.5170238, 9.4187025 ], [ 11.5155058, 9.420558 ], [ 11.5117559, 9.42731 ], [ 11.5063066, 9.4339848 ], [ 11.497427, 9.4405069 ], [ 11.4944982, 9.4481504 ], [ 11.4944789, 9.4482006 ], [ 11.4935169, 9.4507113 ], [ 11.4898472, 9.4557362 ], [ 11.4843063, 9.464138 ], [ 11.4791069, 9.4656334 ], [ 11.4699774, 9.477334 ], [ 11.4586438, 9.4828224 ], [ 11.4437597, 9.4884722 ], [ 11.4402201, 9.4937809 ], [ 11.4402323, 9.5022027 ], [ 11.4390627, 9.516256 ], [ 11.4334548, 9.5197191 ], [ 11.4343501, 9.5310982 ], [ 11.4361563, 9.5398264 ], [ 11.4295988, 9.5496254 ], [ 11.4339466, 9.5521269 ], [ 11.4418936, 9.5604315 ], [ 11.4428597, 9.5697346 ], [ 11.4444656, 9.5761528 ], [ 11.4478836, 9.5791321 ], [ 11.452939, 9.5847759 ], [ 11.4610777, 9.5927658 ], [ 11.4680481, 9.5984707 ], [ 11.4738445, 9.6007462 ], [ 11.4842787, 9.6041546 ], [ 11.4843297, 9.6041545 ], [ 11.4912227, 9.6041385 ], [ 11.5016556, 9.6075468 ], [ 11.5017066, 9.6075467 ], [ 11.5062847, 9.6075363 ], [ 11.5155439, 9.6075153 ], [ 11.5165287, 9.6075757 ], [ 11.5273228, 9.6082373 ], [ 11.5456257, 9.6051588 ], [ 11.5627848, 9.6051192 ], [ 11.5629872, 9.6051189 ], [ 11.5670522, 9.6107906 ], [ 11.5763591, 9.6152866 ], [ 11.5817247, 9.6197603 ], [ 11.586154, 9.6338193 ], [ 11.5983026, 9.649286 ], [ 11.6136128, 9.6563297 ], [ 11.6344697, 9.6274628 ], [ 11.636014, 9.6289787 ], [ 11.6452885, 9.63239 ], [ 11.6545696, 9.6369457 ], [ 11.6603823, 9.6426535 ], [ 11.6638813, 9.648366 ], [ 11.6720152, 9.6552124 ], [ 11.6778173, 9.6586313 ], [ 11.6836262, 9.6631947 ], [ 11.688261, 9.6643286 ], [ 11.6963835, 9.6688862 ], [ 11.6990395, 9.671814 ], [ 11.7008553, 9.6738148 ], [ 11.7068653, 9.6767874 ], [ 11.7116194, 9.6800976 ], [ 11.7165155, 9.683507 ], [ 11.7185049, 9.6847763 ], [ 11.7244234, 9.6890459 ], [ 11.7265768, 9.6905565 ], [ 11.7312279, 9.6951227 ], [ 11.735878, 9.6996889 ], [ 11.7359293, 9.6996888 ], [ 11.7381926, 9.6996832 ], [ 11.7463217, 9.7053852 ], [ 11.7486544, 9.7076758 ], [ 11.7498093, 9.7088099 ], [ 11.7556334, 9.7168055 ], [ 11.756588, 9.7186747 ], [ 11.765813, 9.712197 ], [ 11.7760874, 9.707141 ], [ 11.7961595, 9.7309391 ], [ 11.8171632, 9.7408803 ], [ 11.8247347, 9.7538347 ], [ 11.8357534, 9.772687 ], [ 11.8403988, 9.7761087 ], [ 11.8473749, 9.782958 ], [ 11.8508635, 9.7863817 ], [ 11.8531933, 9.7898092 ], [ 11.8545445, 9.7934902 ], [ 11.8542399, 9.7997339 ], [ 11.8534785, 9.8043024 ], [ 11.8519641, 9.813113 ], [ 11.8518033, 9.8140487 ], [ 11.8444089, 9.8192828 ], [ 11.8263544, 9.8228813 ], [ 11.8034379, 9.83234 ], [ 11.8011608, 9.8406847 ], [ 11.8015799, 9.8459257 ], [ 11.8038105, 9.8551779 ], [ 11.8058206, 9.8652513 ], [ 11.8090335, 9.8763758 ], [ 11.816454, 9.8913923 ], [ 11.8193094, 9.9028137 ], [ 11.8293031, 9.9153773 ], [ 11.8347283, 9.929654 ], [ 11.8335862, 9.9430742 ], [ 11.8331843, 9.9490419 ], [ 11.8332355, 9.9490446 ], [ 11.8237297, 9.9557679 ], [ 11.8226695, 9.9698967 ], [ 11.8248015, 9.9817749 ], [ 11.8253454, 9.9948568 ], [ 11.8296285, 10.0163909 ], [ 11.8354581, 10.0285262 ], [ 11.8357763, 10.0338858 ], [ 11.8444737, 10.0323948 ], [ 11.8449491, 10.0323676 ], [ 11.8449829, 10.0323686 ], [ 11.8486892, 10.0321569 ], [ 11.8550623, 10.0321569 ], [ 11.8701719, 10.0285877 ], [ 11.8702233, 10.0285877 ], [ 11.8829534, 10.0257323 ], [ 11.8977737, 10.0256133 ], [ 11.8978251, 10.0256133 ], [ 11.9046746, 10.0255482 ], [ 11.904726, 10.0255482 ], [ 11.9104362, 10.0254944 ], [ 11.9207041, 10.0247011 ], [ 11.9207348, 10.0246987 ], [ 11.9237232, 10.0250403 ], [ 11.9311449, 10.0258885 ], [ 11.9449258, 10.0301672 ], [ 11.9542457, 10.0322231 ], [ 11.9605434, 10.0358283 ], [ 11.9705326, 10.0349395 ], [ 11.9705526, 10.0349423 ], [ 11.9891938, 10.037551 ], [ 11.9912169, 10.0353135 ], [ 11.9912438, 10.0353407 ], [ 11.9977632, 10.0419169 ], [ 12.0043231, 10.0473934 ], [ 12.0111683, 10.0598906 ], [ 12.018754, 10.0669011 ], [ 12.0187804, 10.066878 ], [ 12.0234823, 10.0627684 ], [ 12.0342813, 10.0578324 ], [ 12.0343327, 10.0578324 ], [ 12.0397179, 10.0578324 ], [ 12.0404468, 10.057731 ], [ 12.0471875, 10.0567931 ], [ 12.0472063, 10.0567976 ], [ 12.0553823, 10.0587709 ], [ 12.0554337, 10.0587709 ], [ 12.0752293, 10.0586285 ], [ 12.0828012, 10.0598437 ], [ 12.0867912, 10.0604841 ], [ 12.0965946, 10.067908 ], [ 12.10132, 10.0744388 ], [ 12.1021741, 10.0851758 ], [ 12.1028252, 10.0933611 ], [ 12.0913484, 10.1013267 ], [ 12.0938227, 10.1172577 ], [ 12.0886898, 10.1343682 ], [ 12.0889938, 10.1425141 ], [ 12.1024989, 10.1637592 ], [ 12.1088886, 10.1867678 ], [ 12.1265124, 10.2035749 ], [ 12.1297247, 10.2107728 ], [ 12.1301411, 10.2171378 ], [ 12.1332995, 10.2206159 ], [ 12.1348959, 10.2276127 ], [ 12.137358, 10.2295412 ], [ 12.1349785, 10.2333483 ], [ 12.1359957, 10.2366508 ], [ 12.1383038, 10.238483 ], [ 12.1465129, 10.2459545 ], [ 12.1486816, 10.2489014 ], [ 12.1501545, 10.2501681 ], [ 12.1519867, 10.2506915 ], [ 12.1565172, 10.2535612 ], [ 12.160883, 10.2570095 ], [ 12.16331, 10.2621729 ], [ 12.1689494, 10.2623395 ], [ 12.1745649, 10.2644096 ], [ 12.1732358, 10.2686838 ], [ 12.1752335, 10.2687028 ], [ 12.1774649, 10.2704691 ], [ 12.1790673, 10.2716707 ], [ 12.1806649, 10.2719851 ], [ 12.1806811, 10.2719781 ], [ 12.1807163, 10.2719851 ], [ 12.1815784, 10.2716157 ], [ 12.1823244, 10.2721502 ], [ 12.1823671, 10.272144 ], [ 12.1828726, 10.2720702 ], [ 12.1843934, 10.2720481 ], [ 12.186242, 10.2728697 ], [ 12.1869044, 10.273121 ], [ 12.1869296, 10.2731111 ], [ 12.1873955, 10.2729268 ], [ 12.1880008, 10.2728355 ], [ 12.1880273, 10.2728392 ], [ 12.1886404, 10.2729268 ], [ 12.1894285, 10.2724015 ], [ 12.1894799, 10.2724015 ], [ 12.1900795, 10.2724015 ], [ 12.1901309, 10.2724015 ], [ 12.1905819, 10.272052 ], [ 12.1914387, 10.2721388 ], [ 12.1927807, 10.2726504 ], [ 12.1938467, 10.2728636 ], [ 12.1955218, 10.2737925 ], [ 12.1969838, 10.2751478 ], [ 12.2007966, 10.2778576 ], [ 12.20685, 10.2792662 ], [ 12.212732, 10.2807795 ], [ 12.2150163, 10.2870613 ], [ 12.2291763, 10.2987541 ], [ 12.2369563, 10.3109314 ], [ 12.242311, 10.3193126 ], [ 12.2537324, 10.3474855 ], [ 12.2571529, 10.3597776 ], [ 12.2571899, 10.3597256 ], [ 12.2662008, 10.3470432 ], [ 12.2797843, 10.3287047 ], [ 12.2798312, 10.3287107 ], [ 12.2908313, 10.3301133 ], [ 12.2992958, 10.3413158 ], [ 12.2993287, 10.3412914 ], [ 12.3063644, 10.3360525 ], [ 12.3128014, 10.315073 ], [ 12.3128515, 10.315077 ], [ 12.3197603, 10.31563 ], [ 12.3232653, 10.3171368 ], [ 12.3290262, 10.3196135 ], [ 12.3290776, 10.3196135 ], [ 12.3441237, 10.3195782 ], [ 12.3614511, 10.3172533 ], [ 12.3614739, 10.3172503 ], [ 12.371868, 10.3183678 ], [ 12.3718957, 10.3183708 ], [ 12.3811501, 10.3172054 ], [ 12.3868693, 10.3171301 ], [ 12.3891555, 10.3197053 ], [ 12.3896795, 10.3226261 ], [ 12.3895282, 10.3277125 ], [ 12.3886069, 10.333179 ], [ 12.3862237, 10.3383867 ], [ 12.3855906, 10.3415859 ], [ 12.3851301, 10.3445243 ], [ 12.3792302, 10.3504527 ], [ 12.3998839, 10.3599705 ], [ 12.4215846, 10.3713919 ], [ 12.4390611, 10.3698722 ], [ 12.4390974, 10.3698691 ], [ 12.4627017, 10.3748183 ], [ 12.5041995, 10.3790062 ], [ 12.5354272, 10.3928532 ], [ 12.5465724, 10.3945954 ], [ 12.5516164, 10.3953839 ], [ 12.5516531, 10.3953873 ], [ 12.5573742, 10.3950558 ], [ 12.558515, 10.3995443 ], [ 12.5596559, 10.4034717 ], [ 12.5604165, 10.4092692 ], [ 12.5588953, 10.4154406 ], [ 12.557184, 10.4203029 ], [ 12.5554727, 10.425352 ], [ 12.5545144, 10.4277023 ], [ 12.5551168, 10.4308125 ], [ 12.5567781, 10.4339307 ], [ 12.556821, 10.4339148 ], [ 12.5602007, 10.4326684 ], [ 12.5643363, 10.4325282 ], [ 12.5651919, 10.4346319 ], [ 12.5640511, 10.4370162 ], [ 12.5624824, 10.4401016 ], [ 12.5603433, 10.4420651 ], [ 12.5579189, 10.4434675 ], [ 12.5580615, 10.4458517 ], [ 12.5599154, 10.4492175 ], [ 12.5629102, 10.4520224 ], [ 12.5654772, 10.457071 ], [ 12.5661902, 10.4615586 ], [ 12.5680441, 10.4656255 ], [ 12.5674737, 10.4689911 ], [ 12.5697554, 10.4729177 ], [ 12.5708962, 10.4754418 ], [ 12.5703258, 10.4787606 ], [ 12.570516, 10.4815652 ], [ 12.5725125, 10.4830609 ], [ 12.5739385, 10.4853046 ], [ 12.5747942, 10.4876417 ], [ 12.5758954, 10.4897139 ], [ 12.5788427, 10.4921444 ], [ 12.5788854, 10.4921373 ], [ 12.5814771, 10.4917041 ], [ 12.5848274, 10.4913525 ], [ 12.5879696, 10.4910227 ], [ 12.5922645, 10.4899011 ], [ 12.592314, 10.4899016 ], [ 12.5948158, 10.4899263 ], [ 12.5948669, 10.4899268 ], [ 12.5981937, 10.4854136 ], [ 12.6025445, 10.4840186 ], [ 12.602567, 10.4840114 ], [ 12.602567, 10.4805524 ], [ 12.6027571, 10.4777478 ], [ 12.6023892, 10.475799 ], [ 12.6015212, 10.4711102 ], [ 12.5998099, 10.4657813 ], [ 12.5998099, 10.4612938 ], [ 12.6023768, 10.458302 ], [ 12.6027928, 10.4566121 ], [ 12.6046586, 10.4545623 ], [ 12.6060252, 10.4539008 ], [ 12.6066432, 10.4530594 ], [ 12.6061861, 10.4522017 ], [ 12.6066551, 10.451477 ], [ 12.6072849, 10.4509324 ], [ 12.6087096, 10.4506183 ], [ 12.6097019, 10.4506182 ], [ 12.6097533, 10.4506182 ], [ 12.6104104, 10.4504018 ], [ 12.6111408, 10.4494772 ], [ 12.6117058, 10.448782 ], [ 12.6119798, 10.4483963 ], [ 12.6130605, 10.4476834 ], [ 12.6139227, 10.4476435 ], [ 12.6139685, 10.4476413 ], [ 12.6143711, 10.447793 ], [ 12.6147005, 10.4479172 ], [ 12.6152826, 10.4485811 ], [ 12.6154862, 10.4491183 ], [ 12.6162344, 10.4496666 ], [ 12.6166208, 10.4499679 ], [ 12.6166376, 10.4499811 ], [ 12.6169028, 10.4498802 ], [ 12.6185188, 10.4500542 ], [ 12.6185652, 10.4500594 ], [ 12.6195349, 10.4490496 ], [ 12.6197845, 10.4470722 ], [ 12.6204405, 10.4461477 ], [ 12.6225012, 10.4442252 ], [ 12.6258596, 10.4428754 ], [ 12.6333488, 10.4378409 ], [ 12.6342577, 10.4382788 ], [ 12.6336992, 10.4396029 ], [ 12.6352274, 10.4402422 ], [ 12.6352481, 10.4402294 ], [ 12.6375662, 10.4387837 ], [ 12.6396768, 10.4356982 ], [ 12.6397205, 10.4357095 ], [ 12.6524954, 10.4390097 ], [ 12.6571569, 10.4458647 ], [ 12.6587143, 10.4514723 ], [ 12.6604614, 10.4527845 ], [ 12.6622496, 10.4571199 ], [ 12.6653223, 10.4595757 ], [ 12.6676636, 10.465291 ], [ 12.6700106, 10.4721508 ], [ 12.6713343, 10.4772291 ], [ 12.672492, 10.4816732 ], [ 12.6736803, 10.48493 ], [ 12.6771183, 10.4892302 ], [ 12.6793623, 10.4920378 ], [ 12.6828527, 10.4961491 ], [ 12.6863413, 10.4995737 ], [ 12.6898556, 10.5087175 ], [ 12.6921864, 10.512146 ], [ 12.6945219, 10.516717 ], [ 12.6956959, 10.5201473 ], [ 12.6980314, 10.5247183 ], [ 12.7026978, 10.5327168 ], [ 12.7050285, 10.5361443 ], [ 12.7096796, 10.5407085 ], [ 12.7131729, 10.5452785 ], [ 12.7166719, 10.5509911 ], [ 12.7213278, 10.5567017 ], [ 12.7225008, 10.5601311 ], [ 12.7259941, 10.5647001 ], [ 12.7283249, 10.5681276 ], [ 12.7318182, 10.5726957 ], [ 12.7353067, 10.5761204 ], [ 12.7411041, 10.5783958 ], [ 12.7445812, 10.5795317 ], [ 12.7608013, 10.5829268 ], [ 12.7608248, 10.5829209 ], [ 12.7654257, 10.5817719 ], [ 12.7700443, 10.5794725 ], [ 12.7746687, 10.5783186 ], [ 12.7769775, 10.5771694 ], [ 12.7885523, 10.5771427 ], [ 12.7989635, 10.5759745 ], [ 12.7990076, 10.5759753 ], [ 12.8047216, 10.576083 ], [ 12.8105001, 10.5761919 ], [ 12.8105155, 10.5761912 ], [ 12.8163756, 10.5759354 ], [ 12.8244723, 10.5747719 ], [ 12.8325738, 10.5747538 ], [ 12.8449677, 10.5742111 ], [ 12.8450097, 10.5742092 ], [ 12.8476209, 10.5747194 ], [ 12.8638238, 10.5746822 ], [ 12.8753919, 10.5735111 ], [ 12.8881072, 10.5700502 ], [ 12.898508, 10.5665941 ], [ 12.9039477, 10.5653852 ], [ 12.9043872, 10.5652876 ], [ 12.9044374, 10.5652764 ], [ 12.9089145, 10.5642815 ], [ 12.9181632, 10.5619717 ], [ 12.9274062, 10.5585184 ], [ 12.9343394, 10.5562143 ], [ 12.9401216, 10.5550566 ], [ 12.9586085, 10.5481491 ], [ 12.965537, 10.5447016 ], [ 12.9712842, 10.5414329 ], [ 12.9731175, 10.5403902 ], [ 12.9736175, 10.5401058 ], [ 12.9747759, 10.5395293 ], [ 12.9748172, 10.5395087 ], [ 12.9828557, 10.5355082 ], [ 12.9863166, 10.5332117 ], [ 12.9920825, 10.5286217 ], [ 12.9939751, 10.5273662 ], [ 13.0024671, 10.5217333 ], [ 13.0047823, 10.5194162 ], [ 13.0047942, 10.5194043 ], [ 13.0059759, 10.518241 ], [ 13.0105323, 10.5137062 ], [ 13.0114489, 10.5069428 ], [ 13.0152993, 10.494884 ], [ 13.0225723, 10.4864705 ], [ 13.031414, 10.4788982 ], [ 13.0404443, 10.4747362 ], [ 13.0450477, 10.4690046 ], [ 13.0519704, 10.4644117 ], [ 13.0658378, 10.4598036 ], [ 13.0716189, 10.4586458 ], [ 13.0785531, 10.4563417 ], [ 13.0808639, 10.4551926 ], [ 13.0878018, 10.4540329 ], [ 13.0892627, 10.4535473 ], [ 13.0982026, 10.4505758 ], [ 13.0982674, 10.4505516 ], [ 13.0983196, 10.4505321 ], [ 13.1074456, 10.4471226 ], [ 13.1097506, 10.444829 ], [ 13.1143798, 10.4448175 ], [ 13.1224765, 10.443656 ], [ 13.1282519, 10.4413538 ], [ 13.1398, 10.435607 ], [ 13.1413342, 10.4350971 ], [ 13.1416083, 10.434991 ], [ 13.1432152, 10.4344549 ], [ 13.1478348, 10.4321556 ], [ 13.1481453, 10.4320231 ], [ 13.155921, 10.4287052 ], [ 13.1621001, 10.4252505 ], [ 13.1664273, 10.4228311 ], [ 13.1784063, 10.4173144 ], [ 13.1910077, 10.4096592 ], [ 13.1970723, 10.4089167 ], [ 13.2067881, 10.4156651 ], [ 13.2108441, 10.4207674 ], [ 13.2126348, 10.4251744 ], [ 13.215605, 10.429961 ], [ 13.2185566, 10.4350834 ], [ 13.2191002, 10.438489 ], [ 13.2120777, 10.4410895 ], [ 13.2103914, 10.4420014 ], [ 13.21053, 10.4425443 ], [ 13.2128234, 10.4451936 ], [ 13.2141192, 10.4477308 ], [ 13.2153208, 10.4476427 ], [ 13.2181008, 10.4492926 ], [ 13.2192041, 10.4486127 ], [ 13.2191972, 10.448156 ], [ 13.2195612, 10.4462613 ], [ 13.219256, 10.4436253 ], [ 13.2220283, 10.4428415 ], [ 13.2281248, 10.4434513 ], [ 13.2277318, 10.451862 ], [ 13.2267872, 10.4517107 ], [ 13.2251975, 10.4519734 ], [ 13.2235486, 10.451938 ], [ 13.2232917, 10.4524716 ], [ 13.2240481, 10.4529911 ], [ 13.224154, 10.4533768 ], [ 13.2257076, 10.4532035 ], [ 13.2260601, 10.4544898 ], [ 13.2266491, 10.456205 ], [ 13.2281033, 10.4560263 ], [ 13.2296282, 10.4588223 ], [ 13.2289769, 10.460766 ], [ 13.2308583, 10.4617823 ], [ 13.2345153, 10.4631771 ], [ 13.2371957, 10.4738555 ], [ 13.2385452, 10.4805837 ], [ 13.2391573, 10.4861263 ], [ 13.2464778, 10.5033269 ], [ 13.247999, 10.5079074 ], [ 13.2485977, 10.5110028 ], [ 13.2486124, 10.5110788 ], [ 13.2509462, 10.5231438 ], [ 13.2520429, 10.5352507 ], [ 13.2524257, 10.537997 ], [ 13.2527525, 10.5403423 ], [ 13.2478088, 10.5459504 ], [ 13.2375259, 10.5555201 ], [ 13.2329916, 10.5584822 ], [ 13.2313643, 10.5673759 ], [ 13.229685, 10.5752994 ], [ 13.2291887, 10.5776413 ], [ 13.2325162, 10.5888559 ], [ 13.2391713, 10.6005373 ], [ 13.2582521, 10.6119518 ], [ 13.2609606, 10.6172514 ], [ 13.2646735, 10.6235973 ], [ 13.2656269, 10.6252499 ], [ 13.267766, 10.6299552 ], [ 13.2720942, 10.640195 ], [ 13.2795903, 10.6578416 ], [ 13.2799741, 10.6587169 ], [ 13.2808371, 10.6606846 ], [ 13.2831831, 10.6675444 ], [ 13.2878504, 10.6755428 ], [ 13.2913208, 10.6812744 ], [ 13.2930809, 10.6838017 ], [ 13.2934301, 10.6843152 ], [ 13.29601, 10.6881094 ], [ 13.2970445, 10.689378 ], [ 13.3006668, 10.69382 ], [ 13.3041649, 10.6995335 ], [ 13.3069096, 10.7051802 ], [ 13.308754, 10.7111731 ], [ 13.3112459, 10.7134609 ], [ 13.3123465, 10.7166767 ], [ 13.314744, 10.7232494 ], [ 13.3170652, 10.7297277 ], [ 13.3193855, 10.7372551 ], [ 13.3209113, 10.7441425 ], [ 13.3229322, 10.7532654 ], [ 13.3229589, 10.7589865 ], [ 13.325305, 10.7658463 ], [ 13.3257492, 10.7679498 ], [ 13.3266694, 10.7705715 ], [ 13.328002, 10.7751865 ], [ 13.3289185, 10.7785034 ], [ 13.3323612, 10.7898569 ], [ 13.3358812, 10.8001461 ], [ 13.3347816, 10.8127346 ], [ 13.334794, 10.8153391 ], [ 13.334856, 10.8287535 ], [ 13.3351126, 10.8335381 ], [ 13.3356009, 10.8416853 ], [ 13.3363762, 10.8470755 ], [ 13.3361607, 10.8502712 ], [ 13.3362492, 10.8561518 ], [ 13.3363018, 10.8596468 ], [ 13.3361673, 10.8669089 ], [ 13.3359327, 10.8790646 ], [ 13.3357153, 10.8814163 ], [ 13.3347006, 10.8858585 ], [ 13.3344402, 10.8900003 ], [ 13.33531, 10.8958101 ], [ 13.3359404, 10.9078102 ], [ 13.3428229, 10.9178546 ], [ 13.3428239, 10.9246988 ], [ 13.3434181, 10.9282761 ], [ 13.3457441, 10.9305592 ], [ 13.350379, 10.9316921 ], [ 13.3550034, 10.9305372 ], [ 13.35847, 10.9293852 ], [ 13.3677082, 10.9247885 ], [ 13.3719548, 10.9130178 ], [ 13.3726189, 10.9007017 ], [ 13.37344, 10.8967252 ], [ 13.3764588, 10.8956818 ], [ 13.3829119, 10.8972714 ], [ 13.3886712, 10.8959396 ], [ 13.3906342, 10.8916558 ], [ 13.3803877, 10.8827453 ], [ 13.3831036, 10.8784447 ], [ 13.3914112, 10.878321 ], [ 13.4112745, 10.8802902 ], [ 13.4357457, 10.8888654 ], [ 13.445201, 10.8950938 ], [ 13.4633674, 10.9028227 ], [ 13.4636707, 10.9028292 ], [ 13.4637221, 10.9028292 ], [ 13.4752459, 10.9028026 ], [ 13.4833574, 10.9050722 ], [ 13.4891548, 10.9073477 ], [ 13.4943721, 10.9086436 ], [ 13.5019026, 10.9107504 ], [ 13.5065422, 10.9130287 ], [ 13.5134974, 10.9153004 ], [ 13.5181427, 10.9187231 ], [ 13.5227776, 10.9198561 ], [ 13.5274181, 10.9221334 ], [ 13.5355301, 10.9244032 ], [ 13.5413275, 10.9266787 ], [ 13.5415853, 10.9268052 ], [ 13.5459681, 10.928956 ], [ 13.5494509, 10.9312372 ], [ 13.5517817, 10.9346638 ], [ 13.5564222, 10.9369421 ], [ 13.5633869, 10.9415026 ], [ 13.5687217, 10.944121 ], [ 13.5773077, 10.9483356 ], [ 13.5854149, 10.949461 ], [ 13.5854663, 10.949461 ], [ 13.613244, 10.949398 ], [ 13.6213407, 10.9482346 ], [ 13.6259698, 10.9482241 ], [ 13.6305942, 10.9470692 ], [ 13.6410054, 10.9459019 ], [ 13.645826, 10.9458908 ], [ 13.6481339, 10.9458856 ], [ 13.6514224, 10.945878 ], [ 13.6523507, 10.9455162 ], [ 13.6548365, 10.9445474 ], [ 13.6580894, 10.9443498 ], [ 13.6581308, 10.9443472 ], [ 13.6595897, 10.9447145 ], [ 13.6615039, 10.94471 ], [ 13.6698837, 10.9446917 ], [ 13.6755426, 10.9425518 ], [ 13.6862168, 10.9385154 ], [ 13.6994591, 10.9335079 ], [ 13.7084821, 10.9300958 ], [ 13.7214691, 10.9251849 ], [ 13.7506736, 10.9141413 ], [ 13.7502604, 10.9137247 ], [ 13.7499934, 10.9134556 ], [ 13.7183399, 10.8815422 ], [ 13.7177773, 10.8772221 ], [ 13.7130547, 10.8608322 ], [ 13.7086414, 10.8514539 ], [ 13.7063885, 10.8466663 ], [ 13.6769428, 10.8074989 ], [ 13.6602096, 10.7819943 ], [ 13.6562814, 10.7750565 ], [ 13.6382234, 10.7431615 ], [ 13.6327982, 10.7345955 ], [ 13.6179504, 10.7160357 ], [ 13.6105858, 10.7080742 ], [ 13.5968208, 10.6931928 ], [ 13.5731213, 10.6672091 ], [ 13.560833, 10.64361 ], [ 13.5595561, 10.6398461 ], [ 13.5559275, 10.6291508 ], [ 13.5556067, 10.6280537 ], [ 13.5541699, 10.5662591 ], [ 13.5416063, 10.4988727 ], [ 13.5379336, 10.4819807 ], [ 13.5318244, 10.4538789 ], [ 13.5318745, 10.4538698 ], [ 13.5188149, 10.3937957 ], [ 13.493885, 10.3906408 ], [ 13.4921623, 10.3898013 ], [ 13.4940547, 10.3887708 ], [ 13.4986809, 10.3372217 ], [ 13.4958451, 10.3222342 ], [ 13.4875489, 10.27811 ], [ 13.5109446, 10.2733848 ], [ 13.5173691, 10.2573234 ], [ 13.5076809, 10.2144931 ], [ 13.4636097, 10.2174988 ], [ 13.4669113, 10.2121115 ], [ 13.4688873, 10.2088871 ], [ 13.4708328, 10.2041664 ], [ 13.4713879, 10.1977768 ], [ 13.4689016, 10.186176 ], [ 13.4688873, 10.1861095 ], [ 13.4622211, 10.1719437 ], [ 13.4569445, 10.1630554 ], [ 13.4516659, 10.1544437 ], [ 13.4392827, 10.144055 ], [ 13.4186244, 10.1267239 ], [ 13.4154284, 10.1240427 ], [ 13.4102764, 10.1197205 ], [ 13.3980541, 10.1111107 ], [ 13.3956871, 10.1101894 ], [ 13.3440535, 10.1038377 ], [ 13.3263874, 10.1016645 ], [ 13.3180093, 10.0996899 ], [ 13.3166262, 10.0936894 ], [ 13.3121719, 10.0882071 ], [ 13.2955546, 10.0819819 ], [ 13.2914533, 10.0802228 ], [ 13.2895726, 10.07546 ], [ 13.2880821, 10.0749956 ], [ 13.2861404, 10.0731967 ], [ 13.2852781, 10.0713483 ], [ 13.2803802, 10.0698845 ], [ 13.2786594, 10.0662296 ], [ 13.2767749, 10.0616896 ], [ 13.2749284, 10.0579729 ], [ 13.2666574, 10.0575969 ], [ 13.2617081, 10.0566927 ], [ 13.2571301, 10.0507822 ], [ 13.2523236, 10.0407497 ], [ 13.24511, 10.0375844 ], [ 13.2438889, 10.0316658 ], [ 13.2622406, 10.0118418 ], [ 13.2864403, 9.9711267 ], [ 13.2746382, 9.9383853 ], [ 13.2662854, 9.9337258 ], [ 13.2458467, 9.922324 ], [ 13.2413257, 9.9172081 ], [ 13.2404165, 9.9156549 ], [ 13.2384704, 9.9123302 ], [ 13.2354961, 9.9076903 ], [ 13.2368048, 9.9038831 ], [ 13.2375186, 9.900314 ], [ 13.2370427, 9.8934135 ], [ 13.2446808, 9.8723949 ], [ 13.2434911, 9.8640668 ], [ 13.2405548, 9.854166 ], [ 13.2437289, 9.8371915 ], [ 13.250649, 9.8001842 ], [ 13.2597218, 9.7516651 ], [ 13.2532344, 9.6808048 ], [ 13.2517481, 9.6645676 ], [ 13.2452774, 9.5938873 ], [ 13.2436104, 9.5883331 ], [ 13.2391663, 9.5788879 ], [ 13.2305782, 9.5675882 ], [ 13.229798, 9.564518 ], [ 13.2186643, 9.5426129 ], [ 13.2152154, 9.544364 ], [ 13.2151893, 9.5443512 ], [ 13.2050099, 9.5393698 ], [ 13.2023563, 9.5369815 ], [ 13.1958332, 9.5311108 ], [ 13.1906561, 9.5286011 ], [ 13.1866655, 9.5266666 ], [ 13.1737652, 9.5221295 ], [ 13.1613884, 9.5177765 ], [ 13.1508789, 9.5147095 ], [ 13.1444959, 9.5141659 ], [ 13.1266219, 9.5133394 ], [ 13.1212769, 9.5131226 ], [ 13.0963879, 9.5119438 ], [ 13.0867184, 9.5120421 ], [ 13.0659, 9.506935 ], [ 13.0495229, 9.506935 ], [ 13.0494715, 9.506935 ], [ 13.03956, 9.5027416 ], [ 13.0330973, 9.5000074 ], [ 13.0238876, 9.4961109 ], [ 12.9919221, 9.472385 ], [ 12.9883327, 9.4697208 ], [ 12.9681657, 9.4519043 ], [ 12.9667167, 9.4497204 ], [ 12.9492087, 9.4239578 ], [ 12.8994085, 9.3504621 ], [ 12.8977776, 9.3480549 ], [ 12.9062253, 9.3414158 ], [ 12.9075544, 9.3241624 ], [ 12.9136932, 9.2474253 ], [ 12.9214025, 9.1510589 ], [ 12.9423418, 9.0634948 ], [ 12.9252096, 8.9930627 ], [ 12.849281, 8.9801914 ], [ 12.8490164, 8.9796852 ], [ 12.84564, 8.973227 ], [ 12.8443063, 8.9712226 ], [ 12.8440022, 8.9692909 ], [ 12.8810468, 8.8455361 ], [ 12.8786674, 8.7503577 ], [ 12.8572522, 8.6861122 ], [ 12.8168014, 8.6504203 ], [ 12.8171726, 8.6470793 ], [ 12.8263187, 8.5647649 ], [ 12.7549848, 8.5718932 ], [ 12.7549354, 8.5718981 ], [ 12.7311408, 8.5124116 ], [ 12.681186, 8.4672144 ], [ 12.6811721, 8.4672018 ], [ 12.6026929, 8.4933616 ], [ 12.6026499, 8.4933759 ], [ 12.5859937, 8.4648224 ], [ 12.5193688, 8.4553045 ], [ 12.5045424, 8.4553045 ], [ 12.4408979, 8.4553045 ], [ 12.4408465, 8.4553045 ], [ 12.3411102, 8.4216652 ], [ 12.3361111, 8.4197216 ], [ 12.3300428, 8.4191705 ], [ 12.3299999, 8.4191666 ], [ 12.3286562, 8.4197807 ], [ 12.3202763, 8.4236107 ], [ 12.308054, 8.4322205 ], [ 12.2964165, 8.4344391 ], [ 12.2963886, 8.4344444 ], [ 12.2852764, 8.4319439 ], [ 12.2752762, 8.4283333 ], [ 12.2633324, 8.4194431 ], [ 12.2538872, 8.4080544 ], [ 12.251449, 8.4028731 ], [ 12.247221, 8.3938885 ], [ 12.2427769, 8.3774986 ], [ 12.2374507, 8.3287694 ], [ 12.2372208, 8.3266659 ], [ 12.2369442, 8.313055 ], [ 12.2372032, 8.3101539 ], [ 12.2422218, 8.2711105 ], [ 12.2524986, 8.2474995 ], [ 12.2542302, 8.2398045 ], [ 12.2549992, 8.2363873 ], [ 12.2566662, 8.2177773 ], [ 12.2563875, 8.212764 ], [ 12.2555542, 8.1977768 ], [ 12.2455235, 8.1771736 ], [ 12.2099991, 8.1324997 ], [ 12.2015695, 8.1067917 ], [ 12.2015181, 8.1067917 ], [ 12.1994438, 8.0741653 ], [ 12.2016659, 8.0424995 ], [ 12.2094232, 8.0034371 ], [ 12.2211304, 7.9945068 ], [ 12.2189848, 7.9912568 ], [ 12.2142944, 7.9902954 ], [ 12.2130737, 7.9874878 ], [ 12.2136265, 7.9824522 ], [ 12.2109039, 7.9829347 ], [ 12.2094052, 7.9812461 ], [ 12.2100082, 7.9773866 ], [ 12.2090325, 7.9725389 ], [ 12.2070923, 7.9683228 ], [ 12.2036743, 7.9649048 ], [ 12.1984487, 7.9621835 ], [ 12.1906574, 7.9580718 ], [ 12.1899263, 7.9567605 ], [ 12.1931948, 7.9537316 ], [ 12.193804, 7.9515235 ], [ 12.1914076, 7.9462173 ], [ 12.1953125, 7.9423218 ], [ 12.1942273, 7.9411975 ], [ 12.1911378, 7.9401125 ], [ 12.1890249, 7.9373713 ], [ 12.1875458, 7.9368574 ], [ 12.1845093, 7.9368896 ], [ 12.1832886, 7.9370728 ], [ 12.1815186, 7.9318848 ], [ 12.1796055, 7.9286122 ], [ 12.1781835, 7.9289777 ], [ 12.1757622, 7.9282467 ], [ 12.1728751, 7.9262703 ], [ 12.1679049, 7.9172734 ], [ 12.161262, 7.9132446 ], [ 12.1518089, 7.896608 ], [ 12.1411095, 7.8777771 ], [ 12.1327042, 7.8672408 ], [ 12.1324119, 7.8669335 ], [ 12.1197205, 7.8511105 ], [ 12.1061096, 7.8369436 ], [ 12.0961094, 7.8261108 ], [ 12.0843236, 7.8080946 ], [ 12.0823426, 7.8050663 ], [ 12.0766659, 7.7963886 ], [ 12.0676285, 7.7810639 ], [ 12.0638886, 7.7747221 ], [ 12.0623338, 7.772075 ], [ 12.0614523, 7.7705743 ], [ 12.0536098, 7.7572222 ], [ 12.0436096, 7.7397213 ], [ 12.0330544, 7.7149992 ], [ 12.0299988, 7.7041664 ], [ 12.0269432, 7.686388 ], [ 12.0249996, 7.667222 ], [ 12.0249996, 7.6624371 ], [ 12.0249996, 7.6605549 ], [ 12.0274982, 7.6494436 ], [ 12.0294437, 7.6444435 ], [ 12.0408335, 7.6286106 ], [ 12.0438881, 7.584444 ], [ 12.0436096, 7.5777769 ], [ 12.0408335, 7.5736103 ], [ 12.0279907, 7.5606192 ], [ 11.9956175, 7.5278719 ], [ 11.9208317, 7.4522219 ], [ 11.9066658, 7.4383326 ], [ 11.8961105, 7.4283333 ], [ 11.8883324, 7.4222221 ], [ 11.8713865, 7.4116659 ], [ 11.8572216, 7.3983326 ], [ 11.8526944, 7.391252 ], [ 11.8526721, 7.3912172 ] ] ] } }
]
}
