{
"type": "FeatureCollection",
"name": "Kwara_state_boundary",
"crs": { "type": "name", "properties": { "name": "urn:ogc:def:crs:OGC:1.3:CRS84" } },
"features": [
{ "type": "Feature", "properties": { "state_code": "KW", "state_name": "Kwara", "cap_city": "Ilorin", "geo_zone": "NCZ" }, "geometry": { "type": "Polygon", "coordinates": [ [ [ 5.0576329, 8.039465 ], [ 5.0549302, 8.0491905 ], [ 5.0534396, 8.0577631 ], [ 5.0496273, 8.0646248 ], [ 5.0442905, 8.0699615 ], [ 5.0397158, 8.0718679 ], [ 5.0370474, 8.0707245 ], [ 5.0324726, 8.0680561 ], [ 5.0290418, 8.0638628 ], [ 5.0218863, 8.0599596 ], [ 5.0206552, 8.059288 ], [ 5.020221, 8.0589407 ], [ 5.0149369, 8.0547132 ], [ 5.0099816, 8.0501394 ], [ 5.0054069, 8.0432768 ], [ 5.001976, 8.0341282 ], [ 4.9989528, 8.030323 ], [ 4.9951575, 8.0295329 ], [ 4.9914221, 8.0310015 ], [ 4.9880218, 8.031842 ], [ 4.983364, 8.0323493 ], [ 4.9817183, 8.0302026 ], [ 4.9804796, 8.0269283 ], [ 4.9792373, 8.0257542 ], [ 4.9770736, 8.0259069 ], [ 4.9749049, 8.024058 ], [ 4.9741069, 8.0213828 ], [ 4.9731807, 8.0213804 ], [ 4.9717014, 8.0236539 ], [ 4.9697055, 8.023611 ], [ 4.969192, 8.0242167 ], [ 4.9707165, 8.0326033 ], [ 4.9702577, 8.0335975 ], [ 4.9685138, 8.0373769 ], [ 4.9684296, 8.0375595 ], [ 4.9669046, 8.0467081 ], [ 4.9629587, 8.0504076 ], [ 4.9610667, 8.0521814 ], [ 4.9608054, 8.0524263 ], [ 4.9497499, 8.0554762 ], [ 4.9451756, 8.060813 ], [ 4.9394574, 8.0680561 ], [ 4.9268775, 8.0798731 ], [ 4.9131536, 8.0855913 ], [ 4.9071672, 8.0868615 ], [ 4.9059321, 8.0871235 ], [ 4.8954082, 8.0893564 ], [ 4.8872314, 8.090929 ], [ 4.8777013, 8.0913095 ], [ 4.8613091, 8.0947409 ], [ 4.8540664, 8.0955029 ], [ 4.851779, 8.091691 ], [ 4.8548288, 8.0859728 ], [ 4.8567348, 8.0791111 ], [ 4.8574972, 8.0726309 ], [ 4.8525414, 8.0680561 ], [ 4.8503814, 8.0666161 ], [ 4.8433924, 8.0619564 ], [ 4.83005, 8.0554762 ], [ 4.8186135, 8.0535698 ], [ 4.8128953, 8.059288 ], [ 4.808809, 8.06174 ], [ 4.8052711, 8.0638628 ], [ 4.7992949, 8.0650578 ], [ 4.7950294, 8.0657495 ], [ 4.7856388, 8.0684376 ], [ 4.7791581, 8.0684376 ], [ 4.7747188, 8.0683069 ], [ 4.7661972, 8.0680561 ], [ 4.7547607, 8.0650063 ], [ 4.7456117, 8.0642443 ], [ 4.7353191, 8.0634813 ], [ 4.7352787, 8.0634835 ], [ 4.7311123, 8.0637089 ], [ 4.7212143, 8.0642443 ], [ 4.7116842, 8.0596695 ], [ 4.7055883, 8.0515108 ], [ 4.7044411, 8.048233 ], [ 4.6996088, 8.0490961 ], [ 4.695673, 8.0524263 ], [ 4.6922421, 8.0562382 ], [ 4.6872864, 8.0570011 ], [ 4.6837361, 8.0552254 ], [ 4.6827121, 8.0547132 ], [ 4.6796622, 8.0520449 ], [ 4.6750879, 8.049758 ], [ 4.673563, 8.0459461 ], [ 4.6655574, 8.0432768 ], [ 4.6594582, 8.0455647 ], [ 4.6533589, 8.0505199 ], [ 4.6484032, 8.0535698 ], [ 4.6426849, 8.0531883 ], [ 4.6373532, 8.0535857 ], [ 4.6370649, 8.0538526 ], [ 4.6339169, 8.0570011 ], [ 4.6329994, 8.0595249 ], [ 4.6323924, 8.0611944 ], [ 4.6341376, 8.0681763 ], [ 4.6339169, 8.0714865 ], [ 4.6289611, 8.0745363 ], [ 4.6217184, 8.0756798 ], [ 4.6178967, 8.0745167 ], [ 4.6129503, 8.0730114 ], [ 4.6030388, 8.0680561 ], [ 4.598083, 8.0638628 ], [ 4.5947769, 8.0632015 ], [ 4.5904589, 8.0623379 ], [ 4.5790229, 8.0577631 ], [ 4.5689983, 8.0547562 ], [ 4.5572681, 8.0586653 ], [ 4.5334868, 8.0715752 ], [ 4.5273653, 8.0760544 ], [ 4.5056291, 8.091959 ], [ 4.5043201, 8.0951879 ], [ 4.4954371, 8.1170998 ], [ 4.4949641, 8.1227751 ], [ 4.4940782, 8.1334066 ], [ 4.4940782, 8.1471905 ], [ 4.4940782, 8.1497135 ], [ 4.4940782, 8.1667004 ], [ 4.4900012, 8.1823282 ], [ 4.4838862, 8.2027121 ], [ 4.4804956, 8.2105103 ], [ 4.4719191, 8.2163501 ], [ 4.4616017, 8.2274384 ], [ 4.4609225, 8.2296029 ], [ 4.4596823, 8.2335552 ], [ 4.457122, 8.2350756 ], [ 4.4524107, 8.2394301 ], [ 4.4440231, 8.2469539 ], [ 4.4406323, 8.2505588 ], [ 4.440625, 8.2539642 ], [ 4.4179783, 8.2733765 ], [ 4.4023304, 8.2916379 ], [ 4.3917351, 8.3040028 ], [ 4.3871422, 8.3131885 ], [ 4.3595058, 8.3684633 ], [ 4.3538814, 8.3797101 ], [ 4.3481388, 8.3911953 ], [ 4.3105945, 8.4692987 ], [ 4.2877799, 8.5167521 ], [ 4.2690234, 8.5557603 ], [ 4.2597685, 8.5750065 ], [ 4.2318036, 8.6333716 ], [ 4.2091436, 8.6806583 ], [ 4.2134209, 8.6826019 ], [ 4.2103467, 8.6918249 ], [ 4.2059614, 8.7037973 ], [ 4.2011242, 8.7179556 ], [ 4.1903644, 8.7533092 ], [ 4.1912671, 8.7656464 ], [ 4.1949759, 8.8163309 ], [ 4.2211065, 8.8609066 ], [ 4.257997, 8.9008713 ], [ 4.2929896, 8.9239153 ], [ 4.3210182, 8.9423733 ], [ 4.3348522, 8.9577446 ], [ 4.3348522, 8.9808006 ], [ 4.3290133, 8.9895592 ], [ 4.3256297, 8.9946346 ], [ 4.3164072, 8.9977093 ], [ 4.2902765, 8.9915609 ], [ 4.2733684, 8.9792643 ], [ 4.2533855, 8.9669666 ], [ 4.2104602, 8.9700327 ], [ 4.1334915, 8.9946346 ], [ 4.1153874, 9.0005185 ], [ 4.0720072, 9.014617 ], [ 4.0304272, 9.028477 ], [ 4.0120602, 9.0345993 ], [ 3.9905966, 9.0483973 ], [ 3.9790527, 9.0666225 ], [ 3.9720953, 9.0776386 ], [ 3.9520176, 9.1289484 ], [ 3.9444273, 9.1483459 ], [ 3.9213707, 9.1729393 ], [ 3.9109632, 9.1756782 ], [ 3.898133, 9.1790546 ], [ 3.8629606, 9.1883106 ], [ 3.8260701, 9.1821623 ], [ 3.8102512, 9.1734619 ], [ 3.8086264, 9.1725682 ], [ 3.7953279, 9.1652536 ], [ 3.7707343, 9.1468086 ], [ 3.7538261, 9.1206779 ], [ 3.7525453, 9.0925001 ], [ 3.7522891, 9.0868616 ], [ 3.7462734, 9.0607943 ], [ 3.7430663, 9.0468969 ], [ 3.7359496, 9.036459 ], [ 3.720385, 9.0160236 ], [ 3.6914545, 8.9966218 ], [ 3.6870584, 9.003429 ], [ 3.6737554, 9.0046087 ], [ 3.6604776, 8.9984555 ], [ 3.6541125, 9.0014793 ], [ 3.6384317, 8.9989156 ], [ 3.61745, 9.0032449 ], [ 3.6079262, 8.9993294 ], [ 3.5957009, 8.9993346 ], [ 3.5932555, 8.9954385 ], [ 3.5944479, 8.9891141 ], [ 3.599816, 8.9765712 ], [ 3.601045, 8.9634381 ], [ 3.599984, 8.9569085 ], [ 3.5247972, 8.9285393 ], [ 3.4191861, 8.8620876 ], [ 3.4161315, 8.8601656 ], [ 3.3879948, 8.8424616 ], [ 3.3388073, 8.8255529 ], [ 3.2844194, 8.8049735 ], [ 3.2819345, 8.8040333 ], [ 3.2373583, 8.7825146 ], [ 3.1973937, 8.7963486 ], [ 3.1835597, 8.8117189 ], [ 3.1635773, 8.8086452 ], [ 3.1312981, 8.7779026 ], [ 3.1036301, 8.7502346 ], [ 3.0513685, 8.7287159 ], [ 3.014478, 8.7102699 ], [ 3.0053459, 8.7011379 ], [ 2.947701, 8.6434934 ], [ 2.9422338, 8.6380262 ], [ 2.9315385, 8.6250392 ], [ 2.9207144, 8.6118956 ], [ 2.8884351, 8.6088209 ], [ 2.8881984, 8.6088285 ], [ 2.8407848, 8.6103582 ], [ 2.811646, 8.6103582 ], [ 2.8027794, 8.6103582 ], [ 2.8023572, 8.6103582 ], [ 2.7853984, 8.5973898 ], [ 2.7563887, 8.575206 ], [ 2.7563887, 8.5819435 ], [ 2.7469444, 8.7194443 ], [ 2.7429576, 8.7707634 ], [ 2.7452774, 8.7952766 ], [ 2.7661493, 8.9175923 ], [ 2.7728441, 8.9568255 ], [ 2.7830553, 9.0166664 ], [ 2.789444, 9.0438881 ], [ 2.7947221, 9.0569439 ], [ 2.8142217, 9.0651562 ], [ 2.9050713, 9.0791701 ], [ 2.96793, 9.0813007 ], [ 2.9874997, 9.0611095 ], [ 3.0049996, 9.0652771 ], [ 3.0949998, 9.0905552 ], [ 3.1304117, 9.1922549 ], [ 3.1663885, 9.3027763 ], [ 3.1667105, 9.3393277 ], [ 3.166944, 9.3658333 ], [ 3.165833, 9.3713875 ], [ 3.1599998, 9.3861103 ], [ 3.1522222, 9.4055538 ], [ 3.145, 9.4188881 ], [ 3.1419444, 9.4291649 ], [ 3.1416664, 9.4411106 ], [ 3.1713886, 9.4963875 ], [ 3.2051221, 9.5313763 ], [ 3.2456059, 9.5865713 ], [ 3.2547085, 9.5979279 ], [ 3.2855808, 9.6364448 ], [ 3.3209872, 9.6726126 ], [ 3.3527775, 9.7030544 ], [ 3.3372221, 9.7349987 ], [ 3.331111, 9.7558327 ], [ 3.330833, 9.7688885 ], [ 3.3314568, 9.774168 ], [ 3.3311713, 9.7810209 ], [ 3.3334556, 9.7913001 ], [ 3.341165, 9.8078612 ], [ 3.352872, 9.8241367 ], [ 3.3665777, 9.8372713 ], [ 3.4713888, 9.8558331 ], [ 3.476944, 9.8569431 ], [ 3.4838886, 9.8566666 ], [ 3.5019441, 9.8533325 ], [ 3.5122218, 9.8494434 ], [ 3.521111, 9.8444443 ], [ 3.5252776, 9.8441658 ], [ 3.5588884, 9.8802776 ], [ 3.6063886, 9.9438877 ], [ 3.6094441, 9.9480553 ], [ 3.6120138, 9.9535155 ], [ 3.6161108, 9.9622211 ], [ 3.6582662, 10.0618261 ], [ 3.6584288, 10.0622102 ], [ 3.6758332, 10.1033335 ], [ 3.6799743, 10.1201736 ], [ 3.6844444, 10.1511097 ], [ 3.6842856, 10.1566657 ], [ 3.7092802, 10.1138165 ], [ 3.7124817, 10.1083279 ], [ 3.7146657, 10.1017761 ], [ 3.7153938, 10.0893993 ], [ 3.7306824, 10.0682869 ], [ 3.7365067, 10.0682869 ], [ 3.7365067, 10.0748386 ], [ 3.7343225, 10.0799351 ], [ 3.7350504, 10.0879431 ], [ 3.7430589, 10.0843039 ], [ 3.745971, 10.0770235 ], [ 3.750339, 10.0682869 ], [ 3.7576194, 10.0631905 ], [ 3.7619877, 10.0588226 ], [ 3.7663558, 10.0537262 ], [ 3.7714519, 10.0471745 ], [ 3.7721801, 10.0406218 ], [ 3.7750921, 10.0333414 ], [ 3.7838285, 10.0311575 ], [ 3.7881966, 10.0340691 ], [ 3.7881966, 10.0384378 ], [ 3.7845564, 10.0457182 ], [ 3.7801883, 10.0522699 ], [ 3.7845564, 10.0624628 ], [ 3.7940209, 10.0624628 ], [ 3.7969329, 10.066103 ], [ 3.7991171, 10.0711985 ], [ 3.8180456, 10.0668306 ], [ 3.8233192, 10.054306 ], [ 3.833035, 10.047019 ], [ 3.8510396, 10.0552034 ], [ 3.8554385, 10.0535538 ], [ 3.8641338, 10.050293 ], [ 3.8723176, 10.0421095 ], [ 3.8821383, 10.0355625 ], [ 3.8903222, 10.030652 ], [ 3.8969009, 10.0248957 ], [ 3.9034164, 10.0191946 ], [ 3.8903222, 10.0159206 ], [ 3.8870487, 10.0044632 ], [ 3.8870487, 9.9880953 ], [ 3.9099636, 9.9897327 ], [ 3.9198143, 9.9981758 ], [ 3.9214208, 9.9995527 ], [ 3.9345152, 9.9995527 ], [ 3.9492462, 9.9913692 ], [ 3.9541564, 9.9831848 ], [ 3.9525197, 9.9782753 ], [ 3.9410622, 9.9766378 ], [ 3.936152, 9.9733648 ], [ 3.9345152, 9.9700909 ], [ 3.9345152, 9.9668179 ], [ 3.9410622, 9.9619074 ], [ 3.9492462, 9.9619074 ], [ 3.9590669, 9.9602699 ], [ 3.9656138, 9.9569969 ], [ 3.9705241, 9.9488134 ], [ 3.9688873, 9.9422655 ], [ 3.9607036, 9.937356 ], [ 3.9590669, 9.934082 ], [ 3.942699, 9.9324455 ], [ 3.9345152, 9.9275351 ], [ 3.936152, 9.9160776 ], [ 3.9459724, 9.9078932 ], [ 3.9541564, 9.9078932 ], [ 3.9623404, 9.9078932 ], [ 3.9672506, 9.9029837 ], [ 3.9800174, 9.9065838 ], [ 3.9826362, 9.8987274 ], [ 3.9852552, 9.8934898 ], [ 3.994421, 9.9000368 ], [ 4.0022779, 9.9065838 ], [ 4.0114436, 9.8987274 ], [ 4.012753, 9.8856335 ], [ 4.0166812, 9.8686113 ], [ 4.0206094, 9.860754 ], [ 4.0219188, 9.8568258 ], [ 4.0271568, 9.8568258 ], [ 4.0389414, 9.8646832 ], [ 4.0520358, 9.8633738 ], [ 4.0572734, 9.8568258 ], [ 4.0703673, 9.8568258 ], [ 4.0782242, 9.854207 ], [ 4.080843, 9.8515882 ], [ 4.0834618, 9.8515882 ], [ 4.0952463, 9.8673019 ], [ 4.0952463, 9.8777771 ], [ 4.1148877, 9.8817053 ], [ 4.1240535, 9.8751583 ], [ 4.1227441, 9.860754 ], [ 4.1188159, 9.8555164 ], [ 4.1279821, 9.8515882 ], [ 4.1410761, 9.860754 ], [ 4.1431427, 9.8609836 ], [ 4.1528611, 9.8620634 ], [ 4.1711926, 9.8201628 ], [ 4.2065473, 9.7821894 ], [ 4.209918, 9.7782955 ], [ 4.2586481, 9.7220038 ], [ 4.2670232, 9.712329 ], [ 4.2686594, 9.7104389 ], [ 4.2824936, 9.694458 ], [ 4.3505836, 9.5883951 ], [ 4.3872471, 9.5622063 ], [ 4.443552, 9.5098295 ], [ 4.4443048, 9.5089229 ], [ 4.489285, 9.4547428 ], [ 4.5011668, 9.4404306 ], [ 4.5784225, 9.3880539 ], [ 4.6097269, 9.3617582 ], [ 4.6170502, 9.3304396 ], [ 4.6393104, 9.3081789 ], [ 4.6851401, 9.2924662 ], [ 4.7139473, 9.2780628 ], [ 4.7229186, 9.2745737 ], [ 4.7375169, 9.2688961 ], [ 4.7545395, 9.2479458 ], [ 4.7571583, 9.2243767 ], [ 4.7519207, 9.1994972 ], [ 4.7519207, 9.1798563 ], [ 4.764555, 9.1499319 ], [ 4.7687063, 9.1535301 ], [ 4.7724609, 9.1476297 ], [ 4.7853327, 9.135294 ], [ 4.8008866, 9.1363668 ], [ 4.8058049, 9.1363668 ], [ 4.8075943, 9.13637 ], [ 4.8091185, 9.1350551 ], [ 4.8115727, 9.1335337 ], [ 4.812258, 9.1329436 ], [ 4.8125816, 9.1320679 ], [ 4.8135715, 9.1317062 ], [ 4.8151552, 9.1316225 ], [ 4.8164687, 9.1318661 ], [ 4.8183989, 9.1323915 ], [ 4.819508, 9.1330825 ], [ 4.8282399, 9.134222 ], [ 4.8480845, 9.1411943 ], [ 4.8572021, 9.1487026 ], [ 4.8652473, 9.1503115 ], [ 4.8716831, 9.155139 ], [ 4.8760715, 9.1576462 ], [ 4.876585, 9.1612396 ], [ 4.8860817, 9.167345 ], [ 4.8989701, 9.1700583 ], [ 4.9111805, 9.1714144 ], [ 4.9233904, 9.1761627 ], [ 4.9417057, 9.1843033 ], [ 4.9620557, 9.1931219 ], [ 4.9715528, 9.2005835 ], [ 4.9871233, 9.2047918 ], [ 4.9966512, 9.2073669 ], [ 5.0163231, 9.2053318 ], [ 5.0326033, 9.1978703 ], [ 5.0482049, 9.1876946 ], [ 5.0651636, 9.1625967 ], [ 5.0681025, 9.1607724 ], [ 5.0848355, 9.1503859 ], [ 5.1066125, 9.1362953 ], [ 5.1078992, 9.1354628 ], [ 5.1309628, 9.1232529 ], [ 5.1594529, 9.1069727 ], [ 5.1716633, 9.0873003 ], [ 5.1967616, 9.0540619 ], [ 5.208972, 9.0350685 ], [ 5.2255912, 9.0269279 ], [ 5.2378011, 9.0187883 ], [ 5.2547598, 9.0167532 ], [ 5.2723966, 9.0147181 ], [ 5.2866416, 9.0099697 ], [ 5.2974954, 9.0031862 ], [ 5.3076701, 9.000473 ], [ 5.3232722, 8.9923325 ], [ 5.3320904, 8.9957247 ], [ 5.3483706, 8.9984379 ], [ 5.3700776, 8.9964027 ], [ 5.3755045, 8.9902973 ], [ 5.3911061, 8.9828358 ], [ 5.4080648, 8.9787664 ], [ 5.4250231, 8.9787664 ], [ 5.4365549, 8.9753742 ], [ 5.4453735, 8.972661 ], [ 5.4575834, 8.9685907 ], [ 5.4609752, 8.9624863 ], [ 5.4664021, 8.9543457 ], [ 5.4738636, 8.9475622 ], [ 5.4853954, 8.944849 ], [ 5.4976058, 8.944171 ], [ 5.5118508, 8.944171 ], [ 5.5254178, 8.9401007 ], [ 5.5395627, 8.9305677 ], [ 5.5436292, 8.9167414 ], [ 5.5485575, 8.9122236 ], [ 5.563148, 8.8988485 ], [ 5.5661626, 8.896839 ], [ 5.5729079, 8.8923426 ], [ 5.5899898, 8.8830691 ], [ 5.6013732, 8.8768892 ], [ 5.6054397, 8.8679428 ], [ 5.619266, 8.8524904 ], [ 5.6420383, 8.8354111 ], [ 5.6621524, 8.8312494 ], [ 5.6656241, 8.8305311 ], [ 5.6824284, 8.828956 ], [ 5.6916499, 8.8280916 ], [ 5.6934619, 8.8281613 ], [ 5.7127957, 8.8289051 ], [ 5.7282481, 8.8199587 ], [ 5.7420745, 8.7979994 ], [ 5.7607803, 8.7736006 ], [ 5.7746062, 8.7532673 ], [ 5.795752, 8.7418814 ], [ 5.8242178, 8.7426949 ], [ 5.8625266, 8.744993 ], [ 5.8648829, 8.7451344 ], [ 5.8868418, 8.7467613 ], [ 5.9014812, 8.7500143 ], [ 5.9283204, 8.7426949 ], [ 5.9437728, 8.7483883 ], [ 5.9746785, 8.7565212 ], [ 5.978745, 8.7500143 ], [ 5.9998908, 8.7516413 ], [ 6.033236, 8.7589607 ], [ 6.0584483, 8.7589607 ], [ 6.0844741, 8.7605877 ], [ 6.1145663, 8.7581472 ], [ 6.1272108, 8.7533305 ], [ 6.1316452, 8.7516413 ], [ 6.1446581, 8.729682 ], [ 6.149538, 8.7207356 ], [ 6.1690574, 8.721549 ], [ 6.1853232, 8.729682 ], [ 6.1927436, 8.7317057 ], [ 6.2032161, 8.7345619 ], [ 6.2085361, 8.7323751 ], [ 6.1836967, 8.6865768 ], [ 6.1698704, 8.6629915 ], [ 6.1625509, 8.6377792 ], [ 6.154418, 8.6174469 ], [ 6.1479115, 8.5963011 ], [ 6.1397786, 8.5808477 ], [ 6.1332722, 8.5678349 ], [ 6.1251392, 8.5556355 ], [ 6.1235123, 8.5385561 ], [ 6.1194458, 8.5109043 ], [ 6.1170058, 8.4832516 ], [ 6.1137528, 8.4612932 ], [ 6.1137528, 8.4450264 ], [ 6.1131248, 8.4414682 ], [ 6.1113129, 8.431201 ], [ 6.097487, 8.4141216 ], [ 6.0826578, 8.4017639 ], [ 6.0816155, 8.4008954 ], [ 6.0779676, 8.3978558 ], [ 6.0600748, 8.3937883 ], [ 6.040556, 8.3929758 ], [ 6.0202231, 8.3978558 ], [ 6.0137167, 8.4002953 ], [ 5.9909444, 8.4019222 ], [ 5.978745, 8.4051752 ], [ 5.9567857, 8.4084282 ], [ 5.9449661, 8.4119046 ], [ 5.9429598, 8.4124947 ], [ 5.9250669, 8.4181881 ], [ 5.9120541, 8.4238806 ], [ 5.8974147, 8.423068 ], [ 5.8835888, 8.423068 ], [ 5.865696, 8.423068 ], [ 5.8494301, 8.4222546 ], [ 5.8290977, 8.426321 ], [ 5.8185248, 8.4271345 ], [ 5.805512, 8.4255075 ], [ 5.7908726, 8.4271345 ], [ 5.7827396, 8.427947 ], [ 5.7664733, 8.432827 ], [ 5.7485809, 8.4377069 ], [ 5.7193022, 8.4434004 ], [ 5.7120571, 8.4446077 ], [ 5.7046623, 8.4458399 ], [ 5.6881766, 8.4528513 ], [ 5.6583042, 8.4596663 ], [ 5.6433915, 8.4628056 ], [ 5.6428518, 8.4629192 ], [ 5.5997467, 8.488945 ], [ 5.5883603, 8.4970779 ], [ 5.5745344, 8.5060244 ], [ 5.5542021, 8.5125303 ], [ 5.5444422, 8.5231037 ], [ 5.5338693, 8.5304232 ], [ 5.5241098, 8.5369301 ], [ 5.5132074, 8.5385227 ], [ 5.514564, 8.5351315 ], [ 5.5104942, 8.5351315 ], [ 5.5030322, 8.5344534 ], [ 5.4962492, 8.529026 ], [ 5.4901438, 8.5181732 ], [ 5.4765773, 8.4998579 ], [ 5.4657235, 8.4923954 ], [ 5.4535136, 8.4862909 ], [ 5.4463787, 8.4797192 ], [ 5.4331117, 8.4664526 ], [ 5.4123821, 8.4523563 ], [ 5.3966274, 8.4382601 ], [ 5.3808727, 8.4208469 ], [ 5.372581, 8.4092388 ], [ 5.359314, 8.3951426 ], [ 5.3477054, 8.3827047 ], [ 5.3419008, 8.3752413 ], [ 5.3307896, 8.3556728 ], [ 5.3274732, 8.3490391 ], [ 5.3228297, 8.3443956 ], [ 5.3215027, 8.3410788 ], [ 5.323493, 8.3370991 ], [ 5.3245049, 8.3337803 ], [ 5.3323302, 8.331172 ], [ 5.3358083, 8.3285637 ], [ 5.3431988, 8.3216076 ], [ 5.3475461, 8.3155212 ], [ 5.3531976, 8.3098698 ], [ 5.3531976, 8.3055229 ], [ 5.3527627, 8.2981319 ], [ 5.3531976, 8.286829 ], [ 5.3566751, 8.2746563 ], [ 5.3627615, 8.2733526 ], [ 5.3723259, 8.2742214 ], [ 5.3810205, 8.2781343 ], [ 5.3875413, 8.2833509 ], [ 5.3971057, 8.2920456 ], [ 5.4044962, 8.2920456 ], [ 5.4184074, 8.2837858 ], [ 5.4214506, 8.2737875 ], [ 5.4197116, 8.2677011 ], [ 5.4218855, 8.2616148 ], [ 5.4223199, 8.2511807 ], [ 5.4188423, 8.2355309 ], [ 5.4223199, 8.2281399 ], [ 5.4318843, 8.2246618 ], [ 5.4330279, 8.2239471 ], [ 5.442318, 8.2181416 ], [ 5.4575334, 8.2064037 ], [ 5.466228, 8.2024908 ], [ 5.4718795, 8.2042294 ], [ 5.4775314, 8.2050991 ], [ 5.4949207, 8.2146635 ], [ 5.5013297, 8.2153043 ], [ 5.5040002, 8.2125429 ], [ 5.5059484, 8.2109105 ], [ 5.5066421, 8.2109359 ], [ 5.5094799, 8.2088744 ], [ 5.510393, 8.2084336 ], [ 5.5102511, 8.2093819 ], [ 5.5139221, 8.2124421 ], [ 5.5153203, 8.211912 ], [ 5.517147, 8.2111584 ], [ 5.5186149, 8.2105876 ], [ 5.521495, 8.2085408 ], [ 5.5236073, 8.2071581 ], [ 5.5269472, 8.2062786 ], [ 5.5300823, 8.2058414 ], [ 5.5315504, 8.2059898 ], [ 5.5337181, 8.205689 ], [ 5.5370898, 8.205534 ], [ 5.5386279, 8.2014321 ], [ 5.5396981, 8.1985779 ], [ 5.5396981, 8.190753 ], [ 5.538394, 8.1785803 ], [ 5.5370898, 8.1633644 ], [ 5.5366549, 8.1564093 ], [ 5.5327425, 8.1468449 ], [ 5.5319812, 8.1459313 ], [ 5.5262213, 8.13902 ], [ 5.5179615, 8.1311941 ], [ 5.5076661, 8.1255487 ], [ 5.5044847, 8.1238041 ], [ 5.4979639, 8.1146746 ], [ 5.4979639, 8.1106644 ], [ 5.4750304, 8.1081543 ], [ 5.4490633, 8.105896 ], [ 5.4212146, 8.1055202 ], [ 5.3982577, 8.1036386 ], [ 5.3873444, 8.1021328 ], [ 5.3711619, 8.096488 ], [ 5.3657533, 8.0919334 ], [ 5.3640113, 8.0904665 ], [ 5.3606243, 8.0829401 ], [ 5.3601894, 8.0808525 ], [ 5.3587427, 8.0739079 ], [ 5.3587427, 8.0633707 ], [ 5.3602481, 8.053586 ], [ 5.3613772, 8.0434246 ], [ 5.3606243, 8.0385323 ], [ 5.35921, 8.036108 ], [ 5.3579898, 8.0340166 ], [ 5.3519688, 8.0257368 ], [ 5.3459473, 8.020092 ], [ 5.3403025, 8.0155754 ], [ 5.3323994, 8.0095549 ], [ 5.3177223, 8.0076733 ], [ 5.3125554, 8.0076733 ], [ 5.2990731, 8.0076733 ], [ 5.2977762, 8.0076733 ], [ 5.2902185, 8.0080778 ], [ 5.2828622, 8.0084715 ], [ 5.2695513, 8.0110598 ], [ 5.2624006, 8.0129414 ], [ 5.2567558, 8.0182104 ], [ 5.2482235, 8.0198227 ], [ 5.2444515, 8.0205355 ], [ 5.2307887, 8.0219736 ], [ 5.2202511, 8.0208445 ], [ 5.20294, 8.0170813 ], [ 5.1957893, 8.0182104 ], [ 5.1916499, 8.0223503 ], [ 5.1882629, 8.0295 ], [ 5.1837268, 8.034303 ], [ 5.1818652, 8.036274 ], [ 5.1769729, 8.038909 ], [ 5.1649299, 8.0471878 ], [ 5.1626115, 8.0495062 ], [ 5.1570268, 8.0524569 ], [ 5.150629, 8.0558434 ], [ 5.1458535, 8.0593165 ], [ 5.1449454, 8.059977 ], [ 5.1423497, 8.0618649 ], [ 5.1276727, 8.062994 ], [ 5.1213904, 8.0627528 ], [ 5.117888, 8.0626183 ], [ 5.1141248, 8.0581017 ], [ 5.1047094, 8.0472382 ], [ 5.1043401, 8.0468121 ], [ 5.0971894, 8.0392847 ], [ 5.0892863, 8.0306292 ], [ 5.0871973, 8.0278969 ], [ 5.084394, 8.0242319 ], [ 5.0792128, 8.0246823 ], [ 5.0757384, 8.0249844 ], [ 5.0723515, 8.0310059 ], [ 5.0618138, 8.0381556 ], [ 5.0614673, 8.0382641 ], [ 5.0576329, 8.039465 ] ] ] } }
]
}
