{
"type": "FeatureCollection",
"name": "Kwara_micro_catchments",
"crs": { "type": "name", "properties": { "name": "urn:ogc:def:crs:OGC:1.3:CRS84" } },
"features": [
{ "type": "Feature", "properties": { "Stra_Catch": "Gurara-Gbako (Abuja)", "State": "Kogi", "LGA": "Yagba- West", "Population": 28000, "Cleard_TOR": "Cleared", "Status": "On-going", "Start_Date": "2025-03-21T00:00:00", "End_Date": "1899-12-30T00:00:00", "Micr_Catch": "Egbe", "Size_Ha": 35517.187133699998, "Comments": null, "OBJECTID_1": 0, "Shape_Leng": 0.0, "Shape_Area": 0.0, "parent_strategic_name": "Oshin-Oyi", "clipped_to_state": true }, "geometry": { "type": "MultiPolygon", "coordinates": [ [ [ [ 5.418842299804449, 8.23553090002858, 0.0 ], [ 5.422319899915029, 8.251180700826261, 0.0 ], [ 5.421885499487753, 8.261614800680073, 0.0 ], [ 5.419711599782351, 8.26770110022308, 0.0 ], [ 5.421450599895134, 8.273787500344534, 0.0 ], [ 5.4214506, 8.2737875, 0.0 ], [ 5.4197116, 8.2677011, 0.0 ], [ 5.4218855, 8.2616148, 0.0 ], [ 5.4223199, 8.2511807, 0.0 ], [ 5.4188423, 8.2355309, 0.0 ], [ 5.422319899998265, 8.228139900003686, 0.0 ], [ 5.422319899915169, 8.228139900033904, 0.0 ], [ 5.418842299804449, 8.23553090002858, 0.0 ] ] ], [ [ [ 5.4184074, 8.2837858, 0.0 ], [ 5.420981400477629, 8.275329034432348, 0.0 ], [ 5.418407399423903, 8.283785800342059, 0.0 ], [ 5.4184074, 8.2837858, 0.0 ] ] ], [ [ [ 5.362729592328329, 8.273359434587205, 0.0 ], [ 5.362761499787713, 8.273352600045472, 0.0 ], [ 5.362761499723781, 8.273352600039665, 0.0 ], [ 5.362729592328329, 8.273359434587205, 0.0 ] ] ] ] } },
{ "type": "Feature", "properties": { "Stra_Catch": "Oshin-Oyi", "State": "Kwara", "LGA": "Ilorin South_East_West and Asadam", "Population": 1361100, "Cleard_TOR": "YES", "Status": "Completed", "Start_Date": "2024-04-10T00:00:00", "End_Date": "2025-03-29T00:00:00", "Micr_Catch": "Asadam", "Size_Ha": 178242.72321699999, "Comments": null, "OBJECTID_1": 0, "Shape_Leng": 0.0, "Shape_Area": 0.0, "parent_strategic_name": "Oshin-Oyi", "clipped_to_state": true }, "geometry": { "type": "Polygon", "coordinates": [ [ [ 4.864242214798095, 8.691313341129543, 0.0 ], [ 4.858689032466493, 8.685787964034954, 0.0 ], [ 4.857980007865085, 8.67674221507281, 0.0 ], [ 4.850353326141782, 8.669091118551819, 0.0 ], [ 4.850000000496644, 8.65833333380783, 0.0 ], [ 4.847839694943688, 8.658950805626681, 0.0 ], [ 4.84382697213608, 8.66188252804762, 0.0 ], [ 4.838499620362005, 8.663117472584624, 0.0 ], [ 4.836882357836141, 8.652006361295847, 0.0 ], [ 4.828631592478645, 8.642498440841557, 0.0 ], [ 4.817372300799652, 8.640859645846971, 0.0 ], [ 4.816049024852025, 8.62283969438734, 0.0 ], [ 4.808036634695349, 8.61360643228187, 0.0 ], [ 4.804166666672145, 8.612499999965779, 0.0 ], [ 4.803813341026777, 8.614924452592142, 0.0 ], [ 4.798290168172508, 8.62047526071534, 0.0 ], [ 4.793408881931949, 8.621186658627963, 0.0 ], [ 4.789583333223181, 8.624985420131507, 0.0 ], [ 4.785757786313209, 8.621186659527142, 0.0 ], [ 4.77083333371739, 8.620833333881412, 0.0 ], [ 4.755908881121679, 8.621186659526579, 0.0 ], [ 4.748257785502876, 8.628813340353082, 0.0 ], [ 4.744120449934914, 8.629519992543216, 0.0 ], [ 4.739924452489341, 8.625353325585039, 0.0 ], [ 4.735075548137799, 8.624646674294043, 0.0 ], [ 4.73159111947581, 8.621186658626776, 0.0 ], [ 4.729166666850416, 8.620833332981279, 0.0 ], [ 4.728561571502293, 8.597827147993808, 0.0 ], [ 4.721438429186224, 8.589672851110395, 0.0 ], [ 4.720228237590395, 8.556160482009853, 0.0 ], [ 4.716061571533391, 8.550540499833343, 0.0 ], [ 4.717271762230983, 8.535327148118581, 0.0 ], [ 4.721438429187552, 8.529707166841508, 0.0 ], [ 4.720003594138701, 8.521549479514132, 0.0 ], [ 4.712499999926303, 8.520833333180871, 0.0 ], [ 4.712853325571846, 8.510075547537584, 0.0 ], [ 4.716652086174714, 8.506249999726888, 0.0 ], [ 4.71214667428143, 8.501713053103993, 0.0 ], [ 4.712853325572127, 8.49757554756256, 0.0 ], [ 4.717019992528651, 8.493379720087225, 0.0 ], [ 4.716313341238358, 8.47674221457074, 0.0 ], [ 4.712514580635721, 8.472916666759888, 0.0 ], [ 4.716313341238529, 8.469091118949194, 0.0 ], [ 4.716666666884069, 8.458333333305902, 0.0 ], [ 4.709232923914316, 8.457672119361925, 0.0 ], [ 4.707766046020986, 8.451956176825128, 0.0 ], [ 4.69907074038101, 8.442369588174849, 0.0 ], [ 4.689456177423458, 8.441099378522159, 0.0 ], [ 4.685543823453279, 8.43806728816342, 0.0 ], [ 4.676956177454019, 8.436932712463115, 0.0 ], [ 4.673043823483819, 8.433900621205053, 0.0 ], [ 4.67083333396237, 8.433333333354948, 0.0 ], [ 4.670833333962467, 8.429166666396796, 0.0 ], [ 4.667517598331238, 8.428315904143856, 0.0 ], [ 4.666099379156568, 8.422789509916159, 0.0 ], [ 4.65473395488707, 8.410543822927041, 0.0 ], [ 4.653599379187575, 8.406122842982764, 0.0 ], [ 4.650567287931021, 8.402210489910024, 0.0 ], [ 4.649189080493503, 8.396840074097973, 0.0 ], [ 4.645086670097496, 8.395266045579303, 0.0 ], [ 4.639710490532815, 8.399432712537273, 0.0 ], [ 4.635289510590589, 8.400567288237292, 0.0 ], [ 4.627210490563481, 8.407766045553855, 0.0 ], [ 4.625000000142696, 8.408333333403862, 0.0 ], [ 4.620568677997022, 8.407196045348398, 0.0 ], [ 4.624531215936034, 8.40208333296671, 0.0 ], [ 4.621400621935953, 8.398043822951252, 0.0 ], [ 4.619982401861961, 8.392517428723496, 0.0 ], [ 4.614456176709482, 8.391099378620439, 0.0 ], [ 4.609301080181607, 8.38710394977438, 0.0 ], [ 4.608333333218209, 8.383333333453484, 0.0 ], [ 4.607980007573215, 8.372575547810179, 0.0 ], [ 4.596186659794559, 8.360757785230252, 0.0 ], [ 4.595480007604764, 8.355908880876761, 0.0 ], [ 4.592019992838695, 8.352424452213224, 0.0 ], [ 4.591313341548282, 8.347575547859792, 0.0 ], [ 4.587853325882906, 8.344091118296932, 0.0 ], [ 4.587146674592608, 8.335075547884669, 0.0 ], [ 4.583686659826563, 8.331591118321809, 0.0 ], [ 4.582980007636894, 8.322575547909542, 0.0 ], [ 4.575353325915004, 8.314924452287809, 0.0 ], [ 4.575000000270722, 8.279166666694527, 0.0 ], [ 4.575000000271637, 8.245833333727621, 0.0 ], [ 4.575688002321288, 8.23414272719139, 0.0 ], [ 4.588117642031049, 8.232333713017018, 0.0 ], [ 4.58663601345766, 8.225944349138947, 0.0 ], [ 4.583333333284869, 8.224999999836623, 0.0 ], [ 4.576956176807554, 8.224432711986404, 0.0 ], [ 4.568877156781159, 8.217233954669398, 0.0 ], [ 4.564456176839241, 8.216099378969165, 0.0 ], [ 4.552210489857157, 8.20473395469395, 0.0 ], [ 4.536753337339993, 8.203599378993482, 0.0 ], [ 4.531377156876426, 8.207766045052109, 0.0 ], [ 4.52842000342815, 8.208900620752148, 0.0 ], [ 4.522907850867556, 8.204628499290736, 0.0 ], [ 4.514710489952418, 8.211932712009746, 0.0 ], [ 4.510289510010614, 8.213067287709745, 0.0 ], [ 4.506377156940115, 8.216099378967609, 0.0 ], [ 4.501956176998281, 8.217233954667604, 0.0 ], [ 4.493877156971973, 8.224432711984178, 0.0 ], [ 4.488350931819959, 8.225850762086942, 0.0 ], [ 4.48664906827056, 8.232482571497345, 0.0 ], [ 4.481122844017897, 8.233900621600114, 0.0 ], [ 4.473043823991707, 8.241099378916678, 0.0 ], [ 4.468622844049981, 8.24223395461661, 0.0 ], [ 4.46471049008028, 8.245266045874523, 0.0 ], [ 4.460289510138638, 8.24640062157451, 0.0 ], [ 4.452092150123184, 8.253704834293496, 0.0 ], [ 4.448043824056378, 8.25056728763291, 0.0 ], [ 4.440981711831902, 8.250187325801338, 0.0 ], [ 4.4406323, 8.2505588, 0.0 ], [ 4.440625, 8.2539642, 0.0 ], [ 4.4179783, 8.2733765, 0.0 ], [ 4.4023304, 8.2916379, 0.0 ], [ 4.3917351, 8.3040028, 0.0 ], [ 4.3871422, 8.3131885, 0.0 ], [ 4.3595058, 8.3684633, 0.0 ], [ 4.3538814, 8.3797101, 0.0 ], [ 4.3481388, 8.3911953, 0.0 ], [ 4.341453905317697, 8.405101885109586, 0.0 ], [ 4.341313341294528, 8.414213053268572, 0.0 ], [ 4.345480008249627, 8.418408881643522, 0.0 ], [ 4.346186659539844, 8.423257785097642, 0.0 ], [ 4.349646674305204, 8.426742214660536, 0.0 ], [ 4.350353326494606, 8.435046386260776, 0.0 ], [ 4.346186659539203, 8.439242214635421, 0.0 ], [ 4.345833333893736, 8.445833333320547, 0.0 ], [ 4.346186659538844, 8.448257785047668, 0.0 ], [ 4.353813341259296, 8.455908881568801, 0.0 ], [ 4.354519992549356, 8.464924451981071, 0.0 ], [ 4.358319431239819, 8.468750677880816, 0.0 ], [ 4.350353326492948, 8.476742214560552, 0.0 ], [ 4.349646674302688, 8.489924451930859, 0.0 ], [ 4.342019992581636, 8.497575547552115, 0.0 ], [ 4.341666666936333, 8.500000000178526, 0.0 ], [ 4.342019992581441, 8.502424451905586, 0.0 ], [ 4.34548000824612, 8.505908881468484, 0.0 ], [ 4.345833333891062, 8.512500000153635, 0.0 ], [ 4.345480008245758, 8.514924451880725, 0.0 ], [ 4.342019992580793, 8.518408881443365, 0.0 ], [ 4.341313341289651, 8.535046386959735, 0.0 ], [ 4.345480008244778, 8.539242214435369, 0.0 ], [ 4.346186659535027, 8.543382432332134, 0.0 ], [ 4.337853326523531, 8.551742214410096, 0.0 ], [ 4.337500000878168, 8.554166667036451, 0.0 ], [ 4.329905871018206, 8.554941474347634, 0.0 ], [ 4.328523933192242, 8.572968207594702, 0.0 ], [ 4.325642734685611, 8.577031792461154, 0.0 ], [ 4.324202134982296, 8.586485799457886, 0.0 ], [ 4.317630852648009, 8.588464355623081, 0.0 ], [ 4.315702481351848, 8.59486897739885, 0.0 ], [ 4.310364956448718, 8.596476236766156, 0.0 ], [ 4.302135044573347, 8.603523763188059, 0.0 ], [ 4.29967820916047, 8.604809570681969, 0.0 ], [ 4.293801710663304, 8.600642903723648, 0.0 ], [ 4.275000000146671, 8.599999999975813, 0.0 ], [ 4.270833334090951, 8.599999999975639, 0.0 ], [ 4.270480008445658, 8.602424451702726, 0.0 ], [ 4.264952935233731, 8.607979329258024, 0.0 ], [ 4.250000000215159, 8.608333332991675, 0.0 ], [ 4.250353325859637, 8.623257785593061, 0.0 ], [ 4.257980008478751, 8.630908881214927, 0.0 ], [ 4.258333334123878, 8.633333332941987, 0.0 ], [ 4.278250970198956, 8.633931816476046, 0.0 ], [ 4.279733954949531, 8.639710490322791, 0.0 ], [ 4.282766046205099, 8.643622843395583, 0.0 ], [ 4.28390062190419, 8.648043823339878, 0.0 ], [ 4.295266046170286, 8.660289510329191, 0.0 ], [ 4.296400621869211, 8.668877156332256, 0.0 ], [ 4.29943271222552, 8.672789510304312, 0.0 ], [ 4.300567287924633, 8.677210490248608, 0.0 ], [ 4.303599379180275, 8.681122843321397, 0.0 ], [ 4.304798550483377, 8.699006144594755, 0.0 ], [ 4.314456177474044, 8.707766045843544, 0.0 ], [ 4.316666666994968, 8.708333333693691, 0.0 ], [ 4.3206220841011, 8.70714246942689, 0.0 ], [ 4.332690599243175, 8.693801540386705, 0.0 ], [ 4.333976067692211, 8.685365126177624, 0.0 ], [ 4.341023933154374, 8.677134874353237, 0.0 ], [ 4.342309401603472, 8.66869845924484, 0.0 ], [ 4.34519060011016, 8.664634874378441, 0.0 ], [ 4.346607971224596, 8.650739203929673, 0.0 ], [ 4.365916612492525, 8.649259100606256, 0.0 ], [ 4.370190600044415, 8.643801540488106, 0.0 ], [ 4.371752252092413, 8.633552720760957, 0.0 ], [ 4.377031623235172, 8.629809570634857, 0.0 ], [ 4.387500000742008, 8.629166666888219, 0.0 ], [ 4.394091119423017, 8.628813341243001, 0.0 ], [ 4.39757554808439, 8.625353325575928, 0.0 ], [ 4.400000000709243, 8.624999999930564, 0.0 ], [ 4.435543824076055, 8.62443271208169, 0.0 ], [ 4.443622844102245, 8.617233954765148, 0.0 ], [ 4.449291484094675, 8.615779283369385, 0.0 ], [ 4.450704278559106, 8.605086263302633, 0.0 ], [ 4.457483249428114, 8.599432712132417, 0.0 ], [ 4.464710490068486, 8.600567287832705, 0.0 ], [ 4.468622844038062, 8.603599379090856, 0.0 ], [ 4.473043823979792, 8.604733954791111, 0.0 ], [ 4.476956177050076, 8.607766045149885, 0.0 ], [ 4.495833333495002, 8.608333333000511, 0.0 ], [ 4.496684265719173, 8.611649237705763, 0.0 ], [ 4.502210489971917, 8.613067287808848, 0.0 ], [ 4.506122843941672, 8.616099379066993, 0.0 ], [ 4.517413330402246, 8.617233954767384, 0.0 ], [ 4.522916666909197, 8.612968614194545, 0.0 ], [ 4.526956176922332, 8.61609937906759, 0.0 ], [ 4.532482402074522, 8.61751742917067, 0.0 ], [ 4.534184265623606, 8.624149237681856, 0.0 ], [ 4.539710489876507, 8.625567287784932, 0.0 ], [ 4.543622843846317, 8.628599379043015, 0.0 ], [ 4.560543823756883, 8.629733954743591, 0.0 ], [ 4.564456176827435, 8.632766045102352, 0.0 ], [ 4.569982401979781, 8.634184095205478, 0.0 ], [ 4.570833333304689, 8.637499999910727, 0.0 ], [ 4.57500000026071, 8.637499999910835, 0.0 ], [ 4.575000000260593, 8.641666666868931, 0.0 ], [ 4.57742445198643, 8.642019992514443, 0.0 ], [ 4.587144470345568, 8.651713731789346, 0.0 ], [ 4.587853325874209, 8.660757785529427, 0.0 ], [ 4.593375481594303, 8.666307576519632, 0.0 ], [ 4.597546217083287, 8.667019992464999, 0.0 ], [ 4.601742214528757, 8.662853325506951, 0.0 ], [ 4.605881076245874, 8.662146674216158, 0.0 ], [ 4.612141927000398, 8.668376329290798, 0.0 ], [ 4.612500000166688, 8.670833332878695, 0.0 ], [ 4.627210490556668, 8.671400621628377, 0.0 ], [ 4.631122843627411, 8.674432711987183, 0.0 ], [ 4.638488091531863, 8.675567287687478, 0.0 ], [ 4.652071974216129, 8.662959798043882, 0.0 ], [ 4.656122843566364, 8.666099378970843, 0.0 ], [ 4.671579996984464, 8.667233954671312, 0.0 ], [ 4.676956177448628, 8.663067287713337, 0.0 ], [ 4.681377156491696, 8.661932712013312, 0.0 ], [ 4.68528951046204, 8.658900620755425, 0.0 ], [ 4.694618394778674, 8.657766045055508, 0.0 ], [ 4.695833333896196, 8.662499999863689, 0.0 ], [ 4.699999999953234, 8.66249999986378, 0.0 ], [ 4.708333333866038, 8.662499999863957, 0.0 ], [ 4.709232923909602, 8.666005451978922, 0.0 ], [ 4.723043823357413, 8.667233953773097, 0.0 ], [ 4.73241356747191, 8.67558288553106, 0.0 ], [ 4.734184265130593, 8.682482570603517, 0.0 ], [ 4.739710489384226, 8.68390062160587, 0.0 ], [ 4.747789510311013, 8.691099378922841, 0.0 ], [ 4.754913330716207, 8.692233954623099, 0.0 ], [ 4.761362881719816, 8.687235514597246, 0.0 ], [ 4.763067288551945, 8.693877156295638, 0.0 ], [ 4.770266045865872, 8.701956176326544, 0.0 ], [ 4.770833332816299, 8.704166666748371, 0.0 ], [ 4.783333332786686, 8.704166666748606, 0.0 ], [ 4.814710490105361, 8.704733954599179, 0.0 ], [ 4.818622844075872, 8.707766045857282, 0.0 ], [ 4.824149068329767, 8.709184095960303, 0.0 ], [ 4.825890604571925, 8.715970526709501, 0.0 ], [ 4.847789510074203, 8.736932711866608, 0.0 ], [ 4.852210490016967, 8.738067287566745, 0.0 ], [ 4.856250000030904, 8.741198052439744, 0.0 ], [ 4.860289510944341, 8.738067288466199, 0.0 ], [ 4.862500000466125, 8.737500000616176, 0.0 ], [ 4.869933743436581, 8.736838785773147, 0.0 ], [ 4.871400621330282, 8.731122843236465, 0.0 ], [ 4.875567288287131, 8.725746663669467, 0.0 ], [ 4.874432711688164, 8.722789509320261, 0.0 ], [ 4.871400622229812, 8.718877157146915, 0.0 ], [ 4.870266045630817, 8.714456176303322, 0.0 ], [ 4.867233955273214, 8.7105438232306, 0.0 ], [ 4.866666666524348, 8.69166666677503, 0.0 ], [ 4.864242214798095, 8.691313341129543, 0.0 ] ] ] } },
{ "type": "Feature", "properties": { "Stra_Catch": "Oshin-Oyi", "State": "Kwara", "LGA": "Patigi and Edu", "Population": 469100, "Cleard_TOR": "YES", "Status": "Completed", "Start_Date": "2024-04-10T00:00:00", "End_Date": "2025-03-29T00:00:00", "Micr_Catch": "Lata", "Size_Ha": 197306.217745, "Comments": null, "OBJECTID_1": 0, "Shape_Leng": 0.0, "Shape_Area": 0.0, "parent_strategic_name": "Oshin-Oyi", "clipped_to_state": true }, "geometry": { "type": "MultiPolygon", "coordinates": [ [ [ [ 5.168877156263394, 9.074432712095389, 0.0 ], [ 5.172789510234593, 9.07140062083745, 0.0 ], [ 5.178315904461252, 9.069982570734579, 0.0 ], [ 5.17973395456396, 9.064456176506864, 0.0 ], [ 5.186932711879461, 9.056377156476159, 0.0 ], [ 5.188067287579407, 9.051956176531911, 0.0 ], [ 5.191099378836842, 9.04804382345932, 0.0 ], [ 5.192233954536791, 9.043622843515079, 0.0 ], [ 5.199432711852313, 9.035543823484367, 0.0 ], [ 5.200887383248041, 9.02987501351681, 0.0 ], [ 5.210543823139047, 9.028599379153873, 0.0 ], [ 5.22695617708315, 9.013067287920954, 0.0 ], [ 5.229166666605197, 9.012500000070913, 0.0 ], [ 5.231591119231132, 9.012146674425486, 0.0 ], [ 5.2357869467059, 9.00798000746742, 0.0 ], [ 5.248257785262009, 9.008686658758426, 0.0 ], [ 5.252453613636042, 9.012853325716618, 0.0 ], [ 5.26075778523484, 9.012146674425733, 0.0 ], [ 5.264242214797047, 9.008686658758556, 0.0 ], [ 5.283333333454019, 9.00833333311326, 0.0 ], [ 5.287500000411484, 9.008333333113292, 0.0 ], [ 5.287146674766057, 9.00590888138624, 0.0 ], [ 5.282980007808685, 9.001713053011406, 0.0 ], [ 5.283686659099589, 8.993408881411183, 0.0 ], [ 5.287485419703291, 8.989583333600434, 0.0 ], [ 5.283686659099656, 8.985757785789627, 0.0 ], [ 5.282980007808894, 8.976742214478046, 0.0 ], [ 5.2795199921423, 8.973257785814566, 0.0 ], [ 5.279166666496931, 8.970833333188192, 0.0 ], [ 5.281339518492084, 8.970228406911898, 0.0 ], [ 5.286959499768291, 8.966061740853167, 0.0 ], [ 5.295061577515676, 8.967486571844368, 0.0 ], [ 5.296609496916269, 8.978376600096595, 0.0 ], [ 5.301993815346898, 8.982728406887031, 0.0 ], [ 5.306339518437948, 8.983938259439743, 0.0 ], [ 5.310327148362465, 8.986895073845247, 0.0 ], [ 5.320833333373248, 8.987500000121637, 0.0 ], [ 5.324149238077958, 8.988350762374528, 0.0 ], [ 5.325000000330668, 8.991666667079764, 0.0 ], [ 5.325000000330657, 8.992997153135748, 0.0 ], [ 5.3320904, 8.9957247, 0.0 ], [ 5.3483706, 8.9984379, 0.0 ], [ 5.3700776, 8.9964027, 0.0 ], [ 5.3755045, 8.9902973, 0.0 ], [ 5.3911061, 8.9828358, 0.0 ], [ 5.4080648, 8.9787664, 0.0 ], [ 5.4250231, 8.9787664, 0.0 ], [ 5.4365549, 8.9753742, 0.0 ], [ 5.4453735, 8.972661, 0.0 ], [ 5.4575834, 8.9685907, 0.0 ], [ 5.4609752, 8.9624863, 0.0 ], [ 5.4664021, 8.9543457, 0.0 ], [ 5.4738636, 8.9475622, 0.0 ], [ 5.4853954, 8.944849, 0.0 ], [ 5.4976058, 8.944171, 0.0 ], [ 5.504077555340611, 8.944171, 0.0 ], [ 5.503813341269884, 8.93924221455441, 0.0 ], [ 5.500014580666047, 8.935416666743611, 0.0 ], [ 5.504519992560745, 8.930879720120828, 0.0 ], [ 5.503813341270087, 8.901742214629371, 0.0 ], [ 5.500353325603307, 8.898257785066578, 0.0 ], [ 5.499999999957912, 8.895833333339526, 0.0 ], [ 5.500358073124407, 8.893376328852318, 0.0 ], [ 5.50661892388137, 8.887146674677176, 0.0 ], [ 5.519091118615951, 8.887853325968134, 0.0 ], [ 5.522916666426279, 8.891652085673186, 0.0 ], [ 5.527453613048602, 8.887146674677279, 0.0 ], [ 5.535757785547233, 8.887853325968212, 0.0 ], [ 5.539242215109611, 8.891313340736113, 0.0 ], [ 5.544091118563241, 8.892019992027089, 0.0 ], [ 5.547575548125624, 8.89548000769425, 0.0 ], [ 5.558333333767732, 8.895833333339803, 0.0 ], [ 5.56249999982613, 8.895833333339825, 0.0 ], [ 5.562146674180672, 8.893408881612713, 0.0 ], [ 5.558686659413228, 8.889924452049922, 0.0 ], [ 5.557980007223072, 8.880908881637717, 0.0 ], [ 5.550353325497938, 8.873257785116754, 0.0 ], [ 5.54999999985254, 8.870833333389701, 0.0 ], [ 5.556591118536987, 8.871186659035178, 0.0 ], [ 5.560075548099378, 8.874646674702397, 0.0 ], [ 5.564924452452346, 8.875353325993375, 0.0 ], [ 5.569120279927321, 8.87951999205217, 0.0 ], [ 5.573257785468347, 8.878813340761232, 0.0 ], [ 5.576742215030781, 8.875353325993427, 0.0 ], [ 5.589924452399815, 8.874646674702529, 0.0 ], [ 5.59340888106294, 8.871186659035338, 0.0 ], [ 5.599999999747499, 8.870833333389918, 0.0 ], [ 5.604125835872511, 8.870833333389934, 0.0 ], [ 5.6054397, 8.8679428, 0.0 ], [ 5.619266, 8.8524904, 0.0 ], [ 5.6420383, 8.8354111, 0.0 ], [ 5.6621524, 8.8312494, 0.0 ], [ 5.6656241, 8.8305311, 0.0 ], [ 5.6824284, 8.828956, 0.0 ], [ 5.6916499, 8.8280916, 0.0 ], [ 5.6934619, 8.8281613, 0.0 ], [ 5.699925205655536, 8.828409952967682, 0.0 ], [ 5.699646673893442, 8.810075547846965, 0.0 ], [ 5.696186659125915, 8.806591118284178, 0.0 ], [ 5.695833333480462, 8.799999999598972, 0.0 ], [ 5.698257786106687, 8.800353326143746, 0.0 ], [ 5.701742214769845, 8.803813340911638, 0.0 ], [ 5.704166666496699, 8.804166666557098, 0.0 ], [ 5.710757785181314, 8.803813340911669, 0.0 ], [ 5.714242214743821, 8.800353326143803, 0.0 ], [ 5.716666666470737, 8.799999999599038, 0.0 ], [ 5.717019992116183, 8.793408880913889, 0.0 ], [ 5.72048000778312, 8.789924451351126, 0.0 ], [ 5.720833333428549, 8.787500000523339, 0.0 ], [ 5.720833333428564, 8.78333333266592, 0.0 ], [ 5.717517428723597, 8.782482571312366, 0.0 ], [ 5.716666666470811, 8.779166666607127, 0.0 ], [ 5.713123575929898, 8.778257581520895, 0.0 ], [ 5.712500000412352, 8.766666666632084, 0.0 ], [ 5.710289509990772, 8.766099378782018, 0.0 ], [ 5.705134412561413, 8.762103949936057, 0.0 ], [ 5.703315904244075, 8.755017428909943, 0.0 ], [ 5.697789510016806, 8.753599378806998, 0.0 ], [ 5.685543823028999, 8.742233954532043, 0.0 ], [ 5.675887383137081, 8.740958319269609, 0.0 ], [ 5.674432712640542, 8.735289510201349, 0.0 ], [ 5.671400621382842, 8.731377156229396, 0.0 ], [ 5.670266045682838, 8.726956176285084, 0.0 ], [ 5.654733954451268, 8.710543823237371, 0.0 ], [ 5.653599378751282, 8.701956176335013, 0.0 ], [ 5.646400621435154, 8.693877157203529, 0.0 ], [ 5.645266045735213, 8.68945617635995, 0.0 ], [ 5.632321166433694, 8.675618150655572, 0.0 ], [ 5.620833333637558, 8.674999999848541, 0.0 ], [ 5.621450805456463, 8.65617302826106, 0.0 ], [ 5.625617472414187, 8.650469292222494, 0.0 ], [ 5.624131266290861, 8.642292615710099, 0.0 ], [ 5.593826972285996, 8.613117472691535, 0.0 ], [ 5.584127468358023, 8.611705864432389, 0.0 ], [ 5.582715860998429, 8.602006361402731, 0.0 ], [ 5.579784139477004, 8.597993638593813, 0.0 ], [ 5.5785491940408, 8.593673027486465, 0.0 ], [ 5.575617472519379, 8.58966030557686, 0.0 ], [ 5.574999999801249, 8.587500000023246, 0.0 ], [ 5.574999999801265, 8.584012914135451, 0.0 ], [ 5.574904906030404, 8.584139580519864, 0.0 ], [ 5.573839146635937, 8.583395562136293, 0.0 ], [ 5.5707816181378, 8.58355946500042, 0.0 ], [ 5.570731043317138, 8.583568598645455, 0.0 ], [ 5.570466463813255, 8.58384824468677, 0.0 ], [ 5.570165459455633, 8.583833396302087, 0.0 ], [ 5.569399368208785, 8.584641893075565, 0.0 ], [ 5.568541709154935, 8.584903556648829, 0.0 ], [ 5.568000645506651, 8.585721988634775, 0.0 ], [ 5.567715527509311, 8.585979757278086, 0.0 ], [ 5.567451480586799, 8.586258875330563, 0.0 ], [ 5.565816082824202, 8.586554337757887, 0.0 ], [ 5.564981880704361, 8.58730983328052, 0.0 ], [ 5.564712468552126, 8.587594191824135, 0.0 ], [ 5.56437625959415, 8.587226564836175, 0.0 ], [ 5.562938626982944, 8.587436077102586, 0.0 ], [ 5.56226608038947, 8.587837955686627, 0.0 ], [ 5.560635844469438, 8.588209096176834, 0.0 ], [ 5.560615298930268, 8.58863058857567, 0.0 ], [ 5.560649221973951, 8.589731905449757, 0.0 ], [ 5.559409323742153, 8.589672150637501, 0.0 ], [ 5.558102415068969, 8.589969448745727, 0.0 ], [ 5.557094241290323, 8.591033402365149, 0.0 ], [ 5.556774947053649, 8.591130800827628, 0.0 ], [ 5.556591118538336, 8.591313341335814, 0.0 ], [ 5.556189458668533, 8.591344823921222, 0.0 ], [ 5.555972511065706, 8.591574134760064, 0.0 ], [ 5.555687382501953, 8.591831889489422, 0.0 ], [ 5.555423324270235, 8.592110994144111, 0.0 ], [ 5.554424656651529, 8.592415796309426, 0.0 ], [ 5.553795783264795, 8.593711162403514, 0.0 ], [ 5.552951132296092, 8.593443290935197, 0.0 ], [ 5.552157668656447, 8.592071170331899, 0.0 ], [ 5.551605101330386, 8.591805914288299, 0.0 ], [ 5.551440112085535, 8.591717083438981, 0.0 ], [ 5.550225245376839, 8.591812306157983, 0.0 ], [ 5.549423135614111, 8.592317547556362, 0.0 ], [ 5.54913921544514, 8.59261763124735, 0.0 ], [ 5.548337420296157, 8.592578696306457, 0.0 ], [ 5.547520694250982, 8.592603643125093, 0.0 ], [ 5.547014629924044, 8.592579120994831, 0.0 ], [ 5.546037469313814, 8.593553163581504, 0.0 ], [ 5.545806354750829, 8.594481804431371, 0.0 ], [ 5.545138247305792, 8.594449516260394, 0.0 ], [ 5.543974884368976, 8.595609167020312, 0.0 ], [ 5.543987461653146, 8.596017233311729, 0.0 ], [ 5.543681801777688, 8.596339864604262, 0.0 ], [ 5.543164424694702, 8.596417040597345, 0.0 ], [ 5.540967627325136, 8.598606828202211, 0.0 ], [ 5.540938212398985, 8.598753150311436, 0.0 ], [ 5.540427138111659, 8.599145592767679, 0.0 ], [ 5.539924452506316, 8.599646674352615, 0.0 ], [ 5.539731715397951, 8.59967959223637, 0.0 ], [ 5.539557100859589, 8.599813674815028, 0.0 ], [ 5.539290566158089, 8.600363621862082, 0.0 ], [ 5.537644684468108, 8.600609105453817, 0.0 ], [ 5.537114929253609, 8.601168318840328, 0.0 ], [ 5.536556485041674, 8.601141067891971, 0.0 ], [ 5.536284241434848, 8.601149195852377, 0.0 ], [ 5.535740139393768, 8.601123131204167, 0.0 ], [ 5.535342235092736, 8.601942771523797, 0.0 ], [ 5.534128058291704, 8.600925545461299, 0.0 ], [ 5.534109192423716, 8.600311659813251, 0.0 ], [ 5.53414970054015, 8.59948192224496, 0.0 ], [ 5.532810285676969, 8.599522753897908, 0.0 ], [ 5.532225234349054, 8.598973600315857, 0.0 ], [ 5.531962433771001, 8.598119967318523, 0.0 ], [ 5.530595921227652, 8.597576462253848, 0.0 ], [ 5.530359664988326, 8.596007193755828, 0.0 ], [ 5.526742214238148, 8.595480007394452, 0.0 ], [ 5.521191406115512, 8.589957004510156, 0.0 ], [ 5.52103582062971, 8.588889417568311, 0.0 ], [ 5.520774666709289, 8.588748767749074, 0.0 ], [ 5.518163740370304, 8.588828329347164, 0.0 ], [ 5.515993016841532, 8.588463746156522, 0.0 ], [ 5.516261655720553, 8.587684762961896, 0.0 ], [ 5.516815267159894, 8.586666048957259, 0.0 ], [ 5.516556785354482, 8.586333051008859, 0.0 ], [ 5.515732139383022, 8.586065294746373, 0.0 ], [ 5.515426011449908, 8.585071076697183, 0.0 ], [ 5.514124651716209, 8.584445597102064, 0.0 ], [ 5.514388904964283, 8.584146427887491, 0.0 ], [ 5.514816343264285, 8.583759853195087, 0.0 ], [ 5.515220651247347, 8.58333333306482, 0.0 ], [ 5.512499999933154, 8.583333333064807, 0.0 ], [ 5.512499999933133, 8.587500000022962, 0.0 ], [ 5.508333332975467, 8.587500000022944, 0.0 ], [ 5.505908881248705, 8.587146674377424, 0.0 ], [ 5.502424451686362, 8.583686658710263, 0.0 ], [ 5.499999999959604, 8.583333333064743, 0.0 ], [ 5.499149237706857, 8.580017429258826, 0.0 ], [ 5.493622843479802, 8.578599379155877, 0.0 ], [ 5.489574517410931, 8.575461832495442, 0.0 ], [ 5.481258816503018, 8.582871500617079, 0.0 ], [ 5.477074517437416, 8.579628499453477, 0.0 ], [ 5.468877156518965, 8.586932712172679, 0.0 ], [ 5.464456176575206, 8.588067287872775, 0.0 ], [ 5.460543823503068, 8.591099379130732, 0.0 ], [ 5.446732924051392, 8.592327880924607, 0.0 ], [ 5.444865587043615, 8.599603949360363, 0.0 ], [ 5.439710489614479, 8.603599379105654, 0.0 ], [ 5.435289510570126, 8.60473395480575, 0.0 ], [ 5.431377156598633, 8.607766045164384, 0.0 ], [ 5.425000000118953, 8.608333333014407, 0.0 ], [ 5.42443271226893, 8.614710489495, 0.0 ], [ 5.421400621011284, 8.618622843466921, 0.0 ], [ 5.420266045311238, 8.631377156428105, 0.0 ], [ 5.417233954952971, 8.635289510400028, 0.0 ], [ 5.416099379252978, 8.639710490344276, 0.0 ], [ 5.413067287995394, 8.643622843416937, 0.0 ], [ 5.411932712295402, 8.648043823361183, 0.0 ], [ 5.404733954979539, 8.656122843391863, 0.0 ], [ 5.403599379279605, 8.660543823336111, 0.0 ], [ 5.400567288021971, 8.66445617640877, 0.0 ], [ 5.399432712321982, 8.66887715635302, 0.0 ], [ 5.396400621064408, 8.672789510324941, 0.0 ], [ 5.394982570961644, 8.67831590455266, 0.0 ], [ 5.3916666671562, 8.679166666805505, 0.0 ], [ 5.391313340611269, 8.702424452423839, 0.0 ], [ 5.387853325843917, 8.705908881087216, 0.0 ], [ 5.38714667455303, 8.710757785440693, 0.0 ], [ 5.383686658886305, 8.714242215003443, 0.0 ], [ 5.383333333240805, 8.729166666705526, 0.0 ], [ 5.382482570988038, 8.732482571410751, 0.0 ], [ 5.379166667182599, 8.733333333663596, 0.0 ], [ 5.375000000225109, 8.73333333366357, 0.0 ], [ 5.374149237972389, 8.730017428958332, 0.0 ], [ 5.370833333267594, 8.729166666705447, 0.0 ], [ 5.367517428562845, 8.730017428958286, 0.0 ], [ 5.36581590405732, 8.73664923746942, 0.0 ], [ 5.360289509830404, 8.738067287572312, 0.0 ], [ 5.352210489800851, 8.745266045788391, 0.0 ], [ 5.347789509857258, 8.746400621488483, 0.0 ], [ 5.342370944343667, 8.750919596059441, 0.0 ], [ 5.341099378513686, 8.760543823135848, 0.0 ], [ 5.336580403943288, 8.765962388650204, 0.0 ], [ 5.326956176868372, 8.767233954480247, 0.0 ], [ 5.314710489881421, 8.778599378755068, 0.0 ], [ 5.31028950993781, 8.779733954455155, 0.0 ], [ 5.306377156865802, 8.782766045713103, 0.0 ], [ 5.297789509964849, 8.783900621413162, 0.0 ], [ 5.293877156892798, 8.78693271177179, 0.0 ], [ 5.283333333455868, 8.787499999621769, 0.0 ], [ 5.275000000440412, 8.787499999621703, 0.0 ], [ 5.272789510018979, 8.786932711771628, 0.0 ], [ 5.264710489989723, 8.779733954454809, 0.0 ], [ 5.260289510046253, 8.778599378754652, 0.0 ], [ 5.255134413516668, 8.774603949908673, 0.0 ], [ 5.253279283007209, 8.76737501314259, 0.0 ], [ 5.243622843116206, 8.766099378779488, 0.0 ], [ 5.239710490044264, 8.76306728752148, 0.0 ], [ 5.235289510100828, 8.761932711821318, 0.0 ], [ 5.227210490071668, 8.754733954504438, 0.0 ], [ 5.222789510128192, 8.75359937880434, 0.0 ], [ 5.218877157056333, 8.750567287546268, 0.0 ], [ 5.21666666663494, 8.749999999696188, 0.0 ], [ 5.216137017211148, 8.764748128519283, 0.0 ], [ 5.213029650000488, 8.768585204739319, 0.0 ], [ 5.211970350253761, 8.773081461536123, 0.0 ], [ 5.208729383357218, 8.777083333125232, 0.0 ], [ 5.212982177487517, 8.782334051870951, 0.0 ], [ 5.211613634164114, 8.786727566519874, 0.0 ], [ 5.206085204771653, 8.788029649944262, 0.0 ], [ 5.202248128552298, 8.791137017155439, 0.0 ], [ 5.197751871756288, 8.792196316002967, 0.0 ], [ 5.192425198070261, 8.796779378061576, 0.0 ], [ 5.191137017265596, 8.802248128444095, 0.0 ], [ 5.1880296500549, 8.806085204664184, 0.0 ], [ 5.186970350308179, 8.810581461460986, 0.0 ], [ 5.17969631614023, 8.81858520463908, 0.0 ], [ 5.178637017292831, 8.823081461435883, 0.0 ], [ 5.175529649182881, 8.826918538555292, 0.0 ], [ 5.17447035033544, 8.835581461410875, 0.0 ], [ 5.158862983152197, 8.851918538505137, 0.0 ], [ 5.157803684304758, 8.860581461360715, 0.0 ], [ 5.153220622246934, 8.865908135047746, 0.0 ], [ 5.149999999813867, 8.866666666428822, 0.0 ], [ 5.149999999813821, 8.870833333386921, 0.0 ], [ 5.14778951029178, 8.87140062123696, 0.0 ], [ 5.143877156320625, 8.874432712494952, 0.0 ], [ 5.13112284336213, 8.875567288194889, 0.0 ], [ 5.125655789102111, 8.880126614446752, 0.0 ], [ 5.124338785925051, 8.894933743292649, 0.0 ], [ 5.118622843389568, 8.89640062118672, 0.0 ], [ 5.113204277876314, 8.90091959665698, 0.0 ], [ 5.111932712046373, 8.910543822834056, 0.0 ], [ 5.108900621688342, 8.914456176805965, 0.0 ], [ 5.107766045988418, 8.918877156750264, 0.0 ], [ 5.104733954731068, 8.92278950982285, 0.0 ], [ 5.104166666881107, 8.925000000244603, 0.0 ], [ 5.093408881240222, 8.924646674599037, 0.0 ], [ 5.089924452577601, 8.9211866589318, 0.0 ], [ 5.083333333893962, 8.920833333286277, 0.0 ], [ 5.082424248807909, 8.924376423827466, 0.0 ], [ 5.060289510485575, 8.925567288094166, 0.0 ], [ 5.052210490456643, 8.932766045410881, 0.0 ], [ 5.050000000035407, 8.933333333260919, 0.0 ], [ 5.050000000035301, 8.941666666277793, 0.0 ], [ 5.050353325680526, 8.952424451921098, 0.0 ], [ 5.053813341346848, 8.955908881483913, 0.0 ], [ 5.054166666992181, 8.958333333210968, 0.0 ], [ 5.053813341346785, 8.960757784938073, 0.0 ], [ 5.050353325680374, 8.964242214500803, 0.0 ], [ 5.049646674389582, 8.969091118854216, 0.0 ], [ 5.03785332570816, 8.980908881433779, 0.0 ], [ 5.037500000062545, 9.000000000093948, 0.0 ], [ 5.039634874586827, 9.000642903840983, 0.0 ], [ 5.048790486526497, 9.008483208727235, 0.0 ], [ 5.050642903781205, 9.014634873694629, 0.0 ], [ 5.057690430201601, 9.022865125519377, 0.0 ], [ 5.058976236795939, 9.027134874569073, 0.0 ], [ 5.071044582870283, 9.040475802710517, 0.0 ], [ 5.077134874502509, 9.042309570724553, 0.0 ], [ 5.085365126325216, 9.049357096247567, 0.0 ], [ 5.103128729628855, 9.050718858683112, 0.0 ], [ 5.104809570626426, 9.05630154057838, 0.0 ], [ 5.108552720751842, 9.06158108169636, 0.0 ], [ 5.118801540476828, 9.063142903716917, 0.0 ], [ 5.12291666638825, 9.066060384474122, 0.0 ], [ 5.127031792299742, 9.063142903717006, 0.0 ], [ 5.133967081530512, 9.061857096223061, 0.0 ], [ 5.143698459229312, 9.070190429240098, 0.0 ], [ 5.161725192472781, 9.071572537038284, 0.0 ], [ 5.162499999784018, 9.079166666903484, 0.0 ], [ 5.166666666741342, 9.079166666903527, 0.0 ], [ 5.166666666741386, 9.074999999945428, 0.0 ], [ 5.168877156263394, 9.074432712095389, 0.0 ] ] ], [ [ [ 5.171244642233557, 9.080341593385237, 0.0 ], [ 5.166666666741342, 9.079166666903527, 0.0 ], [ 5.167881605859193, 9.083900620812377, 0.0 ], [ 5.171244642233557, 9.080341593385237, 0.0 ] ] ] ] } },
{ "type": "Feature", "properties": { "Stra_Catch": "Oshin-Oyi", "State": "Kwara", "LGA": "Irepodun", "Population": 221600, "Cleard_TOR": "NO", "Status": "Pending", "Start_Date": "2024-04-10T00:00:00", "End_Date": "2025-03-29T00:00:00", "Micr_Catch": "Ipetu", "Size_Ha": 41949.218121999998, "Comments": null, "OBJECTID_1": 0, "Shape_Leng": 0.0, "Shape_Area": 0.0, "parent_strategic_name": "Oshin-Oyi", "clipped_to_state": true }, "geometry": { "type": "Polygon", "coordinates": [ [ [ 5.027210489624472, 8.088067287969345, 0.0 ], [ 5.03112284359532, 8.091099379227366, 0.0 ], [ 5.036917114382705, 8.09258626343977, 0.0 ], [ 5.045266045238898, 8.1019561766308, 0.0 ], [ 5.04640062093856, 8.110543823533163, 0.0 ], [ 5.053599379152722, 8.118622843564021, 0.0 ], [ 5.054733954852446, 8.127210489567062, 0.0 ], [ 5.057766045210276, 8.131122843539092, 0.0 ], [ 5.058900620910054, 8.13554382348336, 0.0 ], [ 5.061932712167266, 8.13945617655601, 0.0 ], [ 5.063067287866938, 8.14804382345843, 0.0 ], [ 5.066099379124158, 8.151956176531085, 0.0 ], [ 5.067233954823888, 8.16054382343345, 0.0 ], [ 5.070266045181739, 8.164456176506157, 0.0 ], [ 5.07154168044365, 8.174112616398919, 0.0 ], [ 5.078458319533532, 8.175887383490824, 0.0 ], [ 5.079875013458365, 8.186612616374036, 0.0 ], [ 5.083333333902637, 8.187499999919959, 0.0 ], [ 5.083963691207619, 8.185352579852637, 0.0 ], [ 5.086869642655449, 8.181314086970508, 0.0 ], [ 5.088254123764183, 8.167443508506095, 0.0 ], [ 5.100396389614159, 8.166036308723802, 0.0 ], [ 5.106185912880611, 8.170202975681955, 0.0 ], [ 5.118814086928655, 8.171463691191684, 0.0 ], [ 5.139519246738943, 8.191036309573505, 0.0 ], [ 5.143814086872742, 8.19229702418383, 0.0 ], [ 5.148790487212178, 8.19587809219577, 0.0 ], [ 5.149999999820836, 8.199999999895649, 0.0 ], [ 5.153315904525328, 8.200850762148548, 0.0 ], [ 5.155066256821755, 8.207672118968741, 0.0 ], [ 5.162499999792991, 8.208333332912696, 0.0 ], [ 5.168839518745286, 8.208938259189063, 0.0 ], [ 5.17445950002115, 8.213104926147212, 0.0 ], [ 5.186709255540378, 8.21176317003018, 0.0 ], [ 5.18794386103284, 8.203408474517428, 0.0 ], [ 5.183938259956121, 8.198006184933369, 0.0 ], [ 5.182728407403781, 8.189493814883505, 0.0 ], [ 5.179771592999018, 8.185506184958303, 0.0 ], [ 5.178488159715617, 8.167638142482145, 0.0 ], [ 5.172827148670027, 8.166061740652614, 0.0 ], [ 5.168839518745735, 8.163104926247103, 0.0 ], [ 5.162683444403704, 8.161390855299418, 0.0 ], [ 5.157728407459477, 8.154707166698076, 0.0 ], [ 5.158938260011858, 8.15199381495826, 0.0 ], [ 5.161895073517413, 8.148006185033111, 0.0 ], [ 5.162499999793612, 8.14583333303761, 0.0 ], [ 5.160289510271659, 8.145266045187526, 0.0 ], [ 5.156377156300549, 8.142233954828836, 0.0 ], [ 5.150850762074113, 8.140815904725857, 0.0 ], [ 5.149432711971557, 8.135289510498117, 0.0 ], [ 5.14556884764655, 8.130303955059063, 0.0 ], [ 5.153315904526059, 8.128315904750849, 0.0 ], [ 5.154733954628727, 8.122789510523136, 0.0 ], [ 5.157871500389168, 8.118741183554468, 0.0 ], [ 5.15056728767162, 8.110543823534227, 0.0 ], [ 5.14999999982189, 8.095833333137433, 0.0 ], [ 5.160543823258257, 8.09526604528747, 0.0 ], [ 5.16445617722937, 8.092233954928849, 0.0 ], [ 5.168877156273358, 8.091099379228767, 0.0 ], [ 5.172789510244485, 8.088067287970821, 0.0 ], [ 5.178315904471041, 8.086649237867892, 0.0 ], [ 5.179733954573719, 8.081122843640232, 0.0 ], [ 5.182766045831147, 8.077210489668259, 0.0 ], [ 5.183333333681107, 8.075000000145831, 0.0 ], [ 5.187499999739005, 8.075000000145863, 0.0 ], [ 5.187499999739046, 8.070833333187769, 0.0 ], [ 5.183994547624842, 8.069933743143665, 0.0 ], [ 5.182672118838229, 8.055066257197932, 0.0 ], [ 5.175708347178972, 8.05327928360791, 0.0 ], [ 5.174432711916994, 8.043622843715156, 0.0 ], [ 5.1729322080253, 8.041686719897049, 0.0 ], [ 5.1649299, 8.0471878, 0.0 ], [ 5.1626115, 8.0495062, 0.0 ], [ 5.1570268, 8.0524569, 0.0 ], [ 5.150629, 8.0558434, 0.0 ], [ 5.1458535, 8.0593165, 0.0 ], [ 5.1449454, 8.059977, 0.0 ], [ 5.1423497, 8.0618649, 0.0 ], [ 5.1276727, 8.062994, 0.0 ], [ 5.1213904, 8.0627528, 0.0 ], [ 5.117888, 8.0626183, 0.0 ], [ 5.1141248, 8.0581017, 0.0 ], [ 5.1047094, 8.0472382, 0.0 ], [ 5.1043401, 8.0468121, 0.0 ], [ 5.0971894, 8.0392847, 0.0 ], [ 5.0892863, 8.0306292, 0.0 ], [ 5.0871973, 8.0278969, 0.0 ], [ 5.084394, 8.0242319, 0.0 ], [ 5.0792128, 8.0246823, 0.0 ], [ 5.0757384, 8.0249844, 0.0 ], [ 5.0723515, 8.0310059, 0.0 ], [ 5.066530267532757, 8.034955534718302, 0.0 ], [ 5.066666666975416, 8.037500000219669, 0.0 ], [ 5.070172119089405, 8.038399590263719, 0.0 ], [ 5.070833333033037, 8.045833333236589, 0.0 ], [ 5.074338786046412, 8.046732923280697, 0.0 ], [ 5.074999999989989, 8.054166666253563, 0.0 ], [ 5.062500000018131, 8.05416666625343, 0.0 ], [ 5.056122843539246, 8.0535993784033, 0.0 ], [ 5.05439625651552, 8.052261266077457, 0.0 ], [ 5.0534396, 8.0577631, 0.0 ], [ 5.0496273, 8.0646248, 0.0 ], [ 5.0442905, 8.0699615, 0.0 ], [ 5.0397158, 8.0718679, 0.0 ], [ 5.0370474, 8.0707245, 0.0 ], [ 5.0324726, 8.0680561, 0.0 ], [ 5.0290418, 8.0638628, 0.0 ], [ 5.028666044315918, 8.063657831851568, 0.0 ], [ 5.027316750379978, 8.064103906891907, 0.0 ], [ 5.026691063147092, 8.06344214515646, 0.0 ], [ 5.026247715963706, 8.063616348071587, 0.0 ], [ 5.023043823567098, 8.066099378377901, 0.0 ], [ 5.012500000131295, 8.066666666227835, 0.0 ], [ 5.011932712281421, 8.064456176705388, 0.0 ], [ 5.0113677041388, 8.063727138178711, 0.0 ], [ 5.010663844189513, 8.063076803598927, 0.0 ], [ 5.01036079923787, 8.062438797093874, 0.0 ], [ 5.009815875181218, 8.062444588414824, 0.0 ], [ 5.00875269931024, 8.060793452489682, 0.0 ], [ 5.00820381559315, 8.060257216952689, 0.0 ], [ 5.007945535578739, 8.059437222603103, 0.0 ], [ 5.007139162060697, 8.058649427204632, 0.0 ], [ 5.007130320593858, 8.057820762773622, 0.0 ], [ 5.007697790718433, 8.057003533737056, 0.0 ], [ 5.007974771683087, 8.05591802944503, 0.0 ], [ 5.008226665317417, 8.055442038227119, 0.0 ], [ 5.008126453502704, 8.054683443606484, 0.0 ], [ 5.007450101527461, 8.054023100391147, 0.0 ], [ 5.006923182792479, 8.053465931167787, 0.0 ], [ 5.006374307866627, 8.052929699040124, 0.0 ], [ 5.006111140820157, 8.052094325672712, 0.0 ], [ 5.005567261821751, 8.05156290103535, 0.0 ], [ 5.005603378546477, 8.050368651519063, 0.0 ], [ 5.004166667116901, 8.050000000193929, 0.0 ], [ 5.00331590486423, 8.053315903999886, 0.0 ], [ 4.997789510638043, 8.054733954102749, 0.0 ], [ 4.985543823652518, 8.06609937837745, 0.0 ], [ 4.981122843709527, 8.067233954976835, 0.0 ], [ 4.971536255062103, 8.075929090648691, 0.0 ], [ 4.970266045409856, 8.085543823582254, 0.0 ], [ 4.967233955052039, 8.089456176654835, 0.0 ], [ 4.966099379352075, 8.102210489616006, 0.0 ], [ 4.963067288094944, 8.106122843587903, 0.0 ], [ 4.961932712394802, 8.131377156524099, 0.0 ], [ 4.957373386144164, 8.136844210785187, 0.0 ], [ 4.943622843794659, 8.138067287868294, 0.0 ], [ 4.939710489823872, 8.141099379126278, 0.0 ], [ 4.933333333345236, 8.141666666976249, 0.0 ], [ 4.930908881618935, 8.142019992621664, 0.0 ], [ 4.927424452057195, 8.145480007389494, 0.0 ], [ 4.918408881647767, 8.146186658680266, 0.0 ], [ 4.914924452086046, 8.149646674347416, 0.0 ], [ 4.904166666446191, 8.149999999992712, 0.0 ], [ 4.904784139164096, 8.156326972504489, 0.0 ], [ 4.907715861584154, 8.160339694414118, 0.0 ], [ 4.908950806120657, 8.168826972479577, 0.0 ], [ 4.91193847716383, 8.172916666463827, 0.0 ], [ 4.908894856598097, 8.17708333342188, 0.0 ], [ 4.911882527641272, 8.181173028305395, 0.0 ], [ 4.913309393797585, 8.190978664826334, 0.0 ], [ 4.925000000330146, 8.191666666876181, 0.0 ], [ 4.925000000330082, 8.195833332934958, 0.0 ], [ 4.931326971940555, 8.196450805653246, 0.0 ], [ 4.935339694748182, 8.199382528074317, 0.0 ], [ 4.945298258282, 8.200831773860539, 0.0 ], [ 4.953549194511093, 8.210339694314799, 0.0 ], [ 4.954976060667501, 8.220145331735054, 0.0 ], [ 4.966666667200295, 8.220833332885515, 0.0 ], [ 4.967554049846653, 8.217375013339717, 0.0 ], [ 4.978231472968174, 8.2159644231133, 0.0 ], [ 4.995266045351184, 8.198043823357699, 0.0 ], [ 4.996400621050987, 8.193622843413401, 0.0 ], [ 5.003599379265217, 8.185543823382773, 0.0 ], [ 5.004875013628017, 8.175887383489984, 0.0 ], [ 5.010543823594098, 8.174432712094108, 0.0 ], [ 5.014456176665685, 8.171400620836119, 0.0 ], [ 5.020437283406769, 8.16986558692154, 0.0 ], [ 5.024432712251696, 8.164710489491798, 0.0 ], [ 5.025567287951724, 8.147789510471851, 0.0 ], [ 5.028698052823868, 8.14374999955718, 0.0 ], [ 5.025567287951827, 8.139710489541761, 0.0 ], [ 5.024432712252174, 8.126956176580562, 0.0 ], [ 5.021400620995068, 8.123043823507903, 0.0 ], [ 5.020266045295473, 8.106122843588611, 0.0 ], [ 5.017233954937693, 8.102210489616635, 0.0 ], [ 5.016666667087871, 8.095833333136035, 0.0 ], [ 5.013350762383562, 8.094982570883129, 0.0 ], [ 5.012500000130973, 8.091666667077209, 0.0 ], [ 5.014710489652811, 8.091099379227177, 0.0 ], [ 5.020086670117775, 8.086932712269139, 0.0 ], [ 5.027210489624472, 8.088067287969345, 0.0 ] ] ] } },
{ "type": "Feature", "properties": { "Stra_Catch": "Oshin-Oyi", "State": "Kwara", "LGA": "Isin", "Population": 89300, "Cleard_TOR": "NO", "Status": "Pending", "Start_Date": "2024-04-10T00:00:00", "End_Date": "2025-03-29T00:00:00", "Micr_Catch": "Owu", "Size_Ha": 21873.1087353, "Comments": null, "OBJECTID_1": 0, "Shape_Leng": 0.0, "Shape_Area": 0.0, "parent_strategic_name": "Oshin-Oyi", "clipped_to_state": true }, "geometry": { "type": "Polygon", "coordinates": [ [ [ 5.268408881760153, 8.333686659208478, 0.0 ], [ 5.270833333486828, 8.333333333563049, 0.0 ], [ 5.271186659132232, 8.330908880936679, 0.0 ], [ 5.274985419735877, 8.32708333312593, 0.0 ], [ 5.271186659132295, 8.323257785315072, 0.0 ], [ 5.270480007841575, 8.310075547944709, 0.0 ], [ 5.267019992175086, 8.30659111838191, 0.0 ], [ 5.266666666529769, 8.291666666679884, 0.0 ], [ 5.26600545258612, 8.284232923707018, 0.0 ], [ 5.260289510050471, 8.282766045812838, 0.0 ], [ 5.256377156978539, 8.279733954554834, 0.0 ], [ 5.241666666584509, 8.27916666670466, 0.0 ], [ 5.241073947705551, 8.303249443603285, 0.0 ], [ 5.235289510104906, 8.304733954504673, 0.0 ], [ 5.231377157033008, 8.307766045762676, 0.0 ], [ 5.225850762806336, 8.309184095865554, 0.0 ], [ 5.224432711804315, 8.314710490093214, 0.0 ], [ 5.219913737234149, 8.320129055607564, 0.0 ], [ 5.209220717169384, 8.32154168010049, 0.0 ], [ 5.207766045773674, 8.327210490068103, 0.0 ], [ 5.204733954516266, 8.331122843140699, 0.0 ], [ 5.2041666666663, 8.333333333562509, 0.0 ], [ 5.199999999708981, 8.333333333562473, 0.0 ], [ 5.199260796557338, 8.345123629947537, 0.0 ], [ 5.166420830772372, 8.346488782826729, 0.0 ], [ 5.159648301744834, 8.341757880317516, 0.0 ], [ 5.157677883545135, 8.335377671537895, 0.0 ], [ 5.150655450008237, 8.327122327728752, 0.0 ], [ 5.149344550530142, 8.322877671562789, 0.0 ], [ 5.146488783051138, 8.318788994711836, 0.0 ], [ 5.145177883573045, 8.314544338545879, 0.0 ], [ 5.138652886643486, 8.306591457425254, 0.0 ], [ 5.133087497813165, 8.303511216464862, 0.0 ], [ 5.127122327957749, 8.307677883422899, 0.0 ], [ 5.12499999987525, 8.308333333611719, 0.0 ], [ 5.124646674229586, 8.335757785288829, 0.0 ], [ 5.121186659462458, 8.339242214851566, 0.0 ], [ 5.120833333817063, 8.341666666578613, 0.0 ], [ 5.121494547760717, 8.349100409551481, 0.0 ], [ 5.12721049029611, 8.350567287445671, 0.0 ], [ 5.132629055809232, 8.355086262916036, 0.0 ], [ 5.133900621638952, 8.364710489992461, 0.0 ], [ 5.153599378926193, 8.385289509998399, 0.0 ], [ 5.154733954626023, 8.38971048994272, 0.0 ], [ 5.157766045883308, 8.39362284301537, 0.0 ], [ 5.158900621583141, 8.398043822959634, 0.0 ], [ 5.161932711941111, 8.4019561769316, 0.0 ], [ 5.162499999790986, 8.408333333412202, 0.0 ], [ 5.161600409747128, 8.411838785527141, 0.0 ], [ 5.146732923804596, 8.413161214314036, 0.0 ], [ 5.145266045910725, 8.418877156850726, 0.0 ], [ 5.142135281038489, 8.422916666866087, 0.0 ], [ 5.145364719525516, 8.427083332924896, 0.0 ], [ 5.142233954653282, 8.431122843839573, 0.0 ], [ 5.141666666803279, 8.43750000032016, 0.0 ], [ 5.142593044952855, 8.440740288229131, 0.0 ], [ 5.149886067406275, 8.442825316930321, 0.0 ], [ 5.153549194057417, 8.44783969474163, 0.0 ], [ 5.154784139493515, 8.452160305848929, 0.0 ], [ 5.161882527971763, 8.460339694716737, 0.0 ], [ 5.163117472508488, 8.464660305824035, 0.0 ], [ 5.171248372627616, 8.474029879970658, 0.0 ], [ 5.159305148329764, 8.475768364813742, 0.0 ], [ 5.157715861014279, 8.481326971857793, 0.0 ], [ 5.153549194057012, 8.487030707896333, 0.0 ], [ 5.15585530579412, 8.491939968450271, 0.0 ], [ 5.160339694236946, 8.495215861418448, 0.0 ], [ 5.189660305288156, 8.496450805955746, 0.0 ], [ 5.193673028096284, 8.499382527477529, 0.0 ], [ 5.202160305260646, 8.500617472014635, 0.0 ], [ 5.206173028068734, 8.503549194435736, 0.0 ], [ 5.210493639175221, 8.504784138972864, 0.0 ], [ 5.214506361083999, 8.507715861393905, 0.0 ], [ 5.235493639120399, 8.508950805931168, 0.0 ], [ 5.239506361029211, 8.511882527452947, 0.0 ], [ 5.241666666582477, 8.51250000017111, 0.0 ], [ 5.245833333539803, 8.512500000171148, 0.0 ], [ 5.249149238244432, 8.511649237918306, 0.0 ], [ 5.25096774656167, 8.504562716892213, 0.0 ], [ 5.256122843091236, 8.500567288046314, 0.0 ], [ 5.258333333512658, 8.500000000196273, 0.0 ], [ 5.257482571259972, 8.496684095491034, 0.0 ], [ 5.251956177033263, 8.495266045388005, 0.0 ], [ 5.248043823062068, 8.49223395413, 0.0 ], [ 5.243622843118639, 8.491099378429842, 0.0 ], [ 5.239710490046717, 8.488067288071152, 0.0 ], [ 5.233994547511092, 8.486600409277656, 0.0 ], [ 5.233333333567399, 8.479166666304788, 0.0 ], [ 5.233333333567435, 8.475000000246014, 0.0 ], [ 5.237764485742592, 8.473862711291313, 0.0 ], [ 5.233900621417444, 8.46887715675158, 0.0 ], [ 5.232766045717671, 8.460289509849217, 0.0 ], [ 5.228599378760356, 8.454913330282121, 0.0 ], [ 5.229733954460361, 8.443622843815387, 0.0 ], [ 5.238067288375119, 8.434270561833239, 0.0 ], [ 5.236932712675241, 8.431122843840415, 0.0 ], [ 5.233900621417813, 8.427210489868445, 0.0 ], [ 5.232766045718003, 8.422789509924183, 0.0 ], [ 5.228599378760692, 8.417413330357085, 0.0 ], [ 5.229733954460733, 8.401956176932195, 0.0 ], [ 5.232766045718223, 8.398043822960279, 0.0 ], [ 5.233900621418111, 8.393622843016034, 0.0 ], [ 5.236932712675605, 8.38971048994344, 0.0 ], [ 5.238208347038474, 8.380054050050646, 0.0 ], [ 5.24387715700505, 8.378599378654743, 0.0 ], [ 5.251956177034326, 8.371400621337996, 0.0 ], [ 5.25416666655642, 8.370833333487949, 0.0 ], [ 5.254519992201964, 8.351742214827778, 0.0 ], [ 5.257980007868558, 8.348257785265028, 0.0 ], [ 5.25869106763605, 8.343378363317287, 0.0 ], [ 5.268408881760153, 8.333686659208478, 0.0 ] ] ] } },
{ "type": "Feature", "properties": { "Stra_Catch": "Oshin-Oyi", "State": "Kwara", "LGA": "Ifelodun and Edu", "Population": 610400, "Cleard_TOR": "YES", "Status": "Completed", "Start_Date": "2024-04-10T00:00:00", "End_Date": "2025-03-29T00:00:00", "Micr_Catch": "Share", "Size_Ha": 33061.738407299999, "Comments": null, "OBJECTID_1": 0, "Shape_Leng": 0.0, "Shape_Area": 0.0, "parent_strategic_name": "Oshin-Oyi", "clipped_to_state": true }, "geometry": { "type": "Polygon", "coordinates": [ [ [ 5.153599378922062, 8.781377156126206, 0.0 ], [ 5.154166666772293, 8.754166666653711, 0.0 ], [ 5.147789510293031, 8.754733954503712, 0.0 ], [ 5.143877156321887, 8.757766045761706, 0.0 ], [ 5.135289509421302, 8.75890062146174, 0.0 ], [ 5.131377157248811, 8.761932711820357, 0.0 ], [ 5.125850762122949, 8.763350761923226, 0.0 ], [ 5.124432712020271, 8.768877157050261, 0.0 ], [ 5.10739813963623, 8.786797756805955, 0.0 ], [ 5.097789510403556, 8.788067287470129, 0.0 ], [ 5.093877156432471, 8.791099378728116, 0.0 ], [ 5.083333332996206, 8.791666667477381, 0.0 ], [ 5.083333333895678, 8.779166666603032, 0.0 ], [ 5.080078803424202, 8.778399997256678, 0.0 ], [ 5.07863701661561, 8.774059380730428, 0.0 ], [ 5.082803683572794, 8.768914794576744, 0.0 ], [ 5.083862983319486, 8.764418537779944, 0.0 ], [ 5.086970350530023, 8.760581461559916, 0.0 ], [ 5.088029650276701, 8.757392713797406, 0.0 ], [ 5.083729383633812, 8.75208333317393, 0.0 ], [ 5.086970350530171, 8.748081461584887, 0.0 ], [ 5.088029649377629, 8.736559379906181, 0.0 ], [ 5.083862983319882, 8.731414794651725, 0.0 ], [ 5.082803683573334, 8.724059380830417, 0.0 ], [ 5.086970350530518, 8.718914794676733, 0.0 ], [ 5.08802964937794, 8.710251871821155, 0.0 ], [ 5.099614122420398, 8.697928873713396, 0.0 ], [ 5.096362982393138, 8.693914795626153, 0.0 ], [ 5.095303683545853, 8.690726046964301, 0.0 ], [ 5.099603950188933, 8.68541666634092, 0.0 ], [ 5.096362982393283, 8.681414795651126, 0.0 ], [ 5.095303684445531, 8.660251871921176, 0.0 ], [ 5.092196316335762, 8.65641479480176, 0.0 ], [ 5.091666666912101, 8.654166666853008, 0.0 ], [ 5.089456176490865, 8.653599379002923, 0.0 ], [ 5.085416666476458, 8.650468615029268, 0.0 ], [ 5.081377156461986, 8.653599378103515, 0.0 ], [ 5.075661213926617, 8.655066256896847, 0.0 ], [ 5.074432712132798, 8.668877156350288, 0.0 ], [ 5.070437282388433, 8.674032253780034, 0.0 ], [ 5.064456176546483, 8.675567287694669, 0.0 ], [ 5.058989122286612, 8.68012661394647, 0.0 ], [ 5.058333333952707, 8.687499999819568, 0.0 ], [ 5.058333333053334, 8.691666666777664, 0.0 ], [ 5.056173028399559, 8.692284138596523, 0.0 ], [ 5.047993639533742, 8.699382527975589, 0.0 ], [ 5.043673028427515, 8.700617472512571, 0.0 ], [ 5.029852294890778, 8.713350084832578, 0.0 ], [ 5.028549194333213, 8.735493639214107, 0.0 ], [ 5.02561747281216, 8.739506361123659, 0.0 ], [ 5.024382527376066, 8.743826972230929, 0.0 ], [ 5.020719401624274, 8.748841349142896, 0.0 ], [ 5.014506360626802, 8.75061747151295, 0.0 ], [ 4.99799363964563, 8.766049194808096, 0.0 ], [ 4.988471815675177, 8.767435032094562, 0.0 ], [ 4.986573622028901, 8.774073621493892, 0.0 ], [ 4.981173027668387, 8.775617472361841, 0.0 ], [ 4.977160304860535, 8.778549194782851, 0.0 ], [ 4.967401800911426, 8.779969279152104, 0.0 ], [ 4.966666667192072, 8.787499999618463, 0.0 ], [ 4.96609937844282, 8.789710490040271, 0.0 ], [ 4.961932712385127, 8.795086669607221, 0.0 ], [ 4.963109674031807, 8.82408718496875, 0.0 ], [ 4.966666667191516, 8.825000000442863, 0.0 ], [ 4.966666667191455, 8.829166666501642, 0.0 ], [ 4.967233955041138, 8.843877156898433, 0.0 ], [ 4.970266046298221, 8.847789509971099, 0.0 ], [ 4.971752930510068, 8.853583780760129, 0.0 ], [ 4.981122843698324, 8.86193271251803, 0.0 ], [ 4.986649237924543, 8.863350762621026, 0.0 ], [ 4.988067288027012, 8.868877156848772, 0.0 ], [ 4.991099379284124, 8.872789509921432, 0.0 ], [ 4.99223395498382, 8.881377156823799, 0.0 ], [ 4.995266046240995, 8.885289510795834, 0.0 ], [ 4.996400621041317, 8.893877155899565, 0.0 ], [ 4.999432712298499, 8.89778951077086, 0.0 ], [ 5.000567287998261, 8.902210489815866, 0.0 ], [ 5.003599379255391, 8.906122842888525, 0.0 ], [ 5.004733954955096, 8.914710490690211, 0.0 ], [ 5.011932713169258, 8.922789509821762, 0.0 ], [ 5.013413492783068, 8.928559027670707, 0.0 ], [ 5.043877157441826, 8.929733954152752, 0.0 ], [ 5.047789509614135, 8.93276604541083, 0.0 ], [ 5.050000000035407, 8.933333333260919, 0.0 ], [ 5.052210490456643, 8.932766045410881, 0.0 ], [ 5.060289510485575, 8.925567288094166, 0.0 ], [ 5.082424248807908, 8.924376424726786, 0.0 ], [ 5.083333332994643, 8.920833333286279, 0.0 ], [ 5.083900621744123, 8.901956176830717, 0.0 ], [ 5.095266045117266, 8.889710489841972, 0.0 ], [ 5.096400620817175, 8.881122843838893, 0.0 ], [ 5.099432712074571, 8.877210489866989, 0.0 ], [ 5.100919596286645, 8.871416219078055, 0.0 ], [ 5.110289509475585, 8.863067288219698, 0.0 ], [ 5.115815904601371, 8.86164923721751, 0.0 ], [ 5.116666666854147, 8.858333332512233, 0.0 ], [ 5.116666666854194, 8.85416666735277, 0.0 ], [ 5.117233954704345, 8.835289509997892, 0.0 ], [ 5.120266045961702, 8.83137715602593, 0.0 ], [ 5.121752929274463, 8.825582886136312, 0.0 ], [ 5.131122843362778, 8.817233954378633, 0.0 ], [ 5.136649238488657, 8.815815904275764, 0.0 ], [ 5.138067288591339, 8.810289510048049, 0.0 ], [ 5.14943271196466, 8.79804382305929, 0.0 ], [ 5.150567287664622, 8.785289510098172, 0.0 ], [ 5.153599378922062, 8.781377156126206, 0.0 ] ] ] } },
{ "type": "Feature", "properties": { "Stra_Catch": "Oshin-Oyi", "State": "Kwara", "LGA": "Kaiama", "Population": 186200, "Cleard_TOR": "NO", "Status": "Pending", "Start_Date": "2024-04-10T00:00:00", "End_Date": "2025-03-29T00:00:00", "Micr_Catch": "Kaiama", "Size_Ha": 53263.986328200001, "Comments": null, "OBJECTID_1": 0, "Shape_Leng": 0.0, "Shape_Area": 0.0, "parent_strategic_name": "Oshin-Oyi", "clipped_to_state": true }, "geometry": { "type": "Polygon", "coordinates": [ [ [ 4.04548000811153, 9.810075547609433, 0.0 ], [ 4.037853326392838, 9.802424451987408, 0.0 ], [ 4.037146675102908, 9.797575547633896, 0.0 ], [ 4.032980008148773, 9.793379550186325, 0.0 ], [ 4.033686659439674, 9.785075547658671, 0.0 ], [ 4.037146675104019, 9.781591118995447, 0.0 ], [ 4.037853326395491, 9.764242214667085, 0.0 ], [ 4.046186659405581, 9.755882263516847, 0.0 ], [ 4.045480008115537, 9.75174221469257, 0.0 ], [ 4.042019993350973, 9.748257785129585, 0.0 ], [ 4.041666667706294, 9.741666666444427, 0.0 ], [ 4.043814256844374, 9.741036478211964, 0.0 ], [ 4.056242540372594, 9.72974531365719, 0.0 ], [ 4.06210378097092, 9.733963521661407, 0.0 ], [ 4.074295383620851, 9.73255072719726, 0.0 ], [ 4.075000000645454, 9.720833333454657, 0.0 ], [ 4.075000000645726, 9.716666666496508, 0.0 ], [ 4.077456835158971, 9.716308593330131, 0.0 ], [ 4.082980008010718, 9.710757785207177, 0.0 ], [ 4.083686659301925, 9.697575547836891, 0.0 ], [ 4.095480007976787, 9.685757785257973, 0.0 ], [ 4.095833333622357, 9.679166666572801, 0.0 ], [ 4.095480007977359, 9.676742214845733, 0.0 ], [ 4.092019993212615, 9.673257785282765, 0.0 ], [ 4.091313341923422, 9.655908880954309, 0.0 ], [ 4.087853326259384, 9.652424452290653, 0.0 ], [ 4.087144301658765, 9.643378872401009, 0.0 ], [ 4.081591119330347, 9.637853325334362, 0.0 ], [ 4.076742214981149, 9.637146674043176, 0.0 ], [ 4.056591119403552, 9.617019992340982, 0.0 ], [ 4.054166667678683, 9.616666666695386, 0.0 ], [ 4.05381334113439, 9.614242214968259, 0.0 ], [ 4.042019993360976, 9.602424452387897, 0.0 ], [ 4.041313341171732, 9.597575548034387, 0.0 ], [ 4.037853326407236, 9.5940911184714, 0.0 ], [ 4.037146675117315, 9.589242215017267, 0.0 ], [ 4.03368665945352, 9.58575778545428, 0.0 ], [ 4.033333333808565, 9.583333333727216, 0.0 ], [ 4.030017599078267, 9.582482401502256, 0.0 ], [ 4.028599379005148, 9.576956176347013, 0.0 ], [ 4.01723395564105, 9.564710490256752, 0.0 ], [ 4.015757412734679, 9.558956909293716, 0.0 ], [ 3.993622844400243, 9.557766045025229, 0.0 ], [ 3.989710490432256, 9.554733954666315, 0.0 ], [ 3.972789510529717, 9.553599378965034, 0.0 ], [ 3.967257182580975, 9.5489856293398, 0.0 ], [ 3.966666667043543, 9.524999999906589, 0.0 ], [ 3.959232924078213, 9.524338785962238, 0.0 ], [ 3.958333334035322, 9.520833332947916, 0.0 ], [ 3.950000001026928, 9.520833332947324, 0.0 ], [ 3.943408882348464, 9.521186658592296, 0.0 ], [ 3.931591119780151, 9.532980007275532, 0.0 ], [ 3.926742215431696, 9.533686659465388, 0.0 ], [ 3.923257785872314, 9.537146674233, 0.0 ], [ 3.919120450307066, 9.537853325523589, 0.0 ], [ 3.914924452864555, 9.533686659464506, 0.0 ], [ 3.908333334186433, 9.53333333291924, 0.0 ], [ 3.907445950641215, 9.536791483392408, 0.0 ], [ 3.897789510758748, 9.538067287726573, 0.0 ], [ 3.893877157690138, 9.54109937898424, 0.0 ], [ 3.88945617775063, 9.54223395468401, 0.0 ], [ 3.884301080326178, 9.546229214457023, 0.0 ], [ 3.88333333426228, 9.549999999850376, 0.0 ], [ 3.883333334261925, 9.554166666808461, 0.0 ], [ 3.883686659906776, 9.556591118535534, 0.0 ], [ 3.887146674670549, 9.560075548098565, 0.0 ], [ 3.887853326858227, 9.580879550601249, 0.0 ], [ 3.883347575923146, 9.58541700534064, 0.0 ], [ 3.889209832753914, 9.591308593567314, 0.0 ], [ 3.894091119890236, 9.592019992379663, 0.0 ], [ 3.899641928007008, 9.597543165236237, 0.0 ], [ 3.900000001172996, 9.599999999751587, 0.0 ], [ 3.900353326817515, 9.606591118436738, 0.0 ], [ 3.903813341581391, 9.61007554799977, 0.0 ], [ 3.904166667226258, 9.612499999726838, 0.0 ], [ 3.904166667224873, 9.629166666659913, 0.0 ], [ 3.901956177704692, 9.629733954509803, 0.0 ], [ 3.892586433595712, 9.638082885367506, 0.0 ], [ 3.890779283717025, 9.645124817107101, 0.0 ], [ 3.880054050845406, 9.646541850075947, 0.0 ], [ 3.878599379450567, 9.652210490071555, 0.0 ], [ 3.875567289094854, 9.656122843143923, 0.0 ], [ 3.875000001245227, 9.658333333565681, 0.0 ], [ 3.878458150815329, 9.659220716212584, 0.0 ], [ 3.879733955147949, 9.668877156105401, 0.0 ], [ 3.882766046402329, 9.672789510077573, 0.0 ], [ 3.883900622100958, 9.675746663527519, 0.0 ], [ 3.879635451503971, 9.681250000036938, 0.0 ], [ 3.882766046401254, 9.685289510052561, 0.0 ], [ 3.883900622099883, 9.688246663502513, 0.0 ], [ 3.87973395514581, 9.693622843069221, 0.0 ], [ 3.878599379446348, 9.700988090976949, 0.0 ], [ 3.892312453329442, 9.715763176979397, 0.0 ], [ 3.898043823729589, 9.717233954334327, 0.0 ], [ 3.915964424364482, 9.734268527622588, 0.0 ], [ 3.9172339550267, 9.743877156857542, 0.0 ], [ 3.920266046281211, 9.747789509930382, 0.0 ], [ 3.920833334130503, 9.750000000352175, 0.0 ], [ 3.921186659775389, 9.752424452079303, 0.0 ], [ 3.92464667543874, 9.75590888164233, 0.0 ], [ 3.925353326728573, 9.760757785096471, 0.0 ], [ 3.928813341492569, 9.764242214659495, 0.0 ], [ 3.929519992781734, 9.777424452029864, 0.0 ], [ 3.942019992743059, 9.789950222079039, 0.0 ], [ 3.941313341452542, 9.794091118963824, 0.0 ], [ 3.937514581751077, 9.797916666774306, 0.0 ], [ 3.941313341451929, 9.801742214585351, 0.0 ], [ 3.942021518890626, 9.814953782444936, 0.0 ], [ 3.947575548379465, 9.820480007600493, 0.0 ], [ 3.952424452728089, 9.821186658891797, 0.0 ], [ 3.955908882287161, 9.824646674559242, 0.0 ], [ 3.958333334011807, 9.825000000204868, 0.0 ], [ 3.959548273129129, 9.820266045396812, 0.0 ], [ 3.985543824357684, 9.821400621098716, 0.0 ], [ 3.997789510434879, 9.832766045374441, 0.0 ], [ 4.015687561472483, 9.833966064741043, 0.0 ], [ 4.020266045977391, 9.839456176720438, 0.0 ], [ 4.021684266050523, 9.844982401875678, 0.0 ], [ 4.025000000780816, 9.845833333201323, 0.0 ], [ 4.031618076638421, 9.845478651378636, 0.0 ], [ 4.045480008110045, 9.831591118895933, 0.0 ], [ 4.045833333756499, 9.812500000235818, 0.0 ], [ 4.04548000811153, 9.810075547609433, 0.0 ] ] ] } },
{ "type": "Feature", "properties": { "Stra_Catch": "Oshin-Oyi", "State": "Kwara", "LGA": "Barunteen", "Population": 310300, "Cleard_TOR": "NO", "Status": "Pending", "Start_Date": "2024-04-10T00:00:00", "End_Date": "2025-03-29T00:00:00", "Micr_Catch": "Gidan_Magajia", "Size_Ha": 20250.617389800002, "Comments": null, "OBJECTID_1": 0, "Shape_Leng": 0.0, "Shape_Area": 0.0, "parent_strategic_name": "Oshin-Oyi", "clipped_to_state": true }, "geometry": { "type": "Polygon", "coordinates": [ [ [ 3.437853327572009, 9.156591118390232, 0.0 ], [ 3.43750000193138, 9.129166666713264, 0.0 ], [ 3.436932714082749, 9.126956176291444, 0.0 ], [ 3.433900622831233, 9.123043823218371, 0.0 ], [ 3.432766047133989, 9.118622843273988, 0.0 ], [ 3.429733955882451, 9.114710490200974, 0.0 ], [ 3.42859938018522, 9.110289510256591, 0.0 ], [ 3.425567289833095, 9.106377156284198, 0.0 ], [ 3.42443271323911, 9.085289510306122, 0.0 ], [ 3.420266047189377, 9.07991332983925, 0.0 ], [ 3.421840075705471, 9.075811089413456, 0.0 ], [ 3.428770617403241, 9.074032253789637, 0.0 ], [ 3.433900622839647, 9.06741332986622, 0.0 ], [ 3.432766047142816, 9.060289510357467, 0.0 ], [ 3.428599380193641, 9.054913329890546, 0.0 ], [ 3.429811267012897, 9.038403998450351, 0.0 ], [ 3.433333334995202, 9.037499999930148, 0.0 ], [ 3.432980009350755, 9.035075548203066, 0.0 ], [ 3.429519993690932, 9.031591118639836, 0.0 ], [ 3.42916666804649, 9.029166666912698, 0.0 ], [ 3.425907390958836, 9.030074055877069, 0.0 ], [ 3.424395075719854, 9.035506184966328, 0.0 ], [ 3.417271594369169, 9.043660481848541, 0.0 ], [ 3.416061741817592, 9.05217285189816, 0.0 ], [ 3.411709935034999, 9.057557169429717, 0.0 ], [ 3.400819906804521, 9.059105088829078, 0.0 ], [ 3.399395075814936, 9.067207166577536, 0.0 ], [ 3.403627863618431, 9.072916666371672, 0.0 ], [ 3.4006049274643, 9.076993814812841, 0.0 ], [ 3.399395075812704, 9.081339517904389, 0.0 ], [ 3.395649890527482, 9.086390855153173, 0.0 ], [ 3.391666668187546, 9.087499999823896, 0.0 ], [ 3.385075549515834, 9.087853325468373, 0.0 ], [ 3.381591119959673, 9.091313341135031, 0.0 ], [ 3.372575549565985, 9.092019992424571, 0.0 ], [ 3.369091120009911, 9.095480007191901, 0.0 ], [ 3.364953615376331, 9.096186659381544, 0.0 ], [ 3.360757787011103, 9.092019992422783, 0.0 ], [ 3.354166668339911, 9.091666666776327, 0.0 ], [ 3.343408882719539, 9.092019992420104, 0.0 ], [ 3.339583334916358, 9.095818753023828, 0.0 ], [ 3.335757787114504, 9.092019992418901, 0.0 ], [ 3.330908882771744, 9.091313341127247, 0.0 ], [ 3.327424454116495, 9.087853325459525, 0.0 ], [ 3.306620281688095, 9.087146674165274, 0.0 ], [ 3.30242445422128, 9.091313341122646, 0.0 ], [ 3.297575549878661, 9.092019992412739, 0.0 ], [ 3.294091120323147, 9.095480007180011, 0.0 ], [ 3.289242216879883, 9.096186659369474, 0.0 ], [ 3.285757787324434, 9.099646674136677, 0.0 ], [ 3.280908882982001, 9.100353325426813, 0.0 ], [ 3.277424454325932, 9.103813341093394, 0.0 ], [ 3.262500001759168, 9.104166666736281, 0.0 ], [ 3.262146676113252, 9.110757785421308, 0.0 ], [ 3.250353327454727, 9.122575547998844, 0.0 ], [ 3.25000000180965, 9.124999999725812, 0.0 ], [ 3.250617474525979, 9.127160305279572, 0.0 ], [ 3.253549196039971, 9.131173028088959, 0.0 ], [ 3.254784140572532, 9.139660305255155, 0.0 ], [ 3.257715862985943, 9.143673028064601, 0.0 ], [ 3.258950807519259, 9.147993638272741, 0.0 ], [ 3.261882529932711, 9.152006361082123, 0.0 ], [ 3.26344842048045, 9.162767368097168, 0.0 ], [ 3.268673030097025, 9.158950975385714, 0.0 ], [ 3.277160307243813, 9.157715690906441, 0.0 ], [ 3.282864042370791, 9.153549193921176, 0.0 ], [ 3.290706382404694, 9.154974364857393, 0.0 ], [ 3.292284140407225, 9.160493469180787, 0.0 ], [ 3.295215862820957, 9.164506531034544, 0.0 ], [ 3.2968197308404, 9.17011617010837, 0.0 ], [ 3.304166668534871, 9.170833333575914, 0.0 ], [ 3.323257787152936, 9.171186659224475, 0.0 ], [ 3.327453614618566, 9.175353325283892, 0.0 ], [ 3.344091120099401, 9.174646673995637, 0.0 ], [ 3.347575549655355, 9.171186659228331, 0.0 ], [ 3.358333335275954, 9.170833333584552, 0.0 ], [ 3.359184097526482, 9.174149068318005, 0.0 ], [ 3.364710491742427, 9.175567287494333, 0.0 ], [ 3.368622844806417, 9.178599378752885, 0.0 ], [ 3.373043824741398, 9.179733954453665, 0.0 ], [ 3.37695617870479, 9.182766045712267, 0.0 ], [ 3.381377157740486, 9.183900621412986, 0.0 ], [ 3.385289511703959, 9.186932711772261, 0.0 ], [ 3.389710491639117, 9.188067287473032, 0.0 ], [ 3.393622844703352, 9.191099378731561, 0.0 ], [ 3.398043824638543, 9.192233954432325, 0.0 ], [ 3.401956178602175, 9.195266045690854, 0.0 ], [ 3.406377158537511, 9.196400621391609, 0.0 ], [ 3.410289511601903, 9.199432711750809, 0.0 ], [ 3.415815905818466, 9.200850931826407, 0.0 ], [ 3.416666668069202, 9.204166666559908, 0.0 ], [ 3.437500001920036, 9.204166666562855, 0.0 ], [ 3.445833334921014, 9.204166666564014, 0.0 ], [ 3.445480009280349, 9.176742214887042, 0.0 ], [ 3.442019993620275, 9.173257785323818, 0.0 ], [ 3.441313342332716, 9.160075547953461, 0.0 ], [ 3.437853327572009, 9.156591118390232, 0.0 ] ] ] } },
{ "type": "Feature", "properties": { "Stra_Catch": "Oshin-Oyi", "State": "Kwara", "LGA": "Irepodun and Oyun", "Population": 363400, "Cleard_TOR": "NO", "Status": "Pending", "Start_Date": "2024-04-10T00:00:00", "End_Date": "2025-03-29T00:00:00", "Micr_Catch": "Iyagbo_Oyun", "Size_Ha": 13251.0450274, "Comments": null, "OBJECTID_1": 0, "Shape_Leng": 0.0, "Shape_Area": 0.0, "parent_strategic_name": "Oshin-Oyi", "clipped_to_state": true }, "geometry": { "type": "Polygon", "coordinates": [ [ [ 4.868914795379178, 8.254696316174179, 0.0 ], [ 4.861559380661077, 8.253637017326502, 0.0 ], [ 4.855165948252225, 8.25881551151854, 0.0 ], [ 4.850772433604777, 8.257446967295525, 0.0 ], [ 4.849470350180948, 8.25191853880132, 0.0 ], [ 4.842196146941699, 8.243914794723723, 0.0 ], [ 4.841666666590882, 8.23333333375804, 0.0 ], [ 4.841313340945618, 8.226742214173573, 0.0 ], [ 4.837146674888388, 8.222546386698021, 0.0 ], [ 4.837853326179534, 8.197575548164691, 0.0 ], [ 4.841313341845512, 8.194091118601973, 0.0 ], [ 4.841666667491081, 8.183333332958682, 0.0 ], [ 4.831173197097475, 8.182715861139624, 0.0 ], [ 4.82707672132726, 8.17972344257435, 0.0 ], [ 4.818826803130965, 8.186882527198254, 0.0 ], [ 4.796642897076775, 8.188188001965708, 0.0 ], [ 4.795065138170746, 8.199028184394137, 0.0 ], [ 4.788426377902673, 8.200926378040714, 0.0 ], [ 4.786882357962578, 8.206326972402643, 0.0 ], [ 4.783950975486325, 8.210339695211495, 0.0 ], [ 4.783333333695673, 8.216666666823929, 0.0 ], [ 4.782482401471184, 8.219982570629828, 0.0 ], [ 4.776956177217447, 8.22140062073265, 0.0 ], [ 4.771537611705079, 8.225919596202923, 0.0 ], [ 4.770266045875333, 8.235543823279308, 0.0 ], [ 4.763067287661868, 8.24362284330989, 0.0 ], [ 4.761932712861204, 8.259079996734759, 0.0 ], [ 4.766099378918233, 8.264456176301838, 0.0 ], [ 4.767233954617805, 8.269618394563629, 0.0 ], [ 4.762500000710802, 8.270833333681681, 0.0 ], [ 4.762853326355978, 8.277424452366892, 0.0 ], [ 4.767019992413037, 8.281620279842391, 0.0 ], [ 4.766313341122331, 8.285757785383826, 0.0 ], [ 4.762146675065104, 8.289953612859229, 0.0 ], [ 4.762853326355558, 8.298257785358784, 0.0 ], [ 4.766313341122011, 8.301742214921621, 0.0 ], [ 4.767024739933662, 8.306623671135839, 0.0 ], [ 4.77257554805464, 8.312146674020209, 0.0 ], [ 4.774999999780803, 8.312499999665759, 0.0 ], [ 4.789924452376502, 8.312853326210794, 0.0 ], [ 4.793408881937896, 8.316313340978736, 0.0 ], [ 4.798257786289491, 8.317019992269719, 0.0 ], [ 4.805908881008744, 8.324646674895144, 0.0 ], [ 4.816666666648105, 8.324999999641459, 0.0 ], [ 4.844816081601641, 8.324413045417369, 0.0 ], [ 4.849432711753484, 8.318877156147629, 0.0 ], [ 4.850567287453436, 8.306122843186461, 0.0 ], [ 4.853599378710435, 8.302210490113891, 0.0 ], [ 4.854733955309561, 8.297789510169601, 0.0 ], [ 4.857766045667304, 8.293877156197709, 0.0 ], [ 4.85922071706285, 8.288208347129485, 0.0 ], [ 4.869904242983226, 8.286797077914938, 0.0 ], [ 4.878599379551781, 8.277210489264915, 0.0 ], [ 4.879733954352278, 8.272789509320676, 0.0 ], [ 4.883900621309083, 8.267413330652996, 0.0 ], [ 4.882766045609387, 8.264456176303792, 0.0 ], [ 4.879733954352479, 8.260543823231126, 0.0 ], [ 4.879166667401964, 8.258333333708679, 0.0 ], [ 4.872751871597956, 8.257803684284774, 0.0 ], [ 4.868914795379178, 8.254696316174179, 0.0 ] ] ] } },
{ "type": "Feature", "properties": { "Stra_Catch": "Gurara-Gbako (Abuja)", "State": "Kogi", "LGA": "Yagba East", "Population": 42000, "Cleard_TOR": "Not Yet", "Status": "No yet awarded", "Start_Date": "1899-12-30T00:00:00", "End_Date": "1899-12-30T00:00:00", "Micr_Catch": "Imela-Isanlu", "Size_Ha": 13387.3913445, "Comments": null, "OBJECTID_1": 0, "Shape_Leng": 0.0, "Shape_Area": 0.0, "parent_strategic_name": "Gurara-Gbako (Abuja)", "clipped_to_state": true }, "geometry": { "type": "Polygon", "coordinates": [ [ [ 5.9120541, 8.4238806, 0.0 ], [ 5.8974147, 8.423068, 0.0 ], [ 5.8835888, 8.423068, 0.0 ], [ 5.865696, 8.423068, 0.0 ], [ 5.8494301, 8.4222546, 0.0 ], [ 5.839001968985122, 8.42434018517238, 0.0 ], [ 5.8390019695947, 8.42434018575009, 0.0 ], [ 5.849430099748111, 8.422254600368664, 0.0 ], [ 5.865695999998165, 8.423068000287156, 0.0 ], [ 5.883588799909899, 8.423068000287195, 0.0 ], [ 5.897414700054228, 8.423068000287222, 0.0 ], [ 5.912054099941762, 8.423880600708424, 0.0 ], [ 5.916285814863256, 8.422029420920328, 0.0 ], [ 5.916285814837556, 8.422029419876369, 0.0 ], [ 5.9120541, 8.4238806, 0.0 ] ] ] } },
{ "type": "Feature", "properties": { "Stra_Catch": "Gurara-Gbako (Abuja)", "State": "Kogi", "LGA": "Yagba- West", "Population": 28000, "Cleard_TOR": "Cleared", "Status": "On-going", "Start_Date": "2025-03-21T00:00:00", "End_Date": "1899-12-30T00:00:00", "Micr_Catch": "Egbe", "Size_Ha": 35517.187133699998, "Comments": null, "OBJECTID_1": 0, "Shape_Leng": 0.0, "Shape_Area": 0.0, "parent_strategic_name": "Gurara-Gbako (Abuja)", "clipped_to_state": true }, "geometry": { "type": "MultiPolygon", "coordinates": [ [ [ [ 5.539698099444514, 8.198577900148164, 0.0 ], [ 5.538627899914562, 8.201432100109516, 0.0 ], [ 5.537089799525661, 8.205534000021807, 0.0 ], [ 5.5370898, 8.205534, 0.0 ], [ 5.5386279, 8.2014321, 0.0 ], [ 5.5396981, 8.1985779, 0.0 ], [ 5.5396981, 8.191677478007174, 0.0 ], [ 5.539698099444546, 8.191677478530949, 0.0 ], [ 5.539698099444514, 8.198577900148164, 0.0 ] ] ], [ [ [ 5.50804910649886, 8.209913789950877, 0.0 ], [ 5.5094799, 8.2088744, 0.0 ], [ 5.510122794541996, 8.208564041973373, 0.0 ], [ 5.509479899338319, 8.20887440013141, 0.0 ], [ 5.50804910649886, 8.209913789950877, 0.0 ] ] ], [ [ [ 5.501329699832969, 8.215304299983298, 0.0 ], [ 5.5013297, 8.2153043, 0.0 ], [ 5.5040002, 8.2125429, 0.0 ], [ 5.504041978151427, 8.212507894017868, 0.0 ], [ 5.504000199710517, 8.21254290023268, 0.0 ], [ 5.501329699832969, 8.215304299983298, 0.0 ] ] ], [ [ [ 5.466228000122455, 8.202490800037671, 0.0 ], [ 5.466318319031626, 8.20251858530804, 0.0 ], [ 5.466535265351639, 8.202585325619809, 0.0 ], [ 5.466228000187923, 8.202490800008208, 0.0 ], [ 5.466228000122455, 8.202490800037671, 0.0 ] ] ] ] } },
{ "type": "Feature", "properties": { "Stra_Catch": "Oshin-Oyi", "State": "Kwara", "LGA": "Patigi and Edu", "Population": 469100, "Cleard_TOR": "YES", "Status": "Completed", "Start_Date": "2024-04-10T00:00:00", "End_Date": "2025-03-29T00:00:00", "Micr_Catch": "Lata", "Size_Ha": 197306.217745, "Comments": null, "OBJECTID_1": 0, "Shape_Leng": 0.0, "Shape_Area": 0.0, "parent_strategic_name": "Gurara-Gbako (Abuja)", "clipped_to_state": true }, "geometry": { "type": "MultiPolygon", "coordinates": [ [ [ [ 5.573839146635937, 8.583395562136293, 0.0 ], [ 5.574904906030404, 8.584139580519864, 0.0 ], [ 5.574999999801265, 8.584012914135451, 0.0 ], [ 5.574999999801268, 8.583333333065086, 0.0 ], [ 5.573839146635937, 8.583395562136293, 0.0 ] ] ], [ [ [ 5.564924452453711, 8.587146674377694, 0.0 ], [ 5.56437625959415, 8.587226564836175, 0.0 ], [ 5.564712468552126, 8.587594191824135, 0.0 ], [ 5.564981880704361, 8.58730983328052, 0.0 ], [ 5.565816082824202, 8.586554337757887, 0.0 ], [ 5.567451480586799, 8.586258875330563, 0.0 ], [ 5.567715527509311, 8.585979757278086, 0.0 ], [ 5.568000645506651, 8.585721988634775, 0.0 ], [ 5.568541709154935, 8.584903556648829, 0.0 ], [ 5.569399368208785, 8.584641893075565, 0.0 ], [ 5.570165459455633, 8.583833396302087, 0.0 ], [ 5.570466463813255, 8.58384824468677, 0.0 ], [ 5.570731043317138, 8.583568598645455, 0.0 ], [ 5.5707816181378, 8.58355946500042, 0.0 ], [ 5.568408881116812, 8.583686658710567, 0.0 ], [ 5.564924452453711, 8.587146674377694, 0.0 ] ] ], [ [ [ 5.556774947053649, 8.591130800827628, 0.0 ], [ 5.557094241290323, 8.591033402365149, 0.0 ], [ 5.558102415068969, 8.589969448745727, 0.0 ], [ 5.559409323742153, 8.589672150637501, 0.0 ], [ 5.560649221973951, 8.589731905449757, 0.0 ], [ 5.560615298930268, 8.58863058857567, 0.0 ], [ 5.560635844469438, 8.588209096176834, 0.0 ], [ 5.56226608038947, 8.587837955686627, 0.0 ], [ 5.562938626982944, 8.587436077102586, 0.0 ], [ 5.560075548100749, 8.587853325668627, 0.0 ], [ 5.556774947053649, 8.591130800827628, 0.0 ] ] ], [ [ [ 5.551605101330386, 8.591805914288299, 0.0 ], [ 5.552157668656447, 8.592071170331899, 0.0 ], [ 5.552951132296092, 8.593443290935197, 0.0 ], [ 5.553795783264795, 8.593711162403514, 0.0 ], [ 5.554424656651529, 8.592415796309426, 0.0 ], [ 5.555423324270235, 8.592110994144111, 0.0 ], [ 5.555687382501953, 8.591831889489422, 0.0 ], [ 5.555972511065706, 8.591574134760064, 0.0 ], [ 5.556189458668533, 8.591344823921222, 0.0 ], [ 5.551440112085535, 8.591717083438981, 0.0 ], [ 5.551605101330386, 8.591805914288299, 0.0 ] ] ], [ [ [ 5.547014629924044, 8.592579120994831, 0.0 ], [ 5.547520694250982, 8.592603643125093, 0.0 ], [ 5.548337420296157, 8.592578696306457, 0.0 ], [ 5.54913921544514, 8.59261763124735, 0.0 ], [ 5.549423135614111, 8.592317547556362, 0.0 ], [ 5.550225245376839, 8.591812306157983, 0.0 ], [ 5.547575548127115, 8.592019992626669, 0.0 ], [ 5.547014629924044, 8.592579120994831, 0.0 ] ] ], [ [ [ 5.545806354750829, 8.594481804431371, 0.0 ], [ 5.546037469313814, 8.593553163581504, 0.0 ], [ 5.545138247305792, 8.594449516260394, 0.0 ], [ 5.545806354750829, 8.594481804431371, 0.0 ] ] ], [ [ [ 5.543681801777688, 8.596339864604262, 0.0 ], [ 5.543987461653146, 8.596017233311729, 0.0 ], [ 5.543974884368976, 8.595609167020312, 0.0 ], [ 5.543164424694702, 8.596417040597345, 0.0 ], [ 5.543681801777688, 8.596339864604262, 0.0 ] ] ], [ [ [ 5.540938212398985, 8.598753150311436, 0.0 ], [ 5.540967627325136, 8.598606828202211, 0.0 ], [ 5.540427138111659, 8.599145592767679, 0.0 ], [ 5.540938212398985, 8.598753150311436, 0.0 ] ] ], [ [ [ 5.531591118591073, 8.596186658685378, 0.0 ], [ 5.530359664988326, 8.596007193755828, 0.0 ], [ 5.530595921227652, 8.597576462253848, 0.0 ], [ 5.531962433771001, 8.598119967318523, 0.0 ], [ 5.532225234349054, 8.598973600315857, 0.0 ], [ 5.532810285676969, 8.599522753897908, 0.0 ], [ 5.53414970054015, 8.59948192224496, 0.0 ], [ 5.534109192423716, 8.600311659813251, 0.0 ], [ 5.534128058291704, 8.600925545461299, 0.0 ], [ 5.535342235092736, 8.601942771523797, 0.0 ], [ 5.535740139393768, 8.601123131204167, 0.0 ], [ 5.536284241434848, 8.601149195852377, 0.0 ], [ 5.536556485041674, 8.601141067891971, 0.0 ], [ 5.537114929253609, 8.601168318840328, 0.0 ], [ 5.537644684468108, 8.600609105453817, 0.0 ], [ 5.539290566158089, 8.600363621862082, 0.0 ], [ 5.539557100859589, 8.599813674815028, 0.0 ], [ 5.539731715397951, 8.59967959223637, 0.0 ], [ 5.535786946965326, 8.60035332564355, 0.0 ], [ 5.531591118591073, 8.596186658685378, 0.0 ] ] ], [ [ [ 5.517517429143516, 8.586649237770118, 0.0 ], [ 5.516666666890766, 8.583333333064825, 0.0 ], [ 5.515220651247347, 8.58333333306482, 0.0 ], [ 5.514816343264285, 8.583759853195087, 0.0 ], [ 5.514388904964283, 8.584146427887491, 0.0 ], [ 5.514124651716209, 8.584445597102064, 0.0 ], [ 5.515426011449908, 8.585071076697183, 0.0 ], [ 5.515732139383022, 8.586065294746373, 0.0 ], [ 5.516556785354482, 8.586333051008859, 0.0 ], [ 5.516815267159894, 8.586666048957259, 0.0 ], [ 5.516261655720553, 8.587684762961896, 0.0 ], [ 5.515993016841532, 8.588463746156522, 0.0 ], [ 5.518163740370304, 8.588828329347164, 0.0 ], [ 5.520774666709289, 8.588748767749074, 0.0 ], [ 5.52103582062971, 8.588889417568311, 0.0 ], [ 5.52083333294904, 8.587500000023001, 0.0 ], [ 5.517517429143516, 8.586649237770118, 0.0 ] ] ] ] } }
]
}
