{
"type": "FeatureCollection",
"name": "Kwara_interventions",
"crs": { "type": "name", "properties": { "name": "urn:ogc:def:crs:OGC:1.3:CRS84" } },
"features": [
{ "type": "Feature", "properties": { "OBJECTID": 128, "ActivityID": "1", "Stra_Catch": "Oshin-Oyi", "Micr_Catch": "Asa", "State": "Kwara", "LGA": "Asa", "Site_Name": "Alapa", "Interv_Typ": "FAO Landscape Restoration", "Component": "B - Community Climate Resilience", "Comments": null, "Implemnter": "Community members and SPMU", "Start_Date": "2025-05-19T00:00:00", "End_Date": "2025/07/17", "No_Trees_P": 500, "Sub_compon": "B2-1", "Lon": 4.3622450407400004, "Lat": 4.3622450407900004, "Female_pop": 135, "Buffer_Mtr": 0, "Area_Impac": 1002.0, "Male_pop": 115, "Area_Intev": 1002.0, "Netsize_Ha": 1002.0, "Indicator": "Area under community-led landscape restoration", "Benefi_pop": 0.0, "Perct_NDVI": 0.0, "parent_micro_name": "Asadam" }, "geometry": { "type": "Polygon", "coordinates": [ [ [ 4.359780109854316, 8.645267590600701, 0.0 ], [ 4.377062410791622, 8.62737689389086, 0.0 ], [ 4.365839259490135, 8.598983105947532, 0.0 ], [ 4.351430665583617, 8.606699969312428, 0.0 ], [ 4.349049577170697, 8.613834991354313, 0.0 ], [ 4.349074807757599, 8.630049287569422, 0.0 ], [ 4.359780109854316, 8.645267590600701, 0.0 ] ] ] } },
{ "type": "Feature", "properties": { "OBJECTID": 129, "ActivityID": "2", "Stra_Catch": "Oshin-Oyi", "Micr_Catch": "Lata", "State": "Kwara", "LGA": "Edu", "Site_Name": "Shonga", "Interv_Typ": "FAO Landscape Restoration", "Component": "B - Community Climate Resilience", "Comments": null, "Implemnter": "Community members and SPMU", "Start_Date": "2025-05-21T00:00:00", "End_Date": "2025/07/20", "No_Trees_P": 350, "Sub_compon": "B2-1", "Lon": 5.1786598475699996, "Lat": 5.1786598474899996, "Female_pop": 885, "Buffer_Mtr": 0, "Area_Impac": 999.0, "Male_pop": 815, "Area_Intev": 999.0, "Netsize_Ha": 999.0, "Indicator": "Area under community-led landscape restoration", "Benefi_pop": 0.0, "Perct_NDVI": 0.0, "parent_micro_name": "Lata" }, "geometry": { "type": "Polygon", "coordinates": [ [ [ 5.161128948272467, 8.954263220125757, 0.0 ], [ 5.162107642205315, 8.954760660116806, 0.0 ], [ 5.164859129804951, 8.954742898163401, 0.0 ], [ 5.166490298564755, 8.954061250737755, 0.0 ], [ 5.166869670215537, 8.953975164757029, 0.0 ], [ 5.16701793926856, 8.953974214641049, 0.0 ], [ 5.16831061946195, 8.953631875883103, 0.0 ], [ 5.168458685219879, 8.953630931142566, 0.0 ], [ 5.170035949312474, 8.953370889968719, 0.0 ], [ 5.172885810665958, 8.952854283821782, 0.0 ], [ 5.175208821721873, 8.952343027245339, 0.0 ], [ 5.175503407307184, 8.952341171666202, 0.0 ], [ 5.178736806341378, 8.951169577998895, 0.0 ], [ 5.180517085443602, 8.950749783594679, 0.0 ], [ 5.180736633075351, 8.950748419996525, 0.0 ], [ 5.182656892628589, 8.950329107708953, 0.0 ], [ 5.183095237579665, 8.95032639784521, 0.0 ], [ 5.184264097023686, 8.950319173160715, 0.0 ], [ 5.184910266774087, 8.950640973964163, 0.0 ], [ 5.18520282208799, 8.95063916489433, 0.0 ], [ 5.185485659681345, 8.95057552799623, 0.0 ], [ 5.1860830562462, 8.94862022414223, 0.0 ], [ 5.185408407099041, 8.946361480968063, 0.0 ], [ 5.192259555135788, 8.939912047384402, 0.0 ], [ 5.194783922198916, 8.915157999523721, 0.0 ], [ 5.187389443188614, 8.916258037469591, 0.0 ], [ 5.178671179147021, 8.917693366439112, 0.0 ], [ 5.17279595297435, 8.91898102210865, 0.0 ], [ 5.171782694131424, 8.934861311702567, 0.0 ], [ 5.170857912146703, 8.937411729748426, 0.0 ], [ 5.169234097956476, 8.938380079983988, 0.0 ], [ 5.167271243430875, 8.939134317017386, 0.0 ], [ 5.165698072109995, 8.939441946217229, 0.0 ], [ 5.163736220675884, 8.939453555372001, 0.0 ], [ 5.163035490280546, 8.939457704549731, 0.0 ], [ 5.162393925135166, 8.940662212543332, 0.0 ], [ 5.162203068112268, 8.942180579335345, 0.0 ], [ 5.162165667001408, 8.94418084850364, 0.0 ], [ 5.161911724974265, 8.946214406120998, 0.0 ], [ 5.161960523531463, 8.947560369952953, 0.0 ], [ 5.162069236813235, 8.948438361955212, 0.0 ], [ 5.162095936370881, 8.949403598271932, 0.0 ], [ 5.161946554852597, 8.950621481808312, 0.0 ], [ 5.161762644965152, 8.951522354892845, 0.0 ], [ 5.161544547792921, 8.952099527689249, 0.0 ], [ 5.161243019231746, 8.953343868159063, 0.0 ], [ 5.161128948272467, 8.954263220125757, 0.0 ] ] ] } },
{ "type": "Feature", "properties": { "OBJECTID": 130, "ActivityID": "3", "Stra_Catch": "Oshin-Oyi", "Micr_Catch": "Lata", "State": "Kwara", "LGA": "Edu", "Site_Name": "Shonga", "Interv_Typ": "FAO Landscape Restoration", "Component": "B - Community Climate Resilience", "Comments": null, "Implemnter": "Community members and SPMU", "Start_Date": "2025-05-21T00:00:00", "End_Date": "2025/07/20", "No_Trees_P": 500, "Sub_compon": "B2-1", "Lon": 5.1704517280599998, "Lat": 5.1704517282499998, "Female_pop": 608, "Buffer_Mtr": 0, "Area_Impac": 1082.0, "Male_pop": 742, "Area_Intev": 1082.0, "Netsize_Ha": 1082.0, "Indicator": "Area under community-led landscape restoration", "Benefi_pop": 0.0, "Perct_NDVI": 0.0, "parent_micro_name": "Lata" }, "geometry": { "type": "Polygon", "coordinates": [ [ [ 5.183624992311628, 8.984797986291563, 0.0 ], [ 5.184496310804946, 8.984480000148624, 0.0 ], [ 5.184690865515021, 8.983545644203922, 0.0 ], [ 5.184522649390048, 8.980925225133886, 0.0 ], [ 5.184722823661739, 8.978182867338848, 0.0 ], [ 5.185338660918412, 8.974281332219972, 0.0 ], [ 5.185623994869056, 8.971183690833485, 0.0 ], [ 5.185439535574243, 8.966697839147647, 0.0 ], [ 5.185153307524477, 8.960772744042643, 0.0 ], [ 5.185335247480601, 8.956505300834104, 0.0 ], [ 5.185282837122056, 8.954069408035769, 0.0 ], [ 5.184445126773756, 8.952200274781395, 0.0 ], [ 5.181150756778424, 8.952221393479135, 0.0 ], [ 5.179334897785284, 8.953436192651086, 0.0 ], [ 5.178752010012308, 8.953574088173189, 0.0 ], [ 5.174636935189188, 8.954003711181858, 0.0 ], [ 5.174164114413064, 8.954006784314013, 0.0 ], [ 5.172169663055699, 8.954423570640904, 0.0 ], [ 5.171701211783327, 8.954561411615401, 0.0 ], [ 5.170995599459533, 8.954700897471056, 0.0 ], [ 5.170526415152649, 8.954838935715046, 0.0 ], [ 5.169828428801365, 8.955248967464096, 0.0 ], [ 5.169472672981219, 8.955251300078265, 0.0 ], [ 5.16676121554574, 8.955946750447968, 0.0 ], [ 5.16520323728383, 8.955279362594258, 0.0 ], [ 5.161383714939495, 8.955274870315266, 0.0 ], [ 5.160828690307863, 8.955390093953968, 0.0 ], [ 5.153846595144381, 8.987625724881662, 0.0 ], [ 5.155206272427622, 8.988146377631544, 0.0 ], [ 5.162256681185401, 8.987304257760126, 0.0 ], [ 5.169032395698625, 8.98678245943624, 0.0 ], [ 5.174476167955596, 8.985331059278032, 0.0 ], [ 5.180076755018374, 8.985135198682229, 0.0 ], [ 5.183624992311628, 8.984797986291563, 0.0 ] ] ] } }
]
}
