{
"type": "FeatureCollection",
"name": "Kogi_state_boundary",
"crs": { "type": "name", "properties": { "name": "urn:ogc:def:crs:OGC:1.3:CRS84" } },
"features": [
{ "type": "Feature", "properties": { "state_code": "KO", "state_name": "Kogi", "cap_city": "Lokoja", "geo_zone": "NCZ" }, "geometry": { "type": "Polygon", "coordinates": [ [ [ 6.6616958, 6.5579284 ], [ 6.6619449, 6.5728536 ], [ 6.6591964, 6.6077533 ], [ 6.6527762, 6.6342821 ], [ 6.651162, 6.6369128 ], [ 6.6349673, 6.6633049 ], [ 6.6280217, 6.6746235 ], [ 6.6179361, 6.7048793 ], [ 6.6216035, 6.7222991 ], [ 6.6261878, 6.7314677 ], [ 6.6280217, 6.7488875 ], [ 6.6316891, 6.7690582 ], [ 6.6295142, 6.775507 ], [ 6.6273642, 6.781951 ], [ 6.623549, 6.7907529 ], [ 6.62361, 6.7935982 ], [ 6.623661, 6.7959962 ], [ 6.6203179, 6.800128 ], [ 6.6175971, 6.806581 ], [ 6.6159439, 6.8095212 ], [ 6.61377, 6.8148012 ], [ 6.6107903, 6.8221049 ], [ 6.6141453, 6.8308287 ], [ 6.6142611, 6.8309942 ], [ 6.6216335, 6.8415256 ], [ 6.6280123, 6.853752 ], [ 6.63447, 6.8661294 ], [ 6.6462369, 6.8853846 ], [ 6.6526556, 6.9078484 ], [ 6.6618959, 6.9204931 ], [ 6.6729803, 6.9356613 ], [ 6.6793985, 6.9688225 ], [ 6.6792603, 6.9720025 ], [ 6.6784542, 6.9905367 ], [ 6.6783285, 6.9934263 ], [ 6.677259, 7.0084023 ], [ 6.677259, 7.0340757 ], [ 6.6838355, 7.0516138 ], [ 6.6900954, 7.0683069 ], [ 6.7105952, 7.1031558 ], [ 6.7114902, 7.1046772 ], [ 6.7149487, 7.1176476 ], [ 6.7157688, 7.1207232 ], [ 6.7157688, 7.1228213 ], [ 6.7157688, 7.1356993 ], [ 6.7114902, 7.1485357 ], [ 6.707211, 7.1592331 ], [ 6.7034302, 7.1705756 ], [ 6.7007928, 7.1784883 ], [ 6.6999583, 7.1858595 ], [ 6.693305, 7.2164761 ], [ 6.6901574, 7.219051 ], [ 6.6853364, 7.2230102 ], [ 6.6832328, 7.2298671 ], [ 6.6781139, 7.2311131 ], [ 6.6747222, 7.232915 ], [ 6.6691551, 7.2399961 ], [ 6.6452011, 7.2812674 ], [ 6.63767, 7.294243 ], [ 6.6323099, 7.2923308 ], [ 6.601943, 7.283839 ], [ 6.5695219, 7.2752948 ], [ 6.556313, 7.2748199 ], [ 6.5473525, 7.2748936 ], [ 6.54426, 7.274919 ], [ 6.5373569, 7.273809 ], [ 6.529881, 7.2727041 ], [ 6.5258479, 7.2715712 ], [ 6.5148849, 7.2669969 ], [ 6.5114412, 7.267025 ], [ 6.5080328, 7.269968 ], [ 6.508112, 7.2763801 ], [ 6.5059007, 7.2810037 ], [ 6.5036211, 7.2845769 ], [ 6.5013599, 7.2875099 ], [ 6.4996958, 7.2921872 ], [ 6.4997602, 7.2974319 ], [ 6.499229, 7.3009338 ], [ 6.499846, 7.3044271 ], [ 6.4999251, 7.3108382 ], [ 6.4991334, 7.3145269 ], [ 6.4982958, 7.318429 ], [ 6.498899, 7.320756 ], [ 6.4995089, 7.3236661 ], [ 6.4995518, 7.3271632 ], [ 6.4973269, 7.3330102 ], [ 6.494472, 7.334199 ], [ 6.4922051, 7.3365502 ], [ 6.4887891, 7.3389091 ], [ 6.4857631, 7.3419962 ], [ 6.4808679, 7.3483 ], [ 6.4774809, 7.3529921 ], [ 6.4757948, 7.3559198 ], [ 6.4729819, 7.3606062 ], [ 6.4703722, 7.3637009 ], [ 6.4668698, 7.3653188 ], [ 6.4632611, 7.3635998 ], [ 6.4597812, 7.360714 ], [ 6.455153, 7.3578372 ], [ 6.450532, 7.3555431 ], [ 6.4425111, 7.3567739 ], [ 6.4385071, 7.3579731 ], [ 6.435658, 7.359745 ], [ 6.4346042, 7.367332 ], [ 6.4346762, 7.3731599 ], [ 6.434144, 7.3766618 ], [ 6.4324579, 7.379591 ], [ 6.4267468, 7.381968 ], [ 6.4233532, 7.386076 ], [ 6.4222412, 7.3889999 ], [ 6.432106, 7.3976641 ], [ 6.4321642, 7.4023271 ], [ 6.4276719, 7.4105239 ], [ 6.4282031, 7.4153255 ], [ 6.423873, 7.4175408 ], [ 6.3797717, 7.3982337 ], [ 6.3769307, 7.4005888 ], [ 6.3665916, 7.4083876 ], [ 6.3614699, 7.4119266 ], [ 6.3569128, 7.4148773 ], [ 6.2954809, 7.4991756 ], [ 6.292052, 7.5003696 ], [ 6.2880408, 7.5009857 ], [ 6.2811529, 7.501042 ], [ 6.2765961, 7.495697 ], [ 6.274838, 7.4927959 ], [ 6.2730732, 7.4893141 ], [ 6.2718892, 7.4864092 ], [ 6.2701392, 7.4840908 ], [ 6.2678142, 7.4817791 ], [ 6.2637739, 7.480063 ], [ 6.2591681, 7.4789338 ], [ 6.2557168, 7.4783802 ], [ 6.25284, 7.4778199 ], [ 6.2447901, 7.4767199 ], [ 6.2378869, 7.4756112 ], [ 6.233274, 7.4738989 ], [ 6.2269239, 7.4710369 ], [ 6.2253232, 7.4683957 ], [ 6.2233939, 7.4640708 ], [ 6.2210479, 7.4600091 ], [ 6.2195534, 7.4577868 ], [ 6.2088652, 7.449616 ], [ 6.2045697, 7.4477918 ], [ 6.2007861, 7.4461851 ], [ 6.193274, 7.4421659 ], [ 6.1898088, 7.4404449 ], [ 6.1880605, 7.4394023 ], [ 6.1869168, 7.4387202 ], [ 6.186307, 7.435811 ], [ 6.1862721, 7.4328961 ], [ 6.182785, 7.4294271 ], [ 6.1799221, 7.4300332 ], [ 6.1759539, 7.4341459 ], [ 6.1742749, 7.4376569 ], [ 6.1731701, 7.441164 ], [ 6.1709099, 7.444097 ], [ 6.1668992, 7.4447131 ], [ 6.1655909, 7.4453918 ], [ 6.1648137, 7.445795 ], [ 6.1637336, 7.4463552 ], [ 6.1597306, 7.4475545 ], [ 6.1545717, 7.4481796 ], [ 6.1506131, 7.4486569 ], [ 6.1474328, 7.4489522 ], [ 6.142848, 7.4495721 ], [ 6.1382351, 7.4478612 ], [ 6.1330619, 7.44732 ], [ 6.127882, 7.446197 ], [ 6.1255575, 7.4462157 ], [ 6.1206395, 7.4462553 ], [ 6.1186981, 7.4462709 ], [ 6.112412, 7.4486551 ], [ 6.110682, 7.4536751 ], [ 6.1101498, 7.4571774 ], [ 6.1096339, 7.4618442 ], [ 6.11028, 7.4676683 ], [ 6.1087389, 7.476665 ], [ 6.1087961, 7.481328 ], [ 6.1082578, 7.4842458 ], [ 6.108882, 7.4883218 ], [ 6.108336, 7.4906578 ], [ 6.1101022, 7.4941411 ], [ 6.112433, 7.497036 ], [ 6.1147509, 7.4987659 ], [ 6.118217, 7.5004869 ], [ 6.1222558, 7.502203 ], [ 6.125721, 7.5039229 ], [ 6.1286058, 7.505065 ], [ 6.1314969, 7.5067911 ], [ 6.135551, 7.5096722 ], [ 6.1378608, 7.510819 ], [ 6.142489, 7.5136962 ], [ 6.1465359, 7.515995 ], [ 6.150589, 7.5188761 ], [ 6.1540771, 7.5223451 ], [ 6.1558342, 7.5252452 ], [ 6.1582842, 7.5282979 ], [ 6.1622558, 7.533937 ], [ 6.1646018, 7.5382718 ], [ 6.1658001, 7.5423416 ], [ 6.1665718, 7.544235 ], [ 6.1669841, 7.5452465 ], [ 6.1658788, 7.54848 ], [ 6.1641779, 7.5502419 ], [ 6.1607351, 7.550271 ], [ 6.1555691, 7.550313 ], [ 6.1532798, 7.5509148 ], [ 6.1498361, 7.5509429 ], [ 6.1463919, 7.550971 ], [ 6.1429482, 7.5509992 ], [ 6.1428635, 7.5509891 ], [ 6.1383491, 7.5504532 ], [ 6.1335707, 7.5520768 ], [ 6.1321057, 7.556334 ], [ 6.1304421, 7.5610107 ], [ 6.1299109, 7.5645118 ], [ 6.128799, 7.5674363 ], [ 6.1257014, 7.5753999 ], [ 6.123776, 7.5791349 ], [ 6.1226778, 7.5832248 ], [ 6.1187611, 7.5914168 ], [ 6.098731, 7.5881972 ], [ 6.0696089, 7.5835162 ], [ 6.0485039, 7.5801239 ], [ 6.0433879, 7.5774598 ], [ 6.040483, 7.5745692 ], [ 6.035862, 7.5722752 ], [ 6.0329561, 7.5693841 ], [ 6.0288882, 7.5653372 ], [ 6.0265489, 7.5618591 ], [ 6.0253649, 7.5589528 ], [ 6.024734, 7.554296 ], [ 6.022954, 7.5496459 ], [ 6.023499, 7.5473099 ], [ 6.0211682, 7.544415 ], [ 6.0170779, 7.538619 ], [ 6.0129962, 7.5334058 ], [ 6.0105015, 7.5322754 ], [ 6.0041256, 7.5292358 ], [ 6.0040903, 7.5355721 ], [ 6.0012679, 7.5429435 ], [ 6.0003047, 7.5494013 ], [ 5.9984198, 7.5549312 ], [ 5.9965391, 7.5595374 ], [ 5.9909301, 7.5678167 ], [ 5.9871907, 7.5733361 ], [ 5.9843831, 7.5779376 ], [ 5.981576, 7.5825386 ], [ 5.9787636, 7.5880632 ], [ 5.975946, 7.594511 ], [ 5.9722166, 7.5981841 ], [ 5.9694095, 7.6027856 ], [ 5.9684668, 7.6055498 ], [ 5.9647326, 7.610146 ], [ 5.9609985, 7.6147423 ], [ 5.9572587, 7.6202617 ], [ 5.9544563, 7.6239395 ], [ 5.9479094, 7.6340604 ], [ 5.9441752, 7.6386566 ], [ 5.9400005, 7.6451101 ], [ 5.9376283, 7.648777 ], [ 5.9366398, 7.659852 ], [ 5.9356713, 7.6672335 ], [ 5.9337864, 7.6727633 ], [ 5.931891, 7.6801395 ], [ 5.929975, 7.6912093 ], [ 5.9290218, 7.6958213 ], [ 5.9271417, 7.7004275 ], [ 5.9233918, 7.7077932 ], [ 5.9224391, 7.7124047 ], [ 5.9214911, 7.7160931 ], [ 5.9224033, 7.7188683 ], [ 5.9233098, 7.7225666 ], [ 5.9251332, 7.728117 ], [ 5.9260397, 7.7318153 ], [ 5.9278841, 7.7336721 ], [ 5.929718, 7.7373762 ], [ 5.9306245, 7.7410746 ], [ 5.930604, 7.7447681 ], [ 5.9287391, 7.7466044 ], [ 5.9213066, 7.7493329 ], [ 5.9194469, 7.750246 ], [ 5.9148159, 7.7492971 ], [ 5.9083309, 7.7483382 ], [ 5.9036999, 7.7473888 ], [ 5.8981471, 7.7455115 ], [ 5.8898129, 7.7436185 ], [ 5.8863964, 7.7421378 ], [ 5.883338, 7.7408123 ], [ 5.8768582, 7.7389297 ], [ 5.8703833, 7.736124 ], [ 5.86483, 7.7342463 ], [ 5.8574333, 7.7305121 ], [ 5.8500261, 7.7286243 ], [ 5.8426085, 7.7285829 ], [ 5.8370352, 7.7303991 ], [ 5.8323894, 7.7322202 ], [ 5.8277431, 7.7340407 ], [ 5.822185, 7.7330866 ], [ 5.8194137, 7.7312245 ], [ 5.8164392, 7.727849 ], [ 5.8010244, 7.7333035 ], [ 5.780242, 7.7457728 ], [ 5.7730284, 7.7473187 ], [ 5.7916155, 7.7820687 ], [ 5.7679539, 7.7876363 ], [ 5.755775, 7.7956395 ], [ 5.7504088, 7.8008139 ], [ 5.7460318, 7.8050346 ], [ 5.7411604, 7.8123422 ], [ 5.7372894, 7.8210793 ], [ 5.7289815, 7.8283486 ], [ 5.7101913, 7.8300881 ], [ 5.6886172, 7.8297405 ], [ 5.6684351, 7.8290443 ], [ 5.6588387, 7.8276782 ], [ 5.6585332, 7.8277699 ], [ 5.6582133, 7.8278659 ], [ 5.6566043, 7.8283486 ], [ 5.6426859, 7.8286963 ], [ 5.630507, 7.83496 ], [ 5.6231995, 7.8429632 ], [ 5.621938, 7.846117 ], [ 5.6141524, 7.865581 ], [ 5.6124125, 7.876368 ], [ 5.6109414, 7.8896079 ], [ 5.6085849, 7.9108167 ], [ 5.6040616, 7.926475 ], [ 5.6019735, 7.9428296 ], [ 5.5988417, 7.9518766 ], [ 5.5988417, 7.958488 ], [ 5.6016254, 7.9637074 ], [ 5.6096287, 7.9661436 ], [ 5.6141524, 7.962316 ], [ 5.627027, 7.9570961 ], [ 5.6343346, 7.958488 ], [ 5.6383045, 7.9601008 ], [ 5.6454697, 7.9630117 ], [ 5.6472092, 7.9661436 ], [ 5.6475573, 7.9741468 ], [ 5.6475573, 7.9861584 ], [ 5.6495733, 7.9878864 ], [ 5.650733, 7.9907408 ], [ 5.6569524, 7.994329 ], [ 5.6632156, 8.0002441 ], [ 5.6680875, 8.0023317 ], [ 5.6674002, 8.0085156 ], [ 5.6673913, 8.0085955 ], [ 5.6625199, 8.0152063 ], [ 5.6563282, 8.019577 ], [ 5.6506891, 8.0235577 ], [ 5.6489491, 8.0326052 ], [ 5.6472092, 8.0409565 ], [ 5.6430335, 8.0482636 ], [ 5.6399021, 8.0538311 ], [ 5.6430335, 8.0590506 ], [ 5.6458173, 8.0607901 ], [ 5.6538205, 8.06427 ], [ 5.6597362, 8.0698376 ], [ 5.6562567, 8.0747089 ], [ 5.6489491, 8.0743608 ], [ 5.6436362, 8.0739679 ], [ 5.639554, 8.0736656 ], [ 5.6245914, 8.0726213 ], [ 5.5991898, 8.0736656 ], [ 5.5765719, 8.0712299 ], [ 5.5727444, 8.0684462 ], [ 5.5591736, 8.0580063 ], [ 5.5550318, 8.0545549 ], [ 5.5535558, 8.0533251 ], [ 5.5508223, 8.0510473 ], [ 5.5452552, 8.0440884 ], [ 5.5375996, 8.0406084 ], [ 5.5316844, 8.0350409 ], [ 5.5257688, 8.0308657 ], [ 5.5160255, 8.0221663 ], [ 5.5087185, 8.017643 ], [ 5.5059347, 8.0186863 ], [ 5.5038471, 8.0235577 ], [ 5.5045428, 8.0294733 ], [ 5.5055809, 8.0323277 ], [ 5.5073266, 8.0371284 ], [ 5.5073266, 8.0454798 ], [ 5.5104585, 8.0667057 ], [ 5.5125461, 8.0767965 ], [ 5.5135899, 8.0837564 ], [ 5.5128942, 8.0896721 ], [ 5.513938, 8.0966311 ], [ 5.5146337, 8.1049824 ], [ 5.5140571, 8.1101734 ], [ 5.513938, 8.1112461 ], [ 5.5072124, 8.1112461 ], [ 5.5069785, 8.1112461 ], [ 5.4979639, 8.1106644 ], [ 5.4979639, 8.1146746 ], [ 5.5044847, 8.1238041 ], [ 5.5076661, 8.1255487 ], [ 5.5179615, 8.1311941 ], [ 5.5262213, 8.13902 ], [ 5.5319812, 8.1459313 ], [ 5.5327425, 8.1468449 ], [ 5.5366549, 8.1564093 ], [ 5.5370898, 8.1633644 ], [ 5.538394, 8.1785803 ], [ 5.5396981, 8.190753 ], [ 5.5396981, 8.1985779 ], [ 5.5386279, 8.2014321 ], [ 5.5370898, 8.205534 ], [ 5.5337181, 8.205689 ], [ 5.5315504, 8.2059898 ], [ 5.5300823, 8.2058414 ], [ 5.5269472, 8.2062786 ], [ 5.5236073, 8.2071581 ], [ 5.521495, 8.2085408 ], [ 5.5186149, 8.2105876 ], [ 5.517147, 8.2111584 ], [ 5.5153203, 8.211912 ], [ 5.5139221, 8.2124421 ], [ 5.5102511, 8.2093819 ], [ 5.510393, 8.2084336 ], [ 5.5094799, 8.2088744 ], [ 5.5066421, 8.2109359 ], [ 5.5059484, 8.2109105 ], [ 5.5040002, 8.2125429 ], [ 5.5013297, 8.2153043 ], [ 5.4949207, 8.2146635 ], [ 5.4775314, 8.2050991 ], [ 5.4718795, 8.2042294 ], [ 5.466228, 8.2024908 ], [ 5.4575334, 8.2064037 ], [ 5.442318, 8.2181416 ], [ 5.4330279, 8.2239471 ], [ 5.4318843, 8.2246618 ], [ 5.4223199, 8.2281399 ], [ 5.4188423, 8.2355309 ], [ 5.4223199, 8.2511807 ], [ 5.4218855, 8.2616148 ], [ 5.4197116, 8.2677011 ], [ 5.4214506, 8.2737875 ], [ 5.4184074, 8.2837858 ], [ 5.4044962, 8.2920456 ], [ 5.3971057, 8.2920456 ], [ 5.3875413, 8.2833509 ], [ 5.3810205, 8.2781343 ], [ 5.3723259, 8.2742214 ], [ 5.3627615, 8.2733526 ], [ 5.3566751, 8.2746563 ], [ 5.3531976, 8.286829 ], [ 5.3527627, 8.2981319 ], [ 5.3531976, 8.3055229 ], [ 5.3531976, 8.3098698 ], [ 5.3475461, 8.3155212 ], [ 5.3431988, 8.3216076 ], [ 5.3358083, 8.3285637 ], [ 5.3323302, 8.331172 ], [ 5.3245049, 8.3337803 ], [ 5.323493, 8.3370991 ], [ 5.3215027, 8.3410788 ], [ 5.3228297, 8.3443956 ], [ 5.3274732, 8.3490391 ], [ 5.3307896, 8.3556728 ], [ 5.3419008, 8.3752413 ], [ 5.3477054, 8.3827047 ], [ 5.359314, 8.3951426 ], [ 5.372581, 8.4092388 ], [ 5.3808727, 8.4208469 ], [ 5.3966274, 8.4382601 ], [ 5.4123821, 8.4523563 ], [ 5.4331117, 8.4664526 ], [ 5.4463787, 8.4797192 ], [ 5.4535136, 8.4862909 ], [ 5.4657235, 8.4923954 ], [ 5.4765773, 8.4998579 ], [ 5.4901438, 8.5181732 ], [ 5.4962492, 8.529026 ], [ 5.5030322, 8.5344534 ], [ 5.5104942, 8.5351315 ], [ 5.514564, 8.5351315 ], [ 5.5132074, 8.5385227 ], [ 5.5241098, 8.5369301 ], [ 5.5338693, 8.5304232 ], [ 5.5444422, 8.5231037 ], [ 5.5542021, 8.5125303 ], [ 5.5745344, 8.5060244 ], [ 5.5883603, 8.4970779 ], [ 5.5997467, 8.488945 ], [ 5.6428518, 8.4629192 ], [ 5.6433915, 8.4628056 ], [ 5.6583042, 8.4596663 ], [ 5.6881766, 8.4528513 ], [ 5.7046623, 8.4458399 ], [ 5.7120571, 8.4446077 ], [ 5.7193022, 8.4434004 ], [ 5.7485809, 8.4377069 ], [ 5.7664733, 8.432827 ], [ 5.7827396, 8.427947 ], [ 5.7908726, 8.4271345 ], [ 5.805512, 8.4255075 ], [ 5.8185248, 8.4271345 ], [ 5.8290977, 8.426321 ], [ 5.8494301, 8.4222546 ], [ 5.865696, 8.423068 ], [ 5.8835888, 8.423068 ], [ 5.8974147, 8.423068 ], [ 5.9120541, 8.4238806 ], [ 5.9250669, 8.4181881 ], [ 5.9429598, 8.4124947 ], [ 5.9449661, 8.4119046 ], [ 5.9567857, 8.4084282 ], [ 5.978745, 8.4051752 ], [ 5.9909444, 8.4019222 ], [ 6.0137167, 8.4002953 ], [ 6.0202231, 8.3978558 ], [ 6.040556, 8.3929758 ], [ 6.0600748, 8.3937883 ], [ 6.0779676, 8.3978558 ], [ 6.0816155, 8.4008954 ], [ 6.0826578, 8.4017639 ], [ 6.097487, 8.4141216 ], [ 6.1113129, 8.431201 ], [ 6.1131248, 8.4414682 ], [ 6.1137528, 8.4450264 ], [ 6.1137528, 8.4612932 ], [ 6.1170058, 8.4832516 ], [ 6.1194458, 8.5109043 ], [ 6.1235123, 8.5385561 ], [ 6.1251392, 8.5556355 ], [ 6.1332722, 8.5678349 ], [ 6.1397786, 8.5808477 ], [ 6.1479115, 8.5963011 ], [ 6.154418, 8.6174469 ], [ 6.1625509, 8.6377792 ], [ 6.1698704, 8.6629915 ], [ 6.1836967, 8.6865768 ], [ 6.2085361, 8.7323751 ], [ 6.2245126, 8.7351141 ], [ 6.2465749, 8.7387915 ], [ 6.2677174, 8.7387915 ], [ 6.302649, 8.7277603 ], [ 6.3153198, 8.7189455 ], [ 6.3237915, 8.7130518 ], [ 6.3430958, 8.6974249 ], [ 6.3587227, 8.6845551 ], [ 6.3665402, 8.6736977 ], [ 6.3752694, 8.6615744 ], [ 6.3798656, 8.6487045 ], [ 6.3840966, 8.6442623 ], [ 6.3982506, 8.6294003 ], [ 6.4056044, 8.6119347 ], [ 6.4080372, 8.6030149 ], [ 6.4081398, 8.6026388 ], [ 6.4137353, 8.5821215 ], [ 6.4138775, 8.5816002 ], [ 6.4140049, 8.5812286 ], [ 6.4235982, 8.5532483 ], [ 6.4247547, 8.549875 ], [ 6.4249086, 8.5494261 ], [ 6.4249899, 8.5490428 ], [ 6.4291101, 8.5296194 ], [ 6.4291179, 8.529583 ], [ 6.4307228, 8.5220169 ], [ 6.4311976, 8.5197731 ], [ 6.4312607, 8.5194808 ], [ 6.4313436, 8.5190907 ], [ 6.4314575, 8.5187154 ], [ 6.4323021, 8.5159331 ], [ 6.4323073, 8.515916 ], [ 6.4391565, 8.4933518 ], [ 6.4490405, 8.4601064 ], [ 6.4490961, 8.4599209 ], [ 6.4492688, 8.4593401 ], [ 6.4494303, 8.4588556 ], [ 6.4528225, 8.4486784 ], [ 6.4529457, 8.4483089 ], [ 6.4532588, 8.4480766 ], [ 6.4811261, 8.4274007 ], [ 6.4814425, 8.427166 ], [ 6.4819435, 8.426832 ], [ 6.4830904, 8.4260674 ], [ 6.4988978, 8.4155294 ], [ 6.5031611, 8.4126872 ], [ 6.5035043, 8.4124584 ], [ 6.5037205, 8.4121341 ], [ 6.5124776, 8.3989979 ], [ 6.5126967, 8.3986692 ], [ 6.5150949, 8.3949222 ], [ 6.5155145, 8.3942665 ], [ 6.5271947, 8.3760168 ], [ 6.5274048, 8.3756886 ], [ 6.5277812, 8.3755872 ], [ 6.5416275, 8.3718595 ], [ 6.5509289, 8.3693554 ], [ 6.5513053, 8.3692541 ], [ 6.55153, 8.3689358 ], [ 6.5544869, 8.3647465 ], [ 6.5620384, 8.3540478 ], [ 6.562336, 8.3536263 ], [ 6.5626398, 8.3532617 ], [ 6.5670127, 8.348014 ], [ 6.5700123, 8.3444145 ], [ 6.5712196, 8.3429657 ], [ 6.5715284, 8.3425951 ], [ 6.5717521, 8.342272 ], [ 6.5726048, 8.3410406 ], [ 6.5772197, 8.3343753 ], [ 6.5795803, 8.3309659 ], [ 6.579802, 8.3306456 ], [ 6.5801427, 8.3304563 ], [ 6.5877147, 8.3262491 ], [ 6.5880752, 8.3260489 ], [ 6.588482, 8.325981 ], [ 6.5926541, 8.3252856 ], [ 6.5987213, 8.3242743 ], [ 6.5991058, 8.3242102 ], [ 6.599368, 8.3239218 ], [ 6.6080361, 8.3143868 ], [ 6.6082983, 8.3140984 ], [ 6.6084351, 8.3137336 ], [ 6.6105113, 8.3081973 ], [ 6.6136771, 8.2997555 ], [ 6.6138139, 8.2993908 ], [ 6.6140995, 8.2991256 ], [ 6.6217976, 8.2919771 ], [ 6.6263976, 8.2877055 ], [ 6.6266832, 8.2874403 ], [ 6.6268331, 8.2870807 ], [ 6.6285467, 8.2829683 ], [ 6.6310721, 8.2769077 ], [ 6.6312795, 8.2764101 ], [ 6.6314843, 8.2759819 ], [ 6.6412226, 8.2556198 ], [ 6.6413913, 8.2552671 ], [ 6.6416464, 8.2549696 ], [ 6.6446571, 8.2514571 ], [ 6.657545, 8.2364213 ], [ 6.657938, 8.2359629 ], [ 6.6582579, 8.2355629 ], [ 6.6603832, 8.2329063 ], [ 6.665021, 8.2271089 ], [ 6.6652918, 8.2267704 ], [ 6.6656272, 8.226435 ], [ 6.6714505, 8.2206121 ], [ 6.6717267, 8.220336 ], [ 6.6720601, 8.2201308 ], [ 6.6760674, 8.2176644 ], [ 6.6814735, 8.2143377 ], [ 6.6822379, 8.2138696 ], [ 6.6830053, 8.2134042 ], [ 6.6831739, 8.213299 ], [ 6.6833449, 8.2131854 ], [ 6.6836767, 8.2129812 ], [ 6.6838304, 8.212614 ], [ 6.6838721, 8.2125249 ], [ 6.6839513, 8.2123433 ], [ 6.6844058, 8.2112359 ], [ 6.6847876, 8.2103157 ], [ 6.6873156, 8.204249 ], [ 6.6880086, 8.2025954 ], [ 6.6880837, 8.2024112 ], [ 6.6881143, 8.2023317 ], [ 6.688273, 8.201951 ], [ 6.6883185, 8.2015414 ], [ 6.6890144, 8.1952788 ], [ 6.6900665, 8.18581 ], [ 6.6901116, 8.1854038 ], [ 6.6902739, 8.1850647 ], [ 6.6903209, 8.1849568 ], [ 6.6904036, 8.1847774 ], [ 6.6908698, 8.1837849 ], [ 6.6909551, 8.1836072 ], [ 6.6909984, 8.1835211 ], [ 6.6910425, 8.1834384 ], [ 6.6910919, 8.1833544 ], [ 6.6912584, 8.1830063 ], [ 6.6915755, 8.1832328 ], [ 6.6994452, 8.1888536 ], [ 6.6997638, 8.1890812 ], [ 6.7000553, 8.1893727 ], [ 6.7123577, 8.2016756 ], [ 6.7126331, 8.201951 ], [ 6.7126591, 8.2023401 ], [ 6.7139709, 8.2220214 ], [ 6.714444, 8.2291185 ], [ 6.7144713, 8.2295284 ], [ 6.7145723, 8.2299071 ], [ 6.7180483, 8.24294 ], [ 6.7181487, 8.2433167 ], [ 6.7245831, 8.2497511 ], [ 6.7273925, 8.2524488 ], [ 6.7199869, 8.2745714 ], [ 6.7202753, 8.2748336 ], [ 6.7298103, 8.2835017 ], [ 6.7300987, 8.2837639 ], [ 6.7303327, 8.283452 ], [ 6.7394067, 8.2713533 ], [ 6.7421487, 8.2676969 ], [ 6.7427474, 8.2668964 ], [ 6.7434629, 8.2659318 ], [ 6.7435848, 8.2657746 ], [ 6.7436472, 8.2656981 ], [ 6.7438874, 8.265379 ], [ 6.7442563, 8.265256 ], [ 6.7490341, 8.2636632 ], [ 6.749403, 8.2635403 ], [ 6.7497249, 8.2637694 ], [ 6.7498063, 8.2638203 ], [ 6.7499679, 8.26393 ], [ 6.7501288, 8.2640451 ], [ 6.750771, 8.264513 ], [ 6.7513336, 8.2649181 ], [ 6.7552755, 8.2677331 ], [ 6.7554012, 8.2678241 ], [ 6.7558379, 8.268136 ], [ 6.7561547, 8.2684001 ], [ 6.7610536, 8.2724832 ], [ 6.761353, 8.2727327 ], [ 6.7614319, 8.2731235 ], [ 6.7614556, 8.2732189 ], [ 6.7614774, 8.2733153 ], [ 6.7615176, 8.2735103 ], [ 6.7617455, 8.2746878 ], [ 6.7621354, 8.2766444 ], [ 6.7631108, 8.2815208 ], [ 6.7631917, 8.2819252 ], [ 6.7631239, 8.2823321 ], [ 6.7614171, 8.2925718 ], [ 6.761353, 8.2929564 ], [ 6.7610098, 8.2931411 ], [ 6.7565226, 8.2955573 ], [ 6.7497462, 8.299206 ], [ 6.749403, 8.2993908 ], [ 6.7495259, 8.2997597 ], [ 6.7511183, 8.304537 ], [ 6.7512412, 8.3049059 ], [ 6.751636, 8.3049462 ], [ 6.7517299, 8.3049623 ], [ 6.7518261, 8.3049755 ], [ 6.7519237, 8.3049869 ], [ 6.7521216, 8.3050064 ], [ 6.7529188, 8.3050775 ], [ 6.7536129, 8.305144 ], [ 6.7568358, 8.3054654 ], [ 6.7600466, 8.3057865 ], [ 6.7604342, 8.3058252 ], [ 6.7608128, 8.3059875 ], [ 6.7608911, 8.3060184 ], [ 6.7611654, 8.306134 ], [ 6.7620779, 8.3065284 ], [ 6.7627194, 8.3068032 ], [ 6.7640195, 8.3073524 ], [ 6.7641914, 8.30743 ], [ 6.7642745, 8.3074713 ], [ 6.7643378, 8.3075062 ], [ 6.7649732, 8.3077708 ], [ 6.7665233, 8.3084353 ], [ 6.7668686, 8.3085833 ], [ 6.7669803, 8.3089557 ], [ 6.7695081, 8.3173806 ], [ 6.7696266, 8.3177757 ], [ 6.769656, 8.3181869 ], [ 6.7697389, 8.3193482 ], [ 6.7700132, 8.3231906 ], [ 6.7705178, 8.3302572 ], [ 6.7705455, 8.3306456 ], [ 6.77069, 8.3310068 ], [ 6.7722396, 8.33488 ], [ 6.7723842, 8.3352413 ], [ 6.7727323, 8.3350673 ], [ 6.7767231, 8.3330721 ], [ 6.7793898, 8.331739 ], [ 6.7797379, 8.3315649 ], [ 6.7801487, 8.3315307 ], [ 6.7903818, 8.3306778 ], [ 6.7907691, 8.3306456 ], [ 6.791081, 8.3308795 ], [ 6.7947261, 8.3336132 ], [ 6.8014205, 8.3386339 ], [ 6.8018003, 8.3389187 ], [ 6.8023008, 8.3392524 ], [ 6.8024583, 8.3393583 ], [ 6.8040315, 8.3404061 ], [ 6.8069916, 8.3423793 ], [ 6.8073154, 8.3425951 ], [ 6.8074628, 8.3429625 ], [ 6.8075416, 8.3431421 ], [ 6.8076526, 8.3434173 ], [ 6.8079425, 8.3441562 ], [ 6.8081984, 8.3448009 ], [ 6.8094633, 8.3479645 ], [ 6.8101099, 8.3495815 ], [ 6.8107318, 8.3511461 ], [ 6.8108476, 8.3514248 ], [ 6.8109927, 8.3517876 ], [ 6.8112504, 8.3521097 ], [ 6.8113022, 8.3521783 ], [ 6.8114254, 8.352335 ], [ 6.8123634, 8.3535018 ], [ 6.8133823, 8.354775 ], [ 6.814296, 8.3559166 ], [ 6.8143496, 8.3559842 ], [ 6.8146696, 8.3563843 ], [ 6.8149937, 8.3568164 ], [ 6.8178312, 8.3605998 ], [ 6.8227075, 8.3671018 ], [ 6.8229427, 8.3674154 ], [ 6.8231201, 8.3677697 ], [ 6.8232549, 8.3680343 ], [ 6.8239618, 8.3694531 ], [ 6.8252907, 8.3721112 ], [ 6.8257786, 8.3730856 ], [ 6.826313, 8.3741478 ], [ 6.8264449, 8.3744197 ], [ 6.8266196, 8.3747692 ], [ 6.8266965, 8.3751534 ], [ 6.8270699, 8.3770203 ], [ 6.8271858, 8.3776053 ], [ 6.8273778, 8.3785846 ], [ 6.8274175, 8.3787799 ], [ 6.8274604, 8.378974 ], [ 6.827539, 8.379365 ], [ 6.8277575, 8.3797147 ], [ 6.8302333, 8.3836764 ], [ 6.8319166, 8.38637 ], [ 6.8321352, 8.3867197 ], [ 6.8324269, 8.3870114 ], [ 6.8341548, 8.3887391 ], [ 6.8364557, 8.3910397 ], [ 6.8367314, 8.3913155 ], [ 6.8367955, 8.3917 ], [ 6.8375867, 8.396447 ], [ 6.8376508, 8.3968315 ], [ 6.837375, 8.3971072 ], [ 6.8333303, 8.4011516 ], [ 6.8330545, 8.4014273 ], [ 6.8326787, 8.401553 ], [ 6.8325864, 8.4015872 ], [ 6.8323998, 8.4016521 ], [ 6.8308925, 8.4021486 ], [ 6.8296562, 8.4025602 ], [ 6.8251507, 8.4040622 ], [ 6.8247814, 8.4041853 ], [ 6.8249747, 8.4045235 ], [ 6.8294465, 8.412349 ], [ 6.8319419, 8.416716 ], [ 6.8321352, 8.4170542 ], [ 6.8321352, 8.4174441 ], [ 6.8321352, 8.4249396 ], [ 6.8321352, 8.4253273 ], [ 6.8318596, 8.425603 ], [ 6.8280913, 8.4293717 ], [ 6.825056, 8.4324074 ], [ 6.8247814, 8.432682 ], [ 6.8248298, 8.4330689 ], [ 6.825925, 8.441831 ], [ 6.827261, 8.4525185 ], [ 6.8278416, 8.4571635 ], [ 6.8278899, 8.45755 ], [ 6.8335376, 8.4576161 ], [ 6.8343902, 8.457626 ], [ 6.8872841, 8.4582445 ], [ 6.9211164, 8.45864 ], [ 6.940822, 8.4588704 ], [ 6.9475626, 8.4561211 ], [ 6.9774162, 8.4439446 ], [ 6.9808149, 8.4437277 ], [ 6.9695625, 8.3913155 ], [ 6.9576125, 8.3747692 ], [ 6.9560239, 8.3612674 ], [ 6.9557738, 8.3591423 ], [ 6.9511776, 8.3462725 ], [ 6.9419851, 8.3223724 ], [ 6.9346313, 8.3104219 ], [ 6.9346313, 8.3012295 ], [ 6.9402273, 8.2940345 ], [ 6.9410658, 8.2929564 ], [ 6.9530163, 8.2837639 ], [ 6.9594507, 8.2754908 ], [ 6.9649663, 8.265379 ], [ 6.9704819, 8.2451553 ], [ 6.9723206, 8.2249317 ], [ 6.9796743, 8.2111435 ], [ 6.9925437, 8.1955156 ], [ 7.0008173, 8.1817274 ], [ 7.0026555, 8.1670189 ], [ 6.9971399, 8.1532307 ], [ 6.9833512, 8.1155415 ], [ 6.9870286, 8.0925598 ], [ 6.9870286, 8.0778522 ], [ 6.9773765, 8.0502748 ], [ 6.9709415, 8.0300512 ], [ 6.9722073, 8.0241636 ], [ 6.9727802, 8.0199394 ], [ 6.9792147, 8.0006351 ], [ 6.9782953, 7.9859276 ], [ 6.9684822, 7.968754 ], [ 6.9635878, 7.9601884 ], [ 6.9608297, 7.9427228 ], [ 6.9571528, 7.9298534 ], [ 6.9525566, 7.9179034 ], [ 6.9543953, 7.9050336 ], [ 6.9599104, 7.8967605 ], [ 6.9626684, 7.887568 ], [ 6.9635878, 7.8792949 ], [ 6.9665465, 7.8790612 ], [ 6.9794745, 7.8876801 ], [ 7.006289, 7.9025235 ], [ 7.0354972, 7.9231133 ], [ 7.0564861, 7.9341458 ], [ 7.0693778, 7.940922 ], [ 7.0728455, 7.9427447 ], [ 7.1178551, 7.9590249 ], [ 7.1959033, 7.9930215 ], [ 7.2538409, 8.0150471 ], [ 7.289005, 8.0222102 ], [ 7.3055539, 8.0276695 ], [ 7.3931785, 8.0439497 ], [ 7.4044852, 8.0450531 ], [ 7.4324422, 8.0477806 ], [ 7.445787, 8.046949 ], [ 7.4509954, 8.0486065 ], [ 7.458526, 8.0466125 ], [ 7.5001475, 8.0471333 ], [ 7.5053449, 8.0471983 ], [ 7.5427103, 8.0431213 ], [ 7.5834727, 8.0376863 ], [ 7.6249142, 8.0295343 ], [ 7.6656761, 8.0193434 ], [ 7.67515, 8.0171146 ], [ 7.6772256, 8.0166264 ], [ 7.6768379, 8.0144711 ], [ 7.672782, 7.9919398 ], [ 7.6711111, 7.9826579 ], [ 7.6662985, 7.9489685 ], [ 7.6643176, 7.935102 ], [ 7.6636381, 7.905889 ], [ 7.6697526, 7.8848286 ], [ 7.6928511, 7.8386312 ], [ 7.6934285, 7.8378761 ], [ 7.7281785, 7.7924342 ], [ 7.7446904, 7.7686567 ], [ 7.7501696, 7.7517896 ], [ 7.7526355, 7.7441988 ], [ 7.7526355, 7.7081923 ], [ 7.7539945, 7.6796589 ], [ 7.754674, 7.6613159 ], [ 7.754674, 7.6477284 ], [ 7.7524481, 7.6477828 ], [ 7.7524481, 7.6397312 ], [ 7.7410432, 7.6387316 ], [ 7.7325541, 7.6390134 ], [ 7.7242557, 7.6204962 ], [ 7.7262583, 7.6144665 ], [ 7.731816, 7.6127036 ], [ 7.7362046, 7.5993812 ], [ 7.7368376, 7.5917865 ], [ 7.7368774, 7.5852725 ], [ 7.736677, 7.5781859 ], [ 7.7377669, 7.567204 ], [ 7.7374077, 7.5390833 ], [ 7.7557831, 7.5303941 ], [ 7.7552984, 7.5236086 ], [ 7.7545323, 7.5128841 ], [ 7.7553663, 7.5049629 ], [ 7.7585784, 7.492456 ], [ 7.7595353, 7.4786983 ], [ 7.7607861, 7.4516001 ], [ 7.7622577, 7.4436897 ], [ 7.7641211, 7.4336734 ], [ 7.76829, 7.4270029 ], [ 7.7762113, 7.4194989 ], [ 7.7928872, 7.4149132 ], [ 7.7921889, 7.4098641 ], [ 7.7993788, 7.401134 ], [ 7.8001166, 7.3917775 ], [ 7.7983971, 7.3852456 ], [ 7.7971226, 7.3759522 ], [ 7.8026083, 7.3642883 ], [ 7.7983445, 7.3570832 ], [ 7.7957815, 7.3518836 ], [ 7.7939234, 7.3481141 ], [ 7.7899144, 7.3416278 ], [ 7.771497, 7.3071342 ], [ 7.7703208, 7.3049313 ], [ 7.7686951, 7.3018866 ], [ 7.7791295, 7.300683 ], [ 7.789969, 7.296514 ], [ 7.7970562, 7.2935953 ], [ 7.8011553, 7.2926017 ], [ 7.7958674, 7.2743426 ], [ 7.7942194, 7.2686522 ], [ 7.7970562, 7.2331452 ], [ 7.7938652, 7.2258253 ], [ 7.789969, 7.216886 ], [ 7.7848704, 7.2149887 ], [ 7.7793899, 7.2089166 ], [ 7.7677559, 7.2062735 ], [ 7.7499271, 7.1993181 ], [ 7.7293244, 7.1927042 ], [ 7.7215507, 7.1870631 ], [ 7.7180492, 7.1836 ], [ 7.7100737, 7.1831123 ], [ 7.702966, 7.1889636 ], [ 7.6910222, 7.1918299 ], [ 7.6819234, 7.1854494 ], [ 7.672369, 7.1737027 ], [ 7.6430812, 7.1582817 ], [ 7.6354515, 7.1471285 ], [ 7.6373839, 7.1326728 ], [ 7.6361461, 7.1313662 ], [ 7.6333143, 7.1283769 ], [ 7.62988, 7.1247516 ], [ 7.6219587, 7.1126618 ], [ 7.6186237, 7.1080756 ], [ 7.6144858, 7.1037082 ], [ 7.6111193, 7.1001549 ], [ 7.6019478, 7.0905662 ], [ 7.5994463, 7.0793099 ], [ 7.600697, 7.0730562 ], [ 7.6023645, 7.0622168 ], [ 7.6036153, 7.0530453 ], [ 7.6069503, 7.0413718 ], [ 7.6098685, 7.0322003 ], [ 7.6111193, 7.0271974 ], [ 7.6102858, 7.0234451 ], [ 7.6077843, 7.0176086 ], [ 7.6058744, 7.0172505 ], [ 7.6011138, 7.0163579 ], [ 7.5931926, 7.0180259 ], [ 7.5806856, 7.0271974 ], [ 7.543582, 7.0401211 ], [ 7.5305138, 7.0322781 ], [ 7.5256672, 7.035913 ], [ 7.5204503, 7.0431366 ], [ 7.5154266, 7.0500927 ], [ 7.5031401, 7.0674382 ], [ 7.5020347, 7.0689988 ], [ 7.4910064, 7.0737252 ], [ 7.4825197, 7.0819431 ], [ 7.4765025, 7.0850841 ], [ 7.470174, 7.0868459 ], [ 7.4703914, 7.0939086 ], [ 7.464719, 7.0892338 ], [ 7.461025, 7.092657 ], [ 7.4604068, 7.0931527 ], [ 7.4574178, 7.0959132 ], [ 7.4501955, 7.0967753 ], [ 7.442401, 7.0959247 ], [ 7.4385729, 7.0975002 ], [ 7.4358674, 7.0977513 ], [ 7.4355291, 7.0978189 ], [ 7.434791, 7.0983009 ], [ 7.4343422, 7.0992169 ], [ 7.4328115, 7.100651 ], [ 7.4318517, 7.1015502 ], [ 7.4297395, 7.1010586 ], [ 7.4286047, 7.1011028 ], [ 7.4260792, 7.1007975 ], [ 7.4245065, 7.1003041 ], [ 7.4166723, 7.0974316 ], [ 7.4069043, 7.0957383 ], [ 7.4042441, 7.0952772 ], [ 7.4005899, 7.0948822 ], [ 7.3966081, 7.0936457 ], [ 7.3944124, 7.092896 ], [ 7.3867621, 7.0861162 ], [ 7.3879452, 7.0816262 ], [ 7.3884672, 7.0756231 ], [ 7.3889207, 7.0704074 ], [ 7.3893857, 7.0650601 ], [ 7.3859035, 7.0551934 ], [ 7.3846593, 7.0516682 ], [ 7.3791823, 7.0473256 ], [ 7.3704796, 7.0414271 ], [ 7.366837, 7.039866 ], [ 7.3539367, 7.0343375 ], [ 7.3524848, 7.0337824 ], [ 7.3513716, 7.0333567 ], [ 7.3271532, 7.0240965 ], [ 7.3163904, 7.0105014 ], [ 7.3121858, 7.0051904 ], [ 7.3101439, 7.0039997 ], [ 7.2932796, 6.9941621 ], [ 7.2578306, 6.9807701 ], [ 7.2560373, 6.979791 ], [ 7.2438171, 6.9728145 ], [ 7.2412882, 6.9713173 ], [ 7.2381368, 6.9579253 ], [ 7.2389245, 6.9413824 ], [ 7.2351745, 6.9333517 ], [ 7.2329166, 6.9297304 ], [ 7.2281566, 6.929007 ], [ 7.2177772, 6.9253394 ], [ 7.2154213, 6.9154566 ], [ 7.2101151, 6.9035004 ], [ 7.2028209, 6.9023052 ], [ 7.1877208, 6.901207 ], [ 7.1822953, 6.8990369 ], [ 7.1759043, 6.8964806 ], [ 7.1731631, 6.8906429 ], [ 7.1719975, 6.8876522 ], [ 7.1701444, 6.8838627 ], [ 7.1562104, 6.8830886 ], [ 7.1522717, 6.875999 ], [ 7.1467576, 6.8641825 ], [ 7.1341534, 6.8547297 ], [ 7.1199737, 6.8484273 ], [ 7.112884, 6.837399 ], [ 7.1010675, 6.8287334 ], [ 7.0931902, 6.8192806 ], [ 7.0813737, 6.8003745 ], [ 7.0742841, 6.798799 ], [ 7.0601044, 6.7948604 ], [ 7.055378, 6.7861948 ], [ 7.0437786, 6.7834656 ], [ 7.041986, 6.7830439 ], [ 7.03017, 6.7854071 ], [ 7.0207167, 6.7893457 ], [ 7.0049615, 6.7854071 ], [ 6.9999816, 6.7854071 ], [ 6.9907823, 6.7854071 ], [ 6.9860948, 6.7885851 ], [ 6.9853367, 6.798799 ], [ 6.9870009, 6.8066764 ], [ 6.9877294, 6.812959 ], [ 6.9899945, 6.8232193 ], [ 6.9899945, 6.8334603 ], [ 6.9868431, 6.8444886 ], [ 6.978178, 6.8500028 ], [ 6.9632106, 6.8444886 ], [ 6.9608173, 6.840899 ], [ 6.9521823, 6.8279457 ], [ 6.9523992, 6.8080941 ], [ 6.9447653, 6.7986507 ], [ 6.9402311, 6.7951912 ], [ 6.9387514, 6.7939592 ], [ 6.9386665, 6.7938892 ], [ 6.9374716, 6.792879 ], [ 6.9354562, 6.791175 ], [ 6.9351998, 6.7909571 ], [ 6.929928, 6.7864873 ], [ 6.9285359, 6.7871414 ], [ 6.9254349, 6.7925414 ], [ 6.923388, 6.8019781 ], [ 6.9120574, 6.8006706 ], [ 6.8968048, 6.7923908 ], [ 6.888476, 6.7787616 ], [ 6.8848209, 6.7727804 ], [ 6.8830776, 6.7684226 ], [ 6.878284, 6.7605782 ], [ 6.8682609, 6.7553487 ], [ 6.8609656, 6.7534291 ], [ 6.8599811, 6.75317 ], [ 6.8530083, 6.7444539 ], [ 6.8421135, 6.7305088 ], [ 6.8338337, 6.722229 ], [ 6.8194528, 6.7126417 ], [ 6.8063793, 6.7030544 ], [ 6.8002782, 6.6934671 ], [ 6.7989707, 6.679522 ], [ 6.800714, 6.6699348 ], [ 6.8028932, 6.6564255 ], [ 6.8031055, 6.6545146 ], [ 6.8050718, 6.6368151 ], [ 6.8089938, 6.6158972 ], [ 6.8089938, 6.5980301 ], [ 6.8085714, 6.5893658 ], [ 6.8081226, 6.5801625 ], [ 6.7933059, 6.5723186 ], [ 6.7641082, 6.5636029 ], [ 6.7157363, 6.5603483 ], [ 6.6720332, 6.5675243 ], [ 6.6616958, 6.5579284 ] ] ] } }
]
}
