{
"type": "FeatureCollection",
"name": "Plateau_state_boundary",
"crs": { "type": "name", "properties": { "name": "urn:ogc:def:crs:OGC:1.3:CRS84" } },
"features": [
{ "type": "Feature", "properties": { "state_code": "PL", "state_name": "Plateau", "cap_city": "Jos", "geo_zone": "NCZ" }, "geometry": { "type": "Polygon", "coordinates": [ [ [ 9.616836, 8.3718477 ], [ 9.6155354, 8.3743868 ], [ 9.6109568, 8.3786712 ], [ 9.6050148, 8.385843 ], [ 9.601554, 8.3927173 ], [ 9.5983801, 8.393364 ], [ 9.5945339, 8.3931932 ], [ 9.5885878, 8.3967915 ], [ 9.5809956, 8.3977184 ], [ 9.573288, 8.3986597 ], [ 9.5691814, 8.3997898 ], [ 9.5592337, 8.4015121 ], [ 9.5571508, 8.402318 ], [ 9.5538635, 8.4035892 ], [ 9.5494928, 8.4052792 ], [ 9.5452299, 8.4076748 ], [ 9.5415564, 8.4098682 ], [ 9.5395498, 8.4110661 ], [ 9.5322609, 8.4141207 ], [ 9.5279999, 8.4153357 ], [ 9.5202904, 8.4149551 ], [ 9.5109634, 8.4182243 ], [ 9.5016603, 8.4203434 ], [ 9.4920666, 8.4235996 ], [ 9.4888363, 8.424696 ], [ 9.4841604, 8.4269056 ], [ 9.4701834, 8.4312353 ], [ 9.4631701, 8.4345503 ], [ 9.45613, 8.4390163 ], [ 9.4512941, 8.4413021 ], [ 9.4421034, 8.4456463 ], [ 9.436223, 8.4501343 ], [ 9.426897, 8.4534035 ], [ 9.4161711, 8.4586325 ], [ 9.4082127, 8.4640713 ], [ 9.3964081, 8.4693384 ], [ 9.3885384, 8.4728498 ], [ 9.3805799, 8.4782877 ], [ 9.3727999, 8.4798727 ], [ 9.3669424, 8.4815435 ], [ 9.3553162, 8.4829578 ], [ 9.3515596, 8.4808607 ], [ 9.3438683, 8.4805193 ], [ 9.3375009, 8.4786199 ], [ 9.3362656, 8.4782515 ], [ 9.3351345, 8.4776198 ], [ 9.3287535, 8.4740562 ], [ 9.3212337, 8.4697475 ], [ 9.3116245, 8.4694347 ], [ 9.307869, 8.4673376 ], [ 9.3049498, 8.4666166 ], [ 9.2983437, 8.4649839 ], [ 9.290741, 8.4627161 ], [ 9.288908, 8.4607039 ], [ 9.2778608, 8.4629523 ], [ 9.2733469, 8.463871 ], [ 9.2679291, 8.4614159 ], [ 9.2663309, 8.4606916 ], [ 9.2639103, 8.4595947 ], [ 9.261899, 8.4614353 ], [ 9.2542973, 8.4591665 ], [ 9.2446823, 8.4587402 ], [ 9.2331457, 8.4582281 ], [ 9.2158403, 8.4574595 ], [ 9.2119942, 8.4572887 ], [ 9.2022905, 8.4587889 ], [ 9.1846294, 8.4657269 ], [ 9.1826172, 8.4675674 ], [ 9.1773574, 8.463702 ], [ 9.1770267, 8.463459 ], [ 9.1749258, 8.467226 ], [ 9.1653466, 8.4613167 ], [ 9.1580658, 8.4568253 ], [ 9.1562319, 8.454813 ], [ 9.1524754, 8.4527159 ], [ 9.1488972, 8.4467659 ], [ 9.1458197, 8.4433889 ], [ 9.1385984, 8.4383135 ], [ 9.1367559, 8.4354458 ], [ 9.1323938, 8.4286575 ], [ 9.128459, 8.4304142 ], [ 9.1275368, 8.4337387 ], [ 9.1244345, 8.4340963 ], [ 9.1215267, 8.4382248 ], [ 9.1184282, 8.4381638 ], [ 9.1112432, 8.4380226 ], [ 9.1010933, 8.4388514 ], [ 9.0971584, 8.4406071 ], [ 9.0968027, 8.4483137 ], [ 9.0984583, 8.4541788 ], [ 9.1002026, 8.4581165 ], [ 9.1031885, 8.4642334 ], [ 9.1021233, 8.4698629 ], [ 9.1014128, 8.4736147 ], [ 9.0953665, 8.4779882 ], [ 9.0883036, 8.4836025 ], [ 9.0832872, 8.4863234 ], [ 9.0801096, 8.4880466 ], [ 9.0757923, 8.4859905 ], [ 9.0699348, 8.4876614 ], [ 9.0663528, 8.4925203 ], [ 9.0637932, 8.4934807 ], [ 9.0598745, 8.4968672 ], [ 9.0595188, 8.5045729 ], [ 9.0591621, 8.5122805 ], [ 9.0541306, 8.5160713 ], [ 9.0493603, 8.5196657 ], [ 9.0433807, 8.5183554 ], [ 9.0402002, 8.514884 ], [ 9.0367765, 8.5125151 ], [ 9.0321541, 8.513011 ], [ 9.0263853, 8.5127544 ], [ 9.0245354, 8.5119842 ], [ 9.0194702, 8.5098753 ], [ 9.0136366, 8.512063 ], [ 9.0102768, 8.5152721 ], [ 9.0051451, 8.5137405 ], [ 8.9972754, 8.5172529 ], [ 8.9960029, 8.5184173 ], [ 8.9947386, 8.5195742 ], [ 8.9906187, 8.5211058 ], [ 8.9882574, 8.5228853 ], [ 8.98246, 8.5272541 ], [ 8.9790039, 8.5305843 ], [ 8.9751444, 8.5375061 ], [ 8.974966, 8.5413589 ], [ 8.9784555, 8.5492363 ], [ 8.9840202, 8.5532312 ], [ 8.9840946, 8.5581608 ], [ 8.9860687, 8.5619802 ], [ 8.9873829, 8.5645227 ], [ 8.9863052, 8.5664682 ], [ 8.983222, 8.5720348 ], [ 8.9824123, 8.5743046 ], [ 8.9810219, 8.5782032 ], [ 8.98318, 8.5851135 ], [ 8.9834318, 8.5965805 ], [ 8.9805298, 8.6011734 ], [ 8.9777946, 8.6051912 ], [ 8.9700232, 8.6055708 ], [ 8.9641666, 8.6089077 ], [ 8.9583101, 8.6122456 ], [ 8.9511766, 8.6213121 ], [ 8.9497566, 8.6339426 ], [ 8.9473238, 8.6396484 ], [ 8.9444981, 8.6466675 ], [ 8.942276, 8.6521893 ], [ 8.9417887, 8.6555834 ], [ 8.9410238, 8.659605 ], [ 8.9404593, 8.6625748 ], [ 8.9402437, 8.6672306 ], [ 8.9347992, 8.667881 ], [ 8.9322195, 8.6714039 ], [ 8.9292183, 8.6731777 ], [ 8.9257069, 8.6772003 ], [ 8.9215488, 8.6803738 ], [ 8.9198265, 8.6816883 ], [ 8.9195142, 8.6819267 ], [ 8.9139471, 8.6861763 ], [ 8.9118061, 8.6987715 ], [ 8.910738, 8.7029934 ], [ 8.9076567, 8.7102194 ], [ 8.9028368, 8.7193308 ], [ 8.8968868, 8.7272692 ], [ 8.8921366, 8.7329302 ], [ 8.8919334, 8.7403536 ], [ 8.8960333, 8.7482796 ], [ 8.8993711, 8.7509708 ], [ 8.9007753, 8.7521031 ], [ 8.9044104, 8.7550344 ], [ 8.9046898, 8.7581253 ], [ 8.9010887, 8.7639465 ], [ 8.9005547, 8.775507 ], [ 8.903883, 8.7791595 ], [ 8.9078894, 8.783555 ], [ 8.9155808, 8.7838964 ], [ 8.9191513, 8.7832956 ], [ 8.9239664, 8.782485 ], [ 8.9290409, 8.7844934 ], [ 8.9327097, 8.7855082 ], [ 8.9383268, 8.7936726 ], [ 8.9451466, 8.7995596 ], [ 8.9490337, 8.8104782 ], [ 8.9505968, 8.8157768 ], [ 8.9509687, 8.824192 ], [ 8.9510994, 8.8271427 ], [ 8.9500656, 8.8298292 ], [ 8.9497986, 8.8356075 ], [ 8.9553003, 8.8416443 ], [ 8.9570446, 8.845583 ], [ 8.9587898, 8.8495216 ], [ 8.9663916, 8.8517895 ], [ 8.9739943, 8.8540573 ], [ 8.9856195, 8.852643 ], [ 8.9895544, 8.8508873 ], [ 8.9959004, 8.8524554 ], [ 8.9990797, 8.853241 ], [ 9.0030146, 8.8514853 ], [ 9.0106163, 8.8537531 ], [ 9.0162067, 8.8578625 ], [ 9.0180407, 8.8598738 ], [ 9.0235415, 8.8659096 ], [ 9.025197, 8.8717747 ], [ 9.0267639, 8.8795662 ], [ 9.0285082, 8.8835049 ], [ 9.0318203, 8.8952351 ], [ 9.0390654, 8.9052095 ], [ 9.0408106, 8.9091482 ], [ 9.0444775, 8.9131718 ], [ 9.0443001, 8.9170246 ], [ 9.0459557, 8.9228897 ], [ 9.0459926, 8.9229302 ], [ 9.0532904, 8.9309368 ], [ 9.0625477, 8.9390707 ], [ 9.0682278, 8.9412527 ], [ 9.0718946, 8.9452772 ], [ 9.0734615, 8.9530687 ], [ 9.0711823, 8.9606895 ], [ 9.0690813, 8.9644585 ], [ 9.0670691, 8.9662981 ], [ 9.068368, 8.9798698 ], [ 9.0707378, 8.9878407 ], [ 9.0698366, 8.991869 ], [ 9.0697536, 8.9954176 ], [ 9.0690813, 8.9977522 ], [ 9.0669632, 9.0079269 ], [ 9.0627413, 9.0182285 ], [ 9.060154, 9.0205975 ], [ 9.0567055, 9.0237532 ], [ 9.054117, 9.0249081 ], [ 9.0527706, 9.0255089 ], [ 9.0495567, 9.0261641 ], [ 9.0449905, 9.0270939 ], [ 9.0392218, 9.0268373 ], [ 9.0277739, 9.0243988 ], [ 9.0239277, 9.0242281 ], [ 9.0201712, 9.022131 ], [ 9.016325, 9.0219774 ], [ 9.0122776, 9.0217886 ], [ 9.0088921, 9.0207663 ], [ 9.0043364, 9.021059 ], [ 9.0009432, 9.0212774 ], [ 8.9986687, 9.0203695 ], [ 8.9952927, 9.0190229 ], [ 8.9926491, 9.018939 ], [ 8.9894953, 9.0188389 ], [ 8.983613, 9.0176945 ], [ 8.977663, 9.0165367 ], [ 8.9742012, 9.0162287 ], [ 8.9695272, 9.0160208 ], [ 8.9668159, 9.0150423 ], [ 8.9637499, 9.0157642 ], [ 8.960742, 9.0156307 ], [ 8.9548845, 9.0173016 ], [ 8.951128, 9.0152044 ], [ 8.9430208, 9.0155811 ], [ 8.9298878, 9.0161905 ], [ 8.924119, 9.0159359 ], [ 8.9181768, 9.0171465 ], [ 8.9163389, 9.0175209 ], [ 8.9084779, 9.0191047 ], [ 8.9073925, 9.0193234 ], [ 8.8981647, 9.0210485 ], [ 8.8949203, 9.0223608 ], [ 8.8883924, 9.0220718 ], [ 8.885355, 9.0216093 ], [ 8.8755131, 9.0253601 ], [ 8.8658104, 9.0268602 ], [ 8.8619642, 9.0266895 ], [ 8.8502493, 9.0300303 ], [ 8.8444815, 9.0297737 ], [ 8.8387127, 9.0295181 ], [ 8.8245478, 9.0306567 ], [ 8.8232412, 9.0307617 ], [ 8.8117256, 9.030302 ], [ 8.8060303, 9.0327415 ], [ 8.7981548, 9.0315781 ], [ 8.7940416, 9.0371866 ], [ 8.7899284, 9.0427961 ], [ 8.7897501, 9.046649 ], [ 8.7894831, 9.0524282 ], [ 8.7930613, 9.0583792 ], [ 8.7948055, 9.0623178 ], [ 8.7965508, 9.0662556 ], [ 8.7994385, 9.0711565 ], [ 8.7956648, 9.0756388 ], [ 8.7936402, 9.079828 ], [ 8.7919025, 9.0834236 ], [ 8.7841234, 9.0850096 ], [ 8.7801886, 9.0867653 ], [ 8.7781763, 9.0886059 ], [ 8.7741528, 9.092288 ], [ 8.7688465, 9.0953054 ], [ 8.7685061, 9.0978632 ], [ 8.7640934, 9.1014948 ], [ 8.7636806, 9.1018725 ], [ 8.7600689, 9.1051769 ], [ 8.7616252, 9.1131962 ], [ 8.7613673, 9.1187691 ], [ 8.7612791, 9.1206741 ], [ 8.7647686, 9.1285505 ], [ 8.7675228, 9.1362858 ], [ 8.7679014, 9.1441355 ], [ 8.7677107, 9.1499157 ], [ 8.7675533, 9.1574202 ], [ 8.7655054, 9.1636892 ], [ 8.7649984, 9.1652412 ], [ 8.7610645, 9.166997 ], [ 8.7550278, 9.1725206 ], [ 8.748992, 9.1780434 ], [ 8.7462244, 9.1786442 ], [ 8.7393961, 9.1801252 ], [ 8.7334318, 9.1812143 ], [ 8.7217169, 9.1845551 ], [ 8.7120132, 9.1860542 ], [ 8.7080784, 9.1878099 ], [ 8.6963329, 9.1870966 ], [ 8.690773, 9.1870422 ], [ 8.6870155, 9.1849442 ], [ 8.681159, 9.186615 ], [ 8.6773129, 9.1864443 ], [ 8.6732893, 9.1901264 ], [ 8.6675215, 9.1898699 ], [ 8.663497, 9.193553 ], [ 8.6614847, 9.1953936 ], [ 8.6578074, 9.2076893 ], [ 8.671452, 9.2512674 ], [ 8.6789837, 9.275322 ], [ 8.6843958, 9.2832832 ], [ 8.6848285, 9.2854357 ], [ 8.6874858, 9.2986543 ], [ 8.6875286, 9.2988672 ], [ 8.6892738, 9.3028049 ], [ 8.6926737, 9.3126087 ], [ 8.6980858, 9.3205709 ], [ 8.6941509, 9.3223276 ], [ 8.6939726, 9.3261805 ], [ 8.6914263, 9.3395805 ], [ 8.689415, 9.3414221 ], [ 8.6907139, 9.3549929 ], [ 8.6907248, 9.3550174 ], [ 8.6924582, 9.3589315 ], [ 8.695858, 9.3687344 ], [ 8.69561, 9.3740826 ], [ 8.6954126, 9.3783674 ], [ 8.6923045, 9.3826065 ], [ 8.6913004, 9.383976 ], [ 8.6872768, 9.3876591 ], [ 8.683342, 9.3894148 ], [ 8.6794071, 9.3911715 ], [ 8.6695251, 9.3965235 ], [ 8.6648903, 9.393177 ], [ 8.6625164, 9.3934004 ], [ 8.6561546, 9.3939991 ], [ 8.6546667, 9.3943022 ], [ 8.6483746, 9.3955841 ], [ 8.6481119, 9.3958245 ], [ 8.6423388, 9.4011078 ], [ 8.6382256, 9.4067163 ], [ 8.6366824, 9.4094839 ], [ 8.6361246, 9.4104843 ], [ 8.6318331, 9.4199457 ], [ 8.6278992, 9.4217024 ], [ 8.626935, 9.423431 ], [ 8.6236963, 9.4292374 ], [ 8.6196728, 9.4329205 ], [ 8.6176615, 9.434761 ], [ 8.6131916, 9.4480762 ], [ 8.6095911, 9.4560142 ], [ 8.6089001, 9.4575377 ], [ 8.6084128, 9.4599084 ], [ 8.6081162, 9.4613514 ], [ 8.6075706, 9.4640017 ], [ 8.6051178, 9.4667425 ], [ 8.6024189, 9.4726944 ], [ 8.6022425, 9.4765472 ], [ 8.6026598, 9.4825497 ], [ 8.6014238, 9.4833937 ], [ 8.5955294, 9.4859255 ], [ 8.5882088, 9.4893013 ], [ 8.5843109, 9.4932396 ], [ 8.5801277, 9.4955839 ], [ 8.5777509, 9.4992409 ], [ 8.5754692, 9.5094615 ], [ 8.5743284, 9.5136809 ], [ 8.568529, 9.5196817 ], [ 8.5657719, 9.5274639 ], [ 8.5616838, 9.5405902 ], [ 8.5562859, 9.5536575 ], [ 8.5543991, 9.5646277 ], [ 8.5536499, 9.568984 ], [ 8.5550385, 9.5806293 ], [ 8.5556763, 9.5815678 ], [ 8.5604506, 9.5885916 ], [ 8.5622845, 9.5906029 ], [ 8.5658636, 9.5965538 ], [ 8.5669053, 9.6034108 ], [ 8.5669842, 9.6139774 ], [ 8.5656164, 9.624315 ], [ 8.570386, 9.640007 ], [ 8.574191, 9.6484095 ], [ 8.5778135, 9.6564092 ], [ 8.5852029, 9.6643768 ], [ 8.5833044, 9.6659993 ], [ 8.5833784, 9.6689456 ], [ 8.5800596, 9.6727344 ], [ 8.5816226, 9.6758185 ], [ 8.5858884, 9.677026 ], [ 8.5923497, 9.6779967 ], [ 8.5990265, 9.6787267 ], [ 8.6006908, 9.6856993 ], [ 8.6018786, 9.6906756 ], [ 8.6018786, 9.7061383 ], [ 8.6015221, 9.715275 ], [ 8.5988601, 9.727924 ], [ 8.61064, 9.7412604 ], [ 8.6154652, 9.7423964 ], [ 8.6167534, 9.7447899 ], [ 8.6181095, 9.7455729 ], [ 8.6194297, 9.7463351 ], [ 8.6336089, 9.7546302 ], [ 8.635091, 9.7576019 ], [ 8.6439479, 9.7753601 ], [ 8.64339, 9.7892423 ], [ 8.6425218, 9.8108439 ], [ 8.6426602, 9.8164331 ], [ 8.6428784, 9.8252471 ], [ 8.6433351, 9.829297 ], [ 8.6439479, 9.8347318 ], [ 8.6421653, 9.8449188 ], [ 8.6413057, 9.8482006 ], [ 8.6393132, 9.855808 ], [ 8.6346924, 9.8668341 ], [ 8.6381494, 9.8856614 ], [ 8.6447942, 9.9010256 ], [ 8.6465989, 9.9051987 ], [ 8.6649236, 9.9639022 ], [ 8.6730299, 9.9874125 ], [ 8.6766081, 9.9933624 ], [ 8.6799192, 10.0050898 ], [ 8.6796438, 10.0110515 ], [ 8.6794739, 10.0147305 ], [ 8.673796, 10.0675306 ], [ 8.6722683, 10.0817368 ], [ 8.6723304, 10.0931375 ], [ 8.6724109, 10.1079449 ], [ 8.6721257, 10.1191762 ], [ 8.6716504, 10.1246046 ], [ 8.6721257, 10.1288162 ], [ 8.6731715, 10.1376135 ], [ 8.6720307, 10.1462235 ], [ 8.6782008, 10.1686176 ], [ 8.6808723, 10.1770115 ], [ 8.6832957, 10.1929569 ], [ 8.6860728, 10.2112304 ], [ 8.6892182, 10.2135594 ], [ 8.6991261, 10.2208956 ], [ 8.7007697, 10.2220428 ], [ 8.7125313, 10.2302518 ], [ 8.7245332, 10.2436476 ], [ 8.728684, 10.2482804 ], [ 8.7299501, 10.2543521 ], [ 8.7325507, 10.2668239 ], [ 8.7342771, 10.2751033 ], [ 8.7385921, 10.2779703 ], [ 8.7424374, 10.2781401 ], [ 8.7495618, 10.2809482 ], [ 8.7572626, 10.2801063 ], [ 8.7634233, 10.2813691 ], [ 8.7692417, 10.2851577 ], [ 8.7833598, 10.2902932 ], [ 8.7907184, 10.2934924 ], [ 8.7945688, 10.2975333 ], [ 8.7954835, 10.2986904 ], [ 8.7957667, 10.2990487 ], [ 8.7992749, 10.3029212 ], [ 8.7992749, 10.3083932 ], [ 8.800045, 10.316138 ], [ 8.7992749, 10.3228725 ], [ 8.8002161, 10.3298593 ], [ 8.8010931, 10.3384765 ], [ 8.8040252, 10.345443 ], [ 8.8050948, 10.3556138 ], [ 8.8107991, 10.3678885 ], [ 8.8183184, 10.3804462 ], [ 8.8192996, 10.3794082 ], [ 8.8197274, 10.3776782 ], [ 8.8206306, 10.3754805 ], [ 8.82315, 10.3742181 ], [ 8.8322294, 10.3718333 ], [ 8.8380761, 10.3703772 ], [ 8.8486525, 10.366125 ], [ 8.8516742, 10.3643825 ], [ 8.8701925, 10.3576345 ], [ 8.8871098, 10.3579197 ], [ 8.8928814, 10.3580666 ], [ 8.8986931, 10.3582144 ], [ 8.9039183, 10.3569517 ], [ 8.9060266, 10.3564418 ], [ 8.9073763, 10.3561153 ], [ 8.9080137, 10.3559939 ], [ 8.9122858, 10.3551798 ], [ 8.9179268, 10.3535716 ], [ 8.9181433, 10.3535099 ], [ 8.9205332, 10.3536157 ], [ 8.9258347, 10.3538504 ], [ 8.9297705, 10.3520899 ], [ 8.9357157, 10.3485003 ], [ 8.9362908, 10.347003 ], [ 8.9379053, 10.3428001 ], [ 8.940205, 10.3377305 ], [ 8.9421968, 10.3333397 ], [ 8.94631, 10.3277302 ], [ 8.948678, 10.3181801 ], [ 8.9527912, 10.3125801 ], [ 8.9547551, 10.3090561 ], [ 8.9548922, 10.3088102 ], [ 8.95477, 10.3075351 ], [ 8.9535923, 10.2952404 ], [ 8.9538603, 10.2894602 ], [ 8.9446917, 10.2793999 ], [ 8.9416787, 10.2760924 ], [ 8.9391899, 10.2733603 ], [ 8.9356117, 10.2674103 ], [ 8.9357901, 10.2635603 ], [ 8.9360571, 10.2577801 ], [ 8.9364138, 10.2500696 ], [ 8.9346685, 10.24613 ], [ 8.9312468, 10.2451115 ], [ 8.931448, 10.2421408 ], [ 8.9309798, 10.2384941 ], [ 8.9302691, 10.2329588 ], [ 8.9297018, 10.2285404 ], [ 8.9298801, 10.2246904 ], [ 8.9299961, 10.2221795 ], [ 8.9301472, 10.2189102 ], [ 8.9303265, 10.2150497 ], [ 8.9382849, 10.20961 ], [ 8.9422188, 10.20786 ], [ 8.9461546, 10.2061005 ], [ 8.951067, 10.2031155 ], [ 8.9600592, 10.1970701 ], [ 8.9659166, 10.1954002 ], [ 8.9679289, 10.1935596 ], [ 8.973876, 10.1899595 ], [ 8.9759151, 10.1846611 ], [ 8.9760656, 10.1842699 ], [ 8.9781666, 10.1805 ], [ 8.9766893, 10.1707802 ], [ 8.9768212, 10.1679281 ], [ 8.9771347, 10.16115 ], [ 8.9735575, 10.1552 ], [ 8.9723614, 10.1525016 ], [ 8.9718113, 10.1512604 ], [ 8.9719896, 10.1473999 ], [ 8.972168, 10.1435499 ], [ 8.9743576, 10.1378603 ], [ 8.972702, 10.1319904 ], [ 8.9727386, 10.1312016 ], [ 8.9728804, 10.1281405 ], [ 8.9712248, 10.1222696 ], [ 8.9705293, 10.1164394 ], [ 8.9698362, 10.11063 ], [ 8.968092, 10.1066904 ], [ 8.9682351, 10.1035999 ], [ 8.9682703, 10.1028404 ], [ 8.9520929, 10.0930118 ], [ 8.9392883, 10.0330629 ], [ 8.9386859, 10.0265672 ], [ 8.9437625, 10.0263491 ], [ 8.9458778, 10.0226745 ], [ 8.947185, 10.0196153 ], [ 8.9495229, 10.0198537 ], [ 8.9499184, 10.0132186 ], [ 8.9515103, 10.0110855 ], [ 8.9620866, 10.0052097 ], [ 8.9774609, 9.9874163 ], [ 8.9999059, 9.9886356 ], [ 9.0027754, 9.9887914 ], [ 9.0012697, 10.0002186 ], [ 9.0019828, 10.0008271 ], [ 9.0014599, 10.0018102 ], [ 9.0006435, 10.0029655 ], [ 9.0003666, 10.0048063 ], [ 9.0008419, 10.005368 ], [ 9.0004616, 10.0059766 ], [ 9.0007646, 10.0071243 ], [ 9.0013892, 10.0072857 ], [ 9.0012697, 10.008879 ], [ 9.0021245, 10.0096099 ], [ 9.0030286, 10.0106578 ], [ 9.0040268, 10.0116877 ], [ 9.0050251, 10.0119218 ], [ 9.0058332, 10.012109 ], [ 9.005548, 10.0129984 ], [ 9.0054054, 10.0141687 ], [ 9.0064077, 10.0155851 ], [ 9.0069265, 10.0194116 ], [ 9.0063086, 10.0208159 ], [ 9.0055004, 10.021799 ], [ 9.0051202, 10.0231097 ], [ 9.0049776, 10.0250289 ], [ 9.0040268, 10.0259651 ], [ 9.0037892, 10.0271821 ], [ 9.0043596, 10.0279779 ], [ 9.0048349, 10.0291482 ], [ 9.0039793, 10.0298035 ], [ 9.0035515, 10.0309737 ], [ 9.0038842, 10.0317695 ], [ 9.0045973, 10.031395 ], [ 9.0054529, 10.0315354 ], [ 9.0062135, 10.0317227 ], [ 9.0071642, 10.0327525 ], [ 9.0071935, 10.0327752 ], [ 9.0116801, 10.0299439 ], [ 9.0171943, 10.025497 ], [ 9.0201415, 10.0232969 ], [ 9.0228035, 10.0219394 ], [ 9.0272244, 10.0209096 ], [ 9.0308846, 10.0180073 ], [ 9.0356858, 10.0161816 ], [ 9.0416794, 10.0153599 ], [ 9.0417539, 10.0153632 ], [ 9.0474482, 10.0156202 ], [ 9.0550499, 10.01789 ], [ 9.0587362, 10.0180527 ], [ 9.0588961, 10.0180597 ], [ 9.0627327, 10.0195325 ], [ 9.0645752, 10.0202398 ], [ 9.0683317, 10.0223398 ], [ 9.0687401, 10.0223575 ], [ 9.0737555, 10.0225748 ], [ 9.0740995, 10.0225897 ], [ 9.076328, 10.0230647 ], [ 9.0771757, 10.0232454 ], [ 9.0855484, 10.0250301 ], [ 9.0887767, 10.0275986 ], [ 9.0921043, 10.0298923 ], [ 9.096656, 10.0334055 ], [ 9.0985929, 10.0352168 ], [ 9.1002567, 10.0366913 ], [ 9.1011717, 10.0380838 ], [ 9.1032209, 10.0399895 ], [ 9.1041665, 10.0408689 ], [ 9.1089303, 10.0440442 ], [ 9.1109879, 10.0466847 ], [ 9.1126552, 10.0490136 ], [ 9.114565, 10.0516813 ], [ 9.118558, 10.0560226 ], [ 9.1240025, 10.0580307 ], [ 9.1280414, 10.0586437 ], [ 9.1327831, 10.0562683 ], [ 9.1354452, 10.0549578 ], [ 9.1358576, 10.0546724 ], [ 9.1385231, 10.0528281 ], [ 9.1421834, 10.0512718 ], [ 9.1445958, 10.0494697 ], [ 9.1488384, 10.0480772 ], [ 9.1534138, 10.0466028 ], [ 9.1553271, 10.0460294 ], [ 9.1595763, 10.0461681 ], [ 9.1646026, 10.0464489 ], [ 9.1629794, 10.0419021 ], [ 9.1830006, 10.0382713 ], [ 9.1925432, 10.0402192 ], [ 9.1990794, 10.0430861 ], [ 9.2031199, 10.0453095 ], [ 9.210797, 10.0483864 ], [ 9.2297073, 10.0482473 ], [ 9.2438695, 10.0389062 ], [ 9.2445243, 10.0381244 ], [ 9.2547592, 10.0300999 ], [ 9.2512684, 10.0246696 ], [ 9.2142896, 10.0175036 ], [ 9.2196735, 9.970485 ], [ 9.2243929, 9.9292686 ], [ 9.2304818, 9.876092 ], [ 9.2321356, 9.8616489 ], [ 9.2457184, 9.8479274 ], [ 9.2720696, 9.8461446 ], [ 9.2712688, 9.8421602 ], [ 9.2676907, 9.8362103 ], [ 9.2660351, 9.8303452 ], [ 9.2631107, 9.8237441 ], [ 9.2608004, 9.8185291 ], [ 9.2552996, 9.8124933 ], [ 9.254329, 9.8103034 ], [ 9.2535543, 9.8085556 ], [ 9.2478719, 9.804782 ], [ 9.2442083, 9.8023491 ], [ 9.2400344, 9.795662 ], [ 9.2375018, 9.7919064 ], [ 9.2357759, 9.7896133 ], [ 9.2343783, 9.78842 ], [ 9.2305691, 9.7844927 ], [ 9.2272999, 9.7813911 ], [ 9.2232506, 9.777172 ], [ 9.2187203, 9.7732557 ], [ 9.2120146, 9.7729207 ], [ 9.2093603, 9.7700842 ], [ 9.2025915, 9.7715958 ], [ 9.1987021, 9.772741 ], [ 9.1983151, 9.7726609 ], [ 9.1926814, 9.7714952 ], [ 9.1879482, 9.7689629 ], [ 9.184103, 9.7687922 ], [ 9.1743752, 9.7646866 ], [ 9.1743526, 9.764677 ], [ 9.1689873, 9.7623291 ], [ 9.1652308, 9.760232 ], [ 9.1609387, 9.7585825 ], [ 9.1595507, 9.758049 ], [ 9.1557951, 9.7559519 ], [ 9.1535266, 9.7534634 ], [ 9.1521273, 9.7519283 ], [ 9.150383, 9.7479897 ], [ 9.1521835, 9.7447615 ], [ 9.1576229, 9.7408245 ], [ 9.1604424, 9.7387838 ], [ 9.1631251, 9.7369508 ], [ 9.1655124, 9.7353196 ], [ 9.1684008, 9.733346 ], [ 9.173604, 9.7305269 ], [ 9.1782818, 9.727993 ], [ 9.1815465, 9.7250061 ], [ 9.1823063, 9.7243109 ], [ 9.1864185, 9.7187014 ], [ 9.1886603, 9.7165062 ], [ 9.1915337, 9.7143351 ], [ 9.195071, 9.7138233 ], [ 9.1981354, 9.7084732 ], [ 9.1991516, 9.7074289 ], [ 9.2025146, 9.7039728 ], [ 9.2038824, 9.7034602 ], [ 9.2075757, 9.6938323 ], [ 9.2103137, 9.6873601 ], [ 9.2165619, 9.6839675 ], [ 9.2238172, 9.6825551 ], [ 9.228588, 9.6823166 ], [ 9.2600106, 9.6807454 ], [ 9.2671502, 9.6803884 ], [ 9.2770705, 9.691371 ], [ 9.2806832, 9.695307 ], [ 9.2831551, 9.6968064 ], [ 9.2846332, 9.6980524 ], [ 9.2878323, 9.692317 ], [ 9.2882012, 9.6908292 ], [ 9.2902002, 9.6827688 ], [ 9.290556, 9.6750631 ], [ 9.2944908, 9.6733074 ], [ 9.2939293, 9.6713183 ], [ 9.2915907, 9.6630333 ], [ 9.2911797, 9.6615772 ], [ 9.291358, 9.6577244 ], [ 9.2877798, 9.6517735 ], [ 9.2842903, 9.6438971 ], [ 9.2844116, 9.641277 ], [ 9.2844687, 9.6400433 ], [ 9.2845802, 9.6361122 ], [ 9.2876701, 9.6334515 ], [ 9.2905626, 9.6305475 ], [ 9.2927875, 9.6283139 ], [ 9.2954159, 9.6256752 ], [ 9.2972898, 9.6248493 ], [ 9.2897551, 9.6143584 ], [ 9.2928392, 9.6134977 ], [ 9.3153343, 9.60722 ], [ 9.3267638, 9.5961874 ], [ 9.3271551, 9.5957508 ], [ 9.3092923, 9.5989409 ], [ 9.3049536, 9.5763311 ], [ 9.3040319, 9.5715281 ], [ 9.3141768, 9.5630526 ], [ 9.3405431, 9.541025 ], [ 9.3510262, 9.532267 ], [ 9.3974037, 9.5311584 ], [ 9.3990804, 9.526798 ], [ 9.3995934, 9.5254641 ], [ 9.4017839, 9.5197697 ], [ 9.402051, 9.5139904 ], [ 9.4035081, 9.5102027 ], [ 9.4055534, 9.5070955 ], [ 9.4254453, 9.4768765 ], [ 9.4643555, 9.4757487 ], [ 9.4759715, 9.475412 ], [ 9.4842388, 9.4751723 ], [ 9.5474676, 9.4733396 ], [ 9.5691052, 9.4727124 ], [ 9.5899217, 9.511536 ], [ 9.5830132, 9.5174083 ], [ 9.576726, 9.5227524 ], [ 9.573856, 9.5249564 ], [ 9.5704652, 9.5291204 ], [ 9.5700488, 9.5343552 ], [ 9.5739749, 9.537627 ], [ 9.5781561, 9.5427967 ], [ 9.5792205, 9.5516729 ], [ 9.5799057, 9.5497503 ], [ 9.5815297, 9.5485457 ], [ 9.5837426, 9.5462704 ], [ 9.5859734, 9.5449022 ], [ 9.5866872, 9.5440991 ], [ 9.5882111, 9.5443436 ], [ 9.5884538, 9.5443825 ], [ 9.5902861, 9.5436827 ], [ 9.5921897, 9.5438017 ], [ 9.5955804, 9.545616 ], [ 9.5973115, 9.5458034 ], [ 9.5988581, 9.546547 ], [ 9.6019217, 9.5461603 ], [ 9.6032601, 9.5470526 ], [ 9.6042119, 9.5462793 ], [ 9.6059965, 9.5460414 ], [ 9.607216, 9.5469931 ], [ 9.6095062, 9.5477367 ], [ 9.6108447, 9.5488967 ], [ 9.6119154, 9.547588 ], [ 9.6141164, 9.5469634 ], [ 9.615098, 9.5446137 ], [ 9.6182507, 9.5446434 ], [ 9.6200948, 9.5433347 ], [ 9.6202435, 9.5413717 ], [ 9.6230394, 9.5392896 ], [ 9.6233963, 9.5381891 ], [ 9.6241994, 9.5371779 ], [ 9.6253296, 9.5371481 ], [ 9.6265194, 9.5383379 ], [ 9.6276794, 9.537862 ], [ 9.6270845, 9.5360476 ], [ 9.6274414, 9.5346199 ], [ 9.6312188, 9.5323297 ], [ 9.635829, 9.5303072 ], [ 9.6376136, 9.5281954 ], [ 9.6410936, 9.5263216 ], [ 9.6455426, 9.5239868 ], [ 9.6483786, 9.5222872 ], [ 9.6497696, 9.5228925 ], [ 9.651007, 9.5219027 ], [ 9.6544904, 9.5249801 ], [ 9.6562739, 9.5280379 ], [ 9.6586069, 9.5317259 ], [ 9.6635952, 9.5342912 ], [ 9.6678583, 9.5353236 ], [ 9.6728266, 9.5334391 ], [ 9.6781375, 9.5308121 ], [ 9.6832201, 9.5257867 ], [ 9.6875602, 9.523788 ], [ 9.6923417, 9.5224703 ], [ 9.6945, 9.5231142 ], [ 9.6959, 9.5237493 ], [ 9.7039356, 9.5273943 ], [ 9.7135506, 9.5278215 ], [ 9.7326002, 9.5325279 ], [ 9.7443539, 9.5315941 ], [ 9.745687, 9.5314882 ], [ 9.760876, 9.5387092 ], [ 9.7638304, 9.5401137 ], [ 9.7776995, 9.5512047 ], [ 9.7814522, 9.5559382 ], [ 9.782815, 9.5565453 ], [ 9.7842722, 9.5571928 ], [ 9.7882127, 9.5615089 ], [ 9.7939072, 9.5677462 ], [ 9.801538, 9.5769953 ], [ 9.8032851, 9.5791129 ], [ 9.8077584, 9.5799955 ], [ 9.8242092, 9.5832415 ], [ 9.8283733, 9.5935029 ], [ 9.8314253, 9.5986021 ], [ 9.838871, 9.6012392 ], [ 9.854934, 9.6031308 ], [ 9.9019879, 9.608672 ], [ 9.9067755, 9.6117916 ], [ 9.9131605, 9.6111532 ], [ 9.9159517, 9.6108742 ], [ 9.9355977, 9.6051028 ], [ 9.9421697, 9.6090512 ], [ 9.9444017, 9.609457 ], [ 9.9549265, 9.6113708 ], [ 9.9622917, 9.61271 ], [ 9.9806442, 9.6232624 ], [ 9.9911976, 9.6384029 ], [ 9.9916497, 9.6456392 ], [ 9.9916563, 9.6457443 ], [ 9.9856911, 9.6627197 ], [ 9.9785189, 9.6808066 ], [ 9.9751387, 9.6893311 ], [ 9.9725896, 9.6995277 ], [ 9.9843219, 9.7129814 ], [ 9.9921528, 9.7168407 ], [ 9.9956165, 9.7181766 ], [ 10.0057063, 9.7175828 ], [ 10.0135371, 9.7190671 ], [ 10.0334155, 9.7260434 ], [ 10.0388369, 9.7270824 ], [ 10.0418488, 9.7304963 ], [ 10.0468184, 9.7288635 ], [ 10.0484749, 9.7260434 ], [ 10.0520925, 9.7272209 ], [ 10.0534445, 9.729012 ], [ 10.0576611, 9.729012 ], [ 10.0627813, 9.7301994 ], [ 10.0682027, 9.7309415 ], [ 10.071076, 9.7308454 ], [ 10.0757324, 9.7291604 ], [ 10.0793467, 9.7263403 ], [ 10.0849186, 9.7247075 ], [ 10.0865216, 9.7245592 ], [ 10.0880955, 9.7244136 ], [ 10.0916954, 9.7247075 ], [ 10.0959596, 9.7242278 ], [ 10.0983215, 9.7220358 ], [ 10.1005804, 9.7221842 ], [ 10.1032911, 9.7195124 ], [ 10.1048692, 9.7105118 ], [ 10.1036964, 9.7009117 ], [ 10.1041403, 9.7000058 ], [ 10.108759, 9.6905797 ], [ 10.1123955, 9.6917043 ], [ 10.1145346, 9.6928992 ], [ 10.115319, 9.6936723 ], [ 10.1169589, 9.6938129 ], [ 10.1185305, 9.6936256 ], [ 10.1206667, 9.6934614 ], [ 10.121665, 9.6941643 ], [ 10.1228772, 9.69311 ], [ 10.1299363, 9.6922666 ], [ 10.1317902, 9.6923369 ], [ 10.133858, 9.6928289 ], [ 10.1376371, 9.6923369 ], [ 10.1401327, 9.6922666 ], [ 10.1431988, 9.692126 ], [ 10.1447675, 9.6913529 ], [ 10.1464973, 9.6903055 ], [ 10.1473799, 9.6880102 ], [ 10.1500136, 9.6806963 ], [ 10.1522444, 9.678763 ], [ 10.1568546, 9.6801014 ], [ 10.1614648, 9.6832245 ], [ 10.1651827, 9.6841168 ], [ 10.1736595, 9.6854552 ], [ 10.180203, 9.6872398 ], [ 10.1907619, 9.6890244 ], [ 10.1995362, 9.689768 ], [ 10.2068233, 9.6884295 ], [ 10.2147052, 9.6894706 ], [ 10.2212487, 9.6891731 ], [ 10.2264538, 9.6900654 ], [ 10.2318076, 9.689768 ], [ 10.2392434, 9.6888757 ], [ 10.2475715, 9.6878347 ], [ 10.2516017, 9.6879031 ], [ 10.2573838, 9.6876176 ], [ 10.2605961, 9.6871179 ], [ 10.2623807, 9.6848336 ], [ 10.2632373, 9.683049 ], [ 10.2648791, 9.6812644 ], [ 10.2673776, 9.6810502 ], [ 10.2718748, 9.6779094 ], [ 10.2755867, 9.6754823 ], [ 10.2810119, 9.6725556 ], [ 10.2866512, 9.6697716 ], [ 10.2923917, 9.6655302 ], [ 10.2935814, 9.6624072 ], [ 10.295366, 9.6582431 ], [ 10.3002736, 9.6527406 ], [ 10.3118232, 9.6440402 ], [ 10.31322, 9.6432505 ], [ 10.3182922, 9.6420401 ], [ 10.3268604, 9.6399956 ], [ 10.3278153, 9.6391216 ], [ 10.3286166, 9.6383882 ], [ 10.3389301, 9.6289482 ], [ 10.3429604, 9.6252661 ], [ 10.3469801, 9.6215839 ], [ 10.3471082, 9.6214666 ], [ 10.3530102, 9.6160603 ], [ 10.3557989, 9.6141547 ], [ 10.3609695, 9.6106215 ], [ 10.3649101, 9.6088657 ], [ 10.3728704, 9.6034279 ], [ 10.3827496, 9.5980749 ], [ 10.39254, 9.5946493 ], [ 10.3984003, 9.5929775 ], [ 10.4042597, 9.5913086 ], [ 10.4102001, 9.5877113 ], [ 10.4161501, 9.5841141 ], [ 10.4190564, 9.5842428 ], [ 10.4238396, 9.5844545 ], [ 10.4258499, 9.5826149 ], [ 10.4297895, 9.5808592 ], [ 10.4396696, 9.5755062 ], [ 10.44946, 9.5720797 ], [ 10.4533997, 9.5703239 ], [ 10.4593401, 9.5667276 ], [ 10.4617574, 9.5645169 ], [ 10.4653797, 9.561204 ], [ 10.4790201, 9.5579481 ], [ 10.4829502, 9.5561924 ], [ 10.4889002, 9.5525951 ], [ 10.4912701, 9.5430479 ], [ 10.4930187, 9.5399109 ], [ 10.49547, 9.5355129 ], [ 10.49967, 9.527977 ], [ 10.5036001, 9.5262213 ], [ 10.5067614, 9.523333 ], [ 10.5076303, 9.5225391 ], [ 10.5127904, 9.5110438 ], [ 10.5229589, 9.488391 ], [ 10.5270708, 9.4872825 ], [ 10.5409638, 9.483537 ], [ 10.5416574, 9.4822884 ], [ 10.5462103, 9.4798508 ], [ 10.5482197, 9.4780092 ], [ 10.55618, 9.4725714 ], [ 10.5602102, 9.4688892 ], [ 10.5661497, 9.465292 ], [ 10.5703497, 9.457757 ], [ 10.5725403, 9.4520626 ], [ 10.5746498, 9.4482946 ], [ 10.5766602, 9.446454 ], [ 10.5789404, 9.4388332 ], [ 10.5799198, 9.4176407 ], [ 10.5783501, 9.4098492 ], [ 10.5691795, 9.3997898 ], [ 10.5635901, 9.3956804 ], [ 10.5602739, 9.3901691 ], [ 10.56001, 9.3897305 ], [ 10.5603704, 9.3820238 ], [ 10.5643902, 9.3783417 ], [ 10.5665798, 9.3726473 ], [ 10.5612602, 9.3627586 ], [ 10.5614405, 9.3589058 ], [ 10.5616198, 9.355052 ], [ 10.5598698, 9.3511133 ], [ 10.5679197, 9.343749 ], [ 10.5701103, 9.3380547 ], [ 10.5705981, 9.337608 ], [ 10.5741301, 9.3343735 ], [ 10.5780697, 9.3326168 ], [ 10.5802603, 9.3269224 ], [ 10.5806103, 9.3192158 ], [ 10.5808802, 9.3134375 ], [ 10.57932, 9.305645 ], [ 10.5794897, 9.3017921 ], [ 10.5777502, 9.2978535 ], [ 10.5781002, 9.2901468 ], [ 10.5783701, 9.2843676 ], [ 10.57864, 9.2785873 ], [ 10.5789099, 9.2728081 ], [ 10.5792599, 9.2651024 ], [ 10.5798903, 9.2516155 ], [ 10.5801497, 9.2458363 ], [ 10.5881996, 9.238472 ], [ 10.59231, 9.2328634 ], [ 10.5966101, 9.2234011 ], [ 10.5968704, 9.2176218 ], [ 10.59723, 9.2099152 ], [ 10.5957193, 9.2082548 ], [ 10.5996571, 9.2011604 ], [ 10.5999069, 9.195981 ], [ 10.610487, 9.189537 ], [ 10.6142368, 9.182785 ], [ 10.6103697, 9.1757498 ], [ 10.6120024, 9.1702929 ], [ 10.6118507, 9.1681871 ], [ 10.6125736, 9.1656294 ], [ 10.6151104, 9.1566553 ], [ 10.6135397, 9.1488638 ], [ 10.6177397, 9.1413279 ], [ 10.6256104, 9.1378164 ], [ 10.6296396, 9.1341343 ], [ 10.6336603, 9.1304522 ], [ 10.6357603, 9.1266842 ], [ 10.6361198, 9.1189775 ], [ 10.6326303, 9.1111012 ], [ 10.6252899, 9.1030531 ], [ 10.6235504, 9.0991144 ], [ 10.6225252, 9.0940294 ], [ 10.6272469, 9.0899448 ], [ 10.6325474, 9.0867233 ], [ 10.6379166, 9.0817738 ], [ 10.6400366, 9.0732193 ], [ 10.6371975, 9.0609808 ], [ 10.6374474, 9.0558014 ], [ 10.634367, 9.0487423 ], [ 10.632906, 9.0434866 ], [ 10.6298161, 9.0364275 ], [ 10.6300659, 9.0312481 ], [ 10.6272259, 9.0190096 ], [ 10.6227016, 9.0139942 ], [ 10.6191759, 9.0082674 ], [ 10.6143074, 9.0028572 ], [ 10.6095057, 8.9957209 ], [ 10.6062574, 8.992115 ], [ 10.6031656, 8.9850559 ], [ 10.5967464, 8.9761162 ], [ 10.5882874, 8.9740057 ], [ 10.5797462, 8.9736214 ], [ 10.574707, 8.9716644 ], [ 10.570555, 8.9706286 ], [ 10.570524, 8.9706209 ], [ 10.5686614, 8.9701563 ], [ 10.566247, 8.9695539 ], [ 10.5559874, 8.9690924 ], [ 10.5440273, 8.9685545 ], [ 10.5388269, 8.9700499 ], [ 10.5302773, 8.9696655 ], [ 10.5183964, 8.9674015 ], [ 10.5097771, 8.9687433 ], [ 10.5017504, 8.966029 ], [ 10.4979773, 8.9647532 ], [ 10.489356, 8.966095 ], [ 10.479187, 8.9639072 ], [ 10.468936, 8.9634466 ], [ 10.4638071, 8.9632158 ], [ 10.450386, 8.9574213 ], [ 10.4468469, 8.9560469 ], [ 10.4453468, 8.9554644 ], [ 10.4402962, 8.9535074 ], [ 10.436343, 8.9512787 ], [ 10.4336262, 8.9497471 ], [ 10.431672, 8.9491584 ], [ 10.426877, 8.9477139 ], [ 10.4202061, 8.9439535 ], [ 10.4069567, 8.9347067 ], [ 10.4004469, 8.927494 ], [ 10.3971968, 8.9238873 ], [ 10.3888159, 8.9200497 ], [ 10.3805265, 8.9144869 ], [ 10.3756456, 8.9090767 ], [ 10.3723974, 8.9054708 ], [ 10.3691473, 8.9018641 ], [ 10.3625565, 8.8963776 ], [ 10.3575964, 8.8926945 ], [ 10.3509274, 8.8889341 ], [ 10.3410969, 8.8798409 ], [ 10.3346672, 8.8709021 ], [ 10.3298759, 8.8637648 ], [ 10.3250761, 8.8566294 ], [ 10.3247709, 8.8564572 ], [ 10.3050756, 8.8453484 ], [ 10.2984858, 8.8398619 ], [ 10.2918968, 8.8343754 ], [ 10.2868567, 8.8324184 ], [ 10.2769365, 8.8250523 ], [ 10.2669373, 8.8194113 ], [ 10.2618065, 8.8191814 ], [ 10.2569275, 8.8137712 ], [ 10.2486362, 8.8082085 ], [ 10.2455959, 8.8044081 ], [ 10.2362786, 8.7927697 ], [ 10.2357073, 8.7920561 ], [ 10.2290468, 8.7882967 ], [ 10.2240763, 8.7846117 ], [ 10.2143269, 8.7737923 ], [ 10.209446, 8.768383 ], [ 10.2061958, 8.7647762 ], [ 10.1947374, 8.7538795 ], [ 10.1881466, 8.748394 ], [ 10.1859136, 8.7441911 ], [ 10.1834373, 8.7395306 ], [ 10.18062, 8.7330943 ], [ 10.1803474, 8.7324715 ], [ 10.1770964, 8.7288656 ], [ 10.1746877, 8.7275075 ], [ 10.1704273, 8.7251053 ], [ 10.1655464, 8.719696 ], [ 10.1622963, 8.7160892 ], [ 10.1607916, 8.7144194 ], [ 10.1590462, 8.7124825 ], [ 10.1524572, 8.706996 ], [ 10.1492071, 8.7033892 ], [ 10.1409969, 8.6961002 ], [ 10.1377468, 8.6924925 ], [ 10.1328659, 8.6870832 ], [ 10.1279869, 8.681674 ], [ 10.1230268, 8.6779909 ], [ 10.1164474, 8.6725035 ], [ 10.1132774, 8.6671705 ], [ 10.1083975, 8.6617613 ], [ 10.1036062, 8.6546249 ], [ 10.0971756, 8.6456862 ], [ 10.0871773, 8.6400452 ], [ 10.0857172, 8.6347895 ], [ 10.0808363, 8.6293793 ], [ 10.0784967, 8.6267808 ], [ 10.0782572, 8.6265148 ], [ 10.0759659, 8.62397 ], [ 10.0710859, 8.6185598 ], [ 10.0662069, 8.6131506 ], [ 10.0614071, 8.6060143 ], [ 10.0518432, 8.591766 ], [ 10.0518274, 8.5917425 ], [ 10.0436058, 8.5844526 ], [ 10.0320663, 8.5752821 ], [ 10.0254765, 8.5697966 ], [ 10.0222273, 8.5661898 ], [ 10.0140171, 8.5588999 ], [ 10.010767, 8.5552931 ], [ 10.0080156, 8.5530024 ], [ 10.0041771, 8.5498066 ], [ 9.997757, 8.5408678 ], [ 9.9927969, 8.5371838 ], [ 9.9828768, 8.5298176 ], [ 9.9762869, 8.5243311 ], [ 9.9713268, 8.520648 ], [ 9.9631138, 8.5133572 ], [ 9.9582357, 8.5079479 ], [ 9.9533596, 8.5025368 ], [ 9.9501066, 8.4989319 ], [ 9.9498637, 8.4987949 ], [ 9.9434395, 8.4951715 ], [ 9.9335175, 8.4878044 ], [ 9.9285394, 8.4849975 ], [ 9.9268484, 8.4840441 ], [ 9.9202633, 8.4785576 ], [ 9.9153852, 8.4731483 ], [ 9.9088812, 8.4659348 ], [ 9.9056301, 8.4623289 ], [ 9.895792, 8.4532356 ], [ 9.890914, 8.4478254 ], [ 9.8893748, 8.4466032 ], [ 9.8813924, 8.4402644 ], [ 9.8793669, 8.4386559 ], [ 9.8694468, 8.4312897 ], [ 9.8627768, 8.4275293 ], [ 9.8560257, 8.4254951 ], [ 9.8505307, 8.4220714 ], [ 9.8410625, 8.416172 ], [ 9.8361025, 8.4124889 ], [ 9.832337, 8.4101427 ], [ 9.8322685, 8.4101 ], [ 9.8242407, 8.405098 ], [ 9.8214464, 8.402791 ], [ 9.8160944, 8.4012079 ], [ 9.8094244, 8.3974476 ], [ 9.802331, 8.3913231 ], [ 9.7969666, 8.3905983 ], [ 9.7841616, 8.3824196 ], [ 9.7801399, 8.3815546 ], [ 9.7744274, 8.3780146 ], [ 9.7649908, 8.3737345 ], [ 9.7613239, 8.3697109 ], [ 9.7566547, 8.367342 ], [ 9.7334576, 8.3703585 ], [ 9.7281794, 8.3710453 ], [ 9.7264729, 8.3712673 ], [ 9.723362, 8.3716717 ], [ 9.716754, 8.3725309 ], [ 9.7110624, 8.373271 ], [ 9.7071285, 8.3750267 ], [ 9.7032824, 8.374856 ], [ 9.695591, 8.3745146 ], [ 9.6935787, 8.3763552 ], [ 9.683876, 8.3778553 ], [ 9.6799412, 8.379611 ], [ 9.6683149, 8.3810253 ], [ 9.6643801, 8.382781 ], [ 9.6547661, 8.3823538 ], [ 9.6527538, 8.3841953 ], [ 9.6461334, 8.3810226 ], [ 9.6344871, 8.3818456 ], [ 9.6224637, 8.3831561 ], [ 9.620464, 8.383374 ], [ 9.6211096, 8.3814023 ], [ 9.6231973, 8.3750265 ], [ 9.6262872, 8.3698533 ], [ 9.6250988, 8.3669139 ], [ 9.6210582, 8.3689127 ], [ 9.6172554, 8.371029 ], [ 9.616836, 8.3718477 ] ] ] } }
]
}
