{
"type": "FeatureCollection",
"name": "Katsina_state_boundary",
"crs": { "type": "name", "properties": { "name": "urn:ogc:def:crs:OGC:1.3:CRS84" } },
"features": [
{ "type": "Feature", "properties": { "state_code": "KT", "state_name": "Katsina", "cap_city": "Katsina", "geo_zone": "NWZ" }, "geometry": { "type": "Polygon", "coordinates": [ [ [ 6.8894423, 11.3836414 ], [ 6.8876207, 11.3896516 ], [ 6.8869314, 11.3962021 ], [ 6.8869264, 11.3963336 ], [ 6.8861179, 11.4173498 ], [ 6.8864603, 11.4231663 ], [ 6.8865037, 11.4239045 ], [ 6.8866512, 11.4264133 ], [ 6.886878, 11.4302692 ], [ 6.8869314, 11.4311781 ], [ 6.8914819, 11.4414177 ], [ 6.8934383, 11.4458199 ], [ 6.8975376, 11.4531069 ], [ 6.9007592, 11.4588337 ], [ 6.9072666, 11.4751024 ], [ 6.9031992, 11.4864903 ], [ 6.9011289, 11.4918055 ], [ 6.8958788, 11.5051985 ], [ 6.9006214, 11.5146837 ], [ 6.9031992, 11.5198393 ], [ 6.9047608, 11.5235863 ], [ 6.9072666, 11.5296001 ], [ 6.9066377, 11.5340014 ], [ 6.9061537, 11.5373907 ], [ 6.9056396, 11.540988 ], [ 6.904489, 11.5496178 ], [ 6.9040127, 11.5531893 ], [ 6.9023395, 11.5544825 ], [ 6.8994053, 11.5567336 ], [ 6.8861, 11.567 ], [ 6.8761, 11.5744 ], [ 6.8674, 11.5776 ], [ 6.8568, 11.589 ], [ 6.8544, 11.5952 ], [ 6.854398, 11.5952212 ], [ 6.8524246, 11.6161891 ], [ 6.852, 11.6207 ], [ 6.8552, 11.6419 ], [ 6.8608879, 11.6532222 ], [ 6.8658, 11.663 ], [ 6.869, 11.6785 ], [ 6.8742955, 11.6903756 ], [ 6.8779061, 11.6984227 ], [ 6.8811504, 11.7055994 ], [ 6.8807611, 11.7108895 ], [ 6.8839555, 11.7168101 ], [ 6.8844261, 11.7200578 ], [ 6.8844261, 11.7256432 ], [ 6.8854957, 11.7354172 ], [ 6.8839745, 11.7447255 ], [ 6.8855789, 11.7481579 ], [ 6.8858166, 11.7523465 ], [ 6.8830832, 11.7553715 ], [ 6.8825485, 11.7583965 ], [ 6.8862325, 11.7613052 ], [ 6.8877774, 11.7659007 ], [ 6.8897383, 11.7716015 ], [ 6.8919545, 11.776196 ], [ 6.8914725, 11.7779854 ], [ 6.8913222, 11.779119 ], [ 6.8926312, 11.7796723 ], [ 6.8938766, 11.7812583 ], [ 6.8953842, 11.7833816 ], [ 6.8961769, 11.7851781 ], [ 6.896373, 11.7856226 ], [ 6.895721, 11.786856 ], [ 6.8960811, 11.7874766 ], [ 6.8973848, 11.7877576 ], [ 6.8991971, 11.7880484 ], [ 6.9006231, 11.7883392 ], [ 6.9012173, 11.7880775 ], [ 6.9022275, 11.7889791 ], [ 6.9020524, 11.7899103 ], [ 6.9013956, 11.7906368 ], [ 6.901871, 11.7918583 ], [ 6.90095, 11.7930798 ], [ 6.9003855, 11.7938941 ], [ 6.9008123, 11.7965072 ], [ 6.9012471, 11.7975585 ], [ 6.9022102, 11.7988504 ], [ 6.9032673, 11.7970932 ], [ 6.9043963, 11.7946212 ], [ 6.9056441, 11.7924981 ], [ 6.9067434, 11.7905496 ], [ 6.9082883, 11.7883102 ], [ 6.9098629, 11.7857799 ], [ 6.9123883, 11.7852855 ], [ 6.9141669, 11.785606 ], [ 6.9151542, 11.7859636 ], [ 6.9173993, 11.7858666 ], [ 6.9199473, 11.7872812 ], [ 6.9224572, 11.7874301 ], [ 6.9250051, 11.7895148 ], [ 6.9253283, 11.7909852 ], [ 6.9277958, 11.792204 ], [ 6.9286368, 11.792921 ], [ 6.9306222, 11.793351 ], [ 6.9333159, 11.7933843 ], [ 6.9343953, 11.7948923 ], [ 6.9370098, 11.7955612 ], [ 6.939143, 11.7959684 ], [ 6.9404621, 11.7960033 ], [ 6.9414349, 11.7973209 ], [ 6.9435282, 11.7977133 ], [ 6.9453464, 11.7994234 ], [ 6.9457386, 11.8013079 ], [ 6.9468082, 11.8023898 ], [ 6.9469508, 11.8036112 ], [ 6.948056, 11.8039253 ], [ 6.9486621, 11.8025991 ], [ 6.9506586, 11.8024247 ], [ 6.9527301, 11.8003331 ], [ 6.9556358, 11.8016397 ], [ 6.9564698, 11.8025642 ], [ 6.9597794, 11.803503 ], [ 6.9625663, 11.8037159 ], [ 6.9636359, 11.8044138 ], [ 6.9675576, 11.8042045 ], [ 6.9708019, 11.8038555 ], [ 6.9717645, 11.8039602 ], [ 6.9722993, 11.8032273 ], [ 6.9734402, 11.8031575 ], [ 6.9758823, 11.8060967 ], [ 6.9767736, 11.8085977 ], [ 6.9771302, 11.8091212 ], [ 6.9775682, 11.8084778 ], [ 6.9776649, 11.8081033 ], [ 6.980428, 11.8090921 ], [ 6.9821214, 11.809412 ], [ 6.9826265, 11.8100517 ], [ 6.9838149, 11.8101681 ], [ 6.9842015, 11.8106595 ], [ 6.984112, 11.8112731 ], [ 6.9848718, 11.8121273 ], [ 6.9856569, 11.8124364 ], [ 6.9868453, 11.8122037 ], [ 6.9876404, 11.8113828 ], [ 6.987796, 11.8101972 ], [ 6.989915, 11.8107712 ], [ 6.9909491, 11.8108421 ], [ 6.9913315, 11.8116512 ], [ 6.9918069, 11.8123201 ], [ 6.9921931, 11.8126981 ], [ 6.9928108, 11.8120207 ], [ 6.9937126, 11.8110316 ], [ 6.9987515, 11.8106128 ], [ 7.0173376, 11.8155849 ], [ 7.0214261, 11.8110781 ], [ 7.0319315, 11.8049827 ], [ 7.0337544, 11.8031131 ], [ 7.0373236, 11.8009145 ], [ 7.0388084, 11.798259 ], [ 7.0396365, 11.7961175 ], [ 7.04261, 11.7903792 ], [ 7.0443685, 11.7895865 ], [ 7.0497159, 11.7885242 ], [ 7.0550696, 11.7887621 ], [ 7.0565449, 11.789476 ], [ 7.0600183, 11.7898754 ], [ 7.0626, 11.8045 ], [ 7.0671, 11.8064 ], [ 7.0699, 11.8076 ], [ 7.0724, 11.8086 ], [ 7.0744305, 11.8161297 ], [ 7.0748, 11.8175 ], [ 7.1007635, 11.820451 ], [ 7.141816, 11.8493091 ], [ 7.1425681, 11.8532865 ], [ 7.1450498, 11.8589688 ], [ 7.1462369, 11.8659173 ], [ 7.1462369, 11.8729651 ], [ 7.1470553, 11.8810319 ], [ 7.1446682, 11.8872693 ], [ 7.1408178, 11.9113405 ], [ 7.145808, 11.9123701 ], [ 7.1649571, 11.9090462 ], [ 7.1714, 11.9106 ], [ 7.1825, 11.9095 ], [ 7.1907, 11.907 ], [ 7.191575, 11.9067698 ], [ 7.1909628, 11.9036973 ], [ 7.1930643, 11.9006516 ], [ 7.1997649, 11.9005145 ], [ 7.2059781, 11.9069105 ], [ 7.2052952, 11.9085444 ], [ 7.2170837, 11.9128735 ], [ 7.2264168, 11.9135112 ], [ 7.2359347, 11.9213634 ], [ 7.2465682, 11.932563 ], [ 7.2437974, 11.9388641 ], [ 7.2408502, 11.9420266 ], [ 7.2378792, 11.9455379 ], [ 7.2311766, 11.9494444 ], [ 7.2255436, 11.9522347 ], [ 7.2235111, 11.9517745 ], [ 7.2223183, 11.9495941 ], [ 7.2203218, 11.9497615 ], [ 7.2197514, 11.9514357 ], [ 7.2204666, 11.9568489 ], [ 7.2204666, 11.9609208 ], [ 7.2139444, 11.962405 ], [ 7.2110633, 11.9641716 ], [ 7.2109667, 11.9699071 ], [ 7.2097141, 11.9741379 ], [ 7.2095406, 11.9759337 ], [ 7.2119245, 11.979718 ], [ 7.2108007, 11.9854619 ], [ 7.2082167, 11.9880183 ], [ 7.2055043, 11.9890306 ], [ 7.2017592, 11.9894754 ], [ 7.198812, 11.9901729 ], [ 7.1976236, 11.9912889 ], [ 7.1972908, 11.9926373 ], [ 7.1972961, 11.9937842 ], [ 7.1970056, 11.9945438 ], [ 7.1968155, 11.9953342 ], [ 7.1974475, 11.9957425 ], [ 7.1969046, 11.9983858 ], [ 7.195394, 11.9994251 ], [ 7.1936691, 12.00041 ], [ 7.1919714, 12.0015454 ], [ 7.190146, 12.0016012 ], [ 7.1884917, 12.0015454 ], [ 7.1859818, 12.0019918 ], [ 7.1843846, 12.0037215 ], [ 7.1828445, 12.0061207 ], [ 7.1804486, 12.0079061 ], [ 7.1765127, 12.0083525 ], [ 7.1747443, 12.0101379 ], [ 7.172976, 12.0121465 ], [ 7.171607, 12.0142667 ], [ 7.1712077, 12.0172795 ], [ 7.1705231, 12.0203481 ], [ 7.1685837, 12.0212408 ], [ 7.1651569, 12.0213297 ], [ 7.1633341, 12.0220179 ], [ 7.1600272, 12.0219661 ], [ 7.1566046, 12.0234167 ], [ 7.1538665, 12.0255925 ], [ 7.1535813, 12.0277684 ], [ 7.1532961, 12.0296095 ], [ 7.1522123, 12.03106 ], [ 7.1503099, 12.0314882 ], [ 7.1486699, 12.0330224 ], [ 7.149169, 12.0350448 ], [ 7.1496682, 12.0369277 ], [ 7.150262, 12.0390302 ], [ 7.1503099, 12.0418092 ], [ 7.1486791, 12.0433504 ], [ 7.1473151, 12.0474577 ], [ 7.1465308, 12.0521995 ], [ 7.1456752, 12.0568018 ], [ 7.1434647, 12.063984 ], [ 7.1413969, 12.0650996 ], [ 7.1397569, 12.0638445 ], [ 7.1375542, 12.0619341 ], [ 7.1346944, 12.0634959 ], [ 7.1316996, 12.0648905 ], [ 7.1302716, 12.068389 ], [ 7.1339457, 12.0730765 ], [ 7.1366267, 12.0779294 ], [ 7.1362844, 12.0815551 ], [ 7.1363985, 12.0855713 ], [ 7.1332611, 12.0902566 ], [ 7.1172354, 12.0939644 ], [ 7.1191, 12.0972 ], [ 7.1216, 12.1014 ], [ 7.1237, 12.107 ], [ 7.1254189, 12.1116555 ], [ 7.1261, 12.1135 ], [ 7.1278899, 12.124471 ], [ 7.1350738, 12.1318244 ], [ 7.1456, 12.1472 ], [ 7.1506, 12.1651 ], [ 7.154825, 12.1774582 ], [ 7.1568453, 12.1851251 ], [ 7.1499526, 12.2069627 ], [ 7.1504279, 12.231586 ], [ 7.1482803, 12.2345447 ], [ 7.1394947, 12.2432 ], [ 7.1283457, 12.2518682 ], [ 7.1284634, 12.2518963 ], [ 7.1285188, 12.2519096 ], [ 7.1246397, 12.2552779 ], [ 7.1188165, 12.2602715 ], [ 7.1066949, 12.2714197 ], [ 7.0990891, 12.2771098 ], [ 7.093266, 12.2825675 ], [ 7.0866109, 12.31624 ], [ 7.0828081, 12.3293595 ], [ 7.0832834, 12.3377185 ], [ 7.0847095, 12.3474703 ], [ 7.0747269, 12.3749824 ], [ 7.0683, 12.4113 ], [ 7.0669, 12.4232 ], [ 7.0659, 12.4317 ], [ 7.0599, 12.4808 ], [ 7.0594, 12.4886 ], [ 7.0588, 12.4912 ], [ 7.0577, 12.497 ], [ 7.0556033, 12.5068173 ], [ 7.0541256, 12.5141333 ], [ 7.0537, 12.5163 ], [ 7.0537, 12.5293 ], [ 7.0512, 12.5399 ], [ 7.0521, 12.5534 ], [ 7.051317, 12.563684 ], [ 7.0502198, 12.5750781 ], [ 7.0516, 12.587 ], [ 7.0474407, 12.6110543 ], [ 7.0462992, 12.6176555 ], [ 7.046, 12.6196 ], [ 7.047, 12.634 ], [ 7.0472, 12.6377 ], [ 7.0463, 12.65 ], [ 7.045636, 12.6532218 ], [ 7.0444745, 12.658857 ], [ 7.0392878, 12.6587401 ], [ 7.0350046, 12.6613703 ], [ 7.0206298, 12.665147 ], [ 7.0204582, 12.6651921 ], [ 7.0203182, 12.6652679 ], [ 7.0202245, 12.6653187 ], [ 7.0165781, 12.666257 ], [ 7.0003243, 12.6704392 ], [ 6.9889918, 12.6734419 ], [ 7.0196935, 12.7003166 ], [ 7.0430146, 12.7195856 ], [ 7.0607142, 12.7398416 ], [ 7.0604389, 12.7617068 ], [ 7.0664128, 12.7996345 ], [ 7.0664722, 12.8105732 ], [ 7.0560767, 12.8232551 ], [ 7.0685692, 12.8321821 ], [ 7.0632826, 12.8381459 ], [ 7.0628576, 12.8436 ], [ 7.0649099, 12.8595388 ], [ 7.0649525, 12.8772413 ], [ 7.0664301, 12.8817332 ], [ 7.065061, 12.8856535 ], [ 7.0661804, 12.8895737 ], [ 7.0662169, 12.8925102 ], [ 7.0653791, 12.8975091 ], [ 7.0638936, 12.9031274 ], [ 7.0652602, 12.9056758 ], [ 7.0655616, 12.9075178 ], [ 7.0653791, 12.9092668 ], [ 7.0644878, 12.9101934 ], [ 7.0654, 12.9126 ], [ 7.0613504, 12.9128052 ], [ 7.0614574, 12.9144793 ], [ 7.0624081, 12.9161589 ], [ 7.0620516, 12.9191126 ], [ 7.0612197, 12.9192864 ], [ 7.0603284, 12.9183018 ], [ 7.0596748, 12.9191126 ], [ 7.0586646, 12.9224717 ], [ 7.0570603, 12.9248462 ], [ 7.0559704, 12.927909 ], [ 7.0551116, 12.9303809 ], [ 7.0530792, 12.9327804 ], [ 7.0509995, 12.9326067 ], [ 7.0499299, 12.9333016 ], [ 7.0492169, 12.9347494 ], [ 7.0501676, 12.9374134 ], [ 7.0520096, 12.9382241 ], [ 7.0520096, 12.9393823 ], [ 7.0508806, 12.9416988 ], [ 7.0521879, 12.9432624 ], [ 7.0545647, 12.9433203 ], [ 7.0562284, 12.9438994 ], [ 7.0578176, 12.9463696 ], [ 7.0583081, 12.948011 ], [ 7.0578922, 12.949864 ], [ 7.0587835, 12.950501 ], [ 7.0597936, 12.951138 ], [ 7.0597342, 12.9520067 ], [ 7.0590211, 12.9528753 ], [ 7.0565849, 12.9554811 ], [ 7.0545052, 12.9569288 ], [ 7.0492763, 12.9612139 ], [ 7.0497516, 12.9646303 ], [ 7.0486227, 12.9657305 ], [ 7.0487415, 12.9687416 ], [ 7.050208, 12.9702982 ], [ 7.0499299, 12.9733739 ], [ 7.0501082, 12.9778324 ], [ 7.0505241, 12.9813644 ], [ 7.050321, 12.9840259 ], [ 7.0489511, 12.9868121 ], [ 7.0517462, 12.9896469 ], [ 7.0512667, 12.9954745 ], [ 7.0905552, 12.9952774 ], [ 7.1082218, 13.0100147 ], [ 7.1291334, 13.0274577 ], [ 7.1388391, 13.0355531 ], [ 7.1454865, 13.0410047 ], [ 7.1474991, 13.0427761 ], [ 7.1794134, 13.0811531 ], [ 7.1884333, 13.0922307 ], [ 7.1967402, 13.1015022 ], [ 7.2188883, 13.125555 ], [ 7.230108, 13.1253947 ], [ 7.2302604, 13.1253612 ], [ 7.2438174, 13.1223763 ], [ 7.2642241, 13.1185964 ], [ 7.2927515, 13.1142175 ], [ 7.306851, 13.1120533 ], [ 7.3220639, 13.1097181 ], [ 7.3389274, 13.1071296 ], [ 7.3443681, 13.1062209 ], [ 7.3487579, 13.1053828 ], [ 7.3492441, 13.1053246 ], [ 7.3797216, 13.0997219 ], [ 7.3823288, 13.1012379 ], [ 7.3853196, 13.1029886 ], [ 7.4032419, 13.1133978 ], [ 7.4132281, 13.119204 ], [ 7.4480228, 13.1394334 ], [ 7.4531692, 13.1424254 ], [ 7.466033, 13.1499764 ], [ 7.4842901, 13.1605173 ], [ 7.4943801, 13.1663828 ], [ 7.5074907, 13.1740039 ], [ 7.5197702, 13.1811418 ], [ 7.5256058, 13.1845338 ], [ 7.5307777, 13.1875404 ], [ 7.5383074, 13.191918 ], [ 7.5458362, 13.1962949 ], [ 7.5512374, 13.1994349 ], [ 7.5798495, 13.2160694 ], [ 7.5948161, 13.2247727 ], [ 7.6019739, 13.228935 ], [ 7.6116682, 13.2345721 ], [ 7.6146937, 13.2362698 ], [ 7.6164418, 13.2373478 ], [ 7.6194239, 13.2390819 ], [ 7.6244115, 13.2419819 ], [ 7.6263852, 13.2430424 ], [ 7.6266816, 13.2432422 ], [ 7.6269811, 13.2434372 ], [ 7.6272836, 13.2436275 ], [ 7.6275892, 13.2438129 ], [ 7.6278977, 13.2439935 ], [ 7.628209, 13.2441691 ], [ 7.628523, 13.2443397 ], [ 7.6288397, 13.2445054 ], [ 7.629159, 13.2446659 ], [ 7.6347338, 13.2479839 ], [ 7.641949, 13.2521791 ], [ 7.6488606, 13.2561978 ], [ 7.6519263, 13.2579803 ], [ 7.6555799, 13.2601723 ], [ 7.6613887, 13.2635018 ], [ 7.6667535, 13.2665983 ], [ 7.6714949, 13.2693576 ], [ 7.6748861, 13.2713293 ], [ 7.6799351, 13.2742647 ], [ 7.6867019, 13.2781988 ], [ 7.725979, 13.2972384 ], [ 7.7588997, 13.3104065 ], [ 7.7674619, 13.3156924 ], [ 7.7784427, 13.3229085 ], [ 7.7961261, 13.3373402 ], [ 7.8197012, 13.3522748 ], [ 7.8473834, 13.3482516 ], [ 7.8665422, 13.3455746 ], [ 7.8912338, 13.3421244 ], [ 7.9232821, 13.3376465 ], [ 7.9256556, 13.3373149 ], [ 7.9292265, 13.3367799 ], [ 7.9466122, 13.3343867 ], [ 7.9597035, 13.3325575 ], [ 7.9788583, 13.329881 ], [ 7.991801, 13.3280726 ], [ 8.0078546, 13.3258294 ], [ 8.0346714, 13.3220822 ], [ 8.0405731, 13.3212575 ], [ 8.0455424, 13.3204097 ], [ 8.0532304, 13.3187253 ], [ 8.0620401, 13.3167952 ], [ 8.0841164, 13.312103 ], [ 8.101514, 13.3081467 ], [ 8.1153666, 13.3051116 ], [ 8.122221, 13.3036098 ], [ 8.123333, 13.3030548 ], [ 8.1247215, 13.2986107 ], [ 8.1305542, 13.2908335 ], [ 8.1413879, 13.2805538 ], [ 8.1495759, 13.2750511 ], [ 8.1627726, 13.26621 ], [ 8.1677374, 13.2628452 ], [ 8.17976, 13.2547648 ], [ 8.1872048, 13.249761 ], [ 8.1900466, 13.2478509 ], [ 8.1943369, 13.2449672 ], [ 8.1974188, 13.2427986 ], [ 8.2119856, 13.2331045 ], [ 8.2179452, 13.2290986 ], [ 8.2261105, 13.2236099 ], [ 8.2358322, 13.2191658 ], [ 8.243082, 13.2185336 ], [ 8.2515087, 13.2175961 ], [ 8.2746674, 13.205104 ], [ 8.2872219, 13.1983318 ], [ 8.3107892, 13.1760504 ], [ 8.3193366, 13.1679689 ], [ 8.3233477, 13.1640939 ], [ 8.3307953, 13.1571345 ], [ 8.3395966, 13.1488131 ], [ 8.34357, 13.1450564 ], [ 8.3510001, 13.1382427 ], [ 8.3582228, 13.1319857 ], [ 8.3671264, 13.1242724 ], [ 8.3713479, 13.1206152 ], [ 8.3779733, 13.1148753 ], [ 8.3847867, 13.1089723 ], [ 8.3932813, 13.1016126 ], [ 8.4086094, 13.0883331 ], [ 8.4271616, 13.0836312 ], [ 8.4343682, 13.0818799 ], [ 8.4491653, 13.0780544 ], [ 8.4541664, 13.0799999 ], [ 8.4612701, 13.0816297 ], [ 8.4635661, 13.0823483 ], [ 8.4711094, 13.0838871 ], [ 8.4974995, 13.0858326 ], [ 8.5163879, 13.0836105 ], [ 8.5369434, 13.0769444 ], [ 8.5419426, 13.0749989 ], [ 8.5643424, 13.0598776 ], [ 8.5734366, 13.0532545 ], [ 8.5872232, 13.0428973 ], [ 8.5957588, 13.0365626 ], [ 8.6149998, 13.021944 ], [ 8.6289323, 13.006261 ], [ 8.6375682, 12.9921261 ], [ 8.6429377, 12.9816427 ], [ 8.6475657, 12.9726068 ], [ 8.651927, 12.9640923 ], [ 8.6545196, 12.9590038 ], [ 8.6599998, 12.9483318 ], [ 8.6636105, 12.9433327 ], [ 8.6841025, 12.937163 ], [ 8.7078742, 12.9300058 ], [ 8.7413537, 12.9199261 ], [ 8.7641884, 12.9130511 ], [ 8.7939882, 12.9040788 ], [ 8.8165447, 12.8972872 ], [ 8.8425626, 12.8894683 ], [ 8.8588825, 12.8845767 ], [ 8.8808369, 12.8779675 ], [ 8.8995407, 12.8723472 ], [ 8.9078799, 12.8698344 ], [ 8.9281394, 12.8637532 ], [ 8.9324395, 12.862461 ], [ 8.955194, 12.855623 ], [ 8.9638656, 12.8452315 ], [ 8.9775285, 12.8374833 ], [ 8.9841653, 12.8358024 ], [ 8.988643, 12.8363375 ], [ 8.9959249, 12.8400788 ], [ 9.003388, 12.8404032 ], [ 9.0170309, 12.845455 ], [ 9.0324993, 12.8466663 ], [ 9.0408951, 12.8461414 ], [ 9.0449294, 12.8273153 ], [ 9.0473385, 12.8161573 ], [ 9.0357808, 12.8141873 ], [ 9.0181894, 12.8096915 ], [ 9.0149949, 12.8091467 ], [ 8.9828688, 12.8067688 ], [ 8.9712542, 12.7851021 ], [ 8.9699637, 12.7756428 ], [ 8.9545018, 12.7443341 ], [ 8.9513323, 12.7381217 ], [ 8.923191, 12.7070546 ], [ 8.9083598, 12.7019536 ], [ 8.8968561, 12.6989858 ], [ 8.8835291, 12.696093 ], [ 8.8724619, 12.6800158 ], [ 8.864637, 12.6690434 ], [ 8.8504919, 12.6787944 ], [ 8.8502904, 12.6784951 ], [ 8.8499421, 12.6781582 ], [ 8.8497308, 12.6779069 ], [ 8.8496622, 12.6776157 ], [ 8.8495709, 12.6773187 ], [ 8.8491648, 12.6768448 ], [ 8.8483748, 12.6759263 ], [ 8.8479322, 12.6753457 ], [ 8.8467425, 12.6751506 ], [ 8.8449864, 12.6746366 ], [ 8.8427355, 12.6741055 ], [ 8.8407177, 12.6736772 ], [ 8.8402978, 12.6728591 ], [ 8.8401607, 12.6721624 ], [ 8.8383447, 12.6716255 ], [ 8.836641, 12.6714517 ], [ 8.8357749, 12.6716896 ], [ 8.8333383, 12.6707664 ], [ 8.8310293, 12.67042 ], [ 8.8296968, 12.6705037 ], [ 8.8291714, 12.6726509 ], [ 8.828627, 12.6759355 ], [ 8.8239274, 12.6744302 ], [ 8.8167938, 12.6741653 ], [ 8.8046851, 12.6731346 ], [ 8.7940371, 12.6729491 ], [ 8.7592545, 12.6738962 ], [ 8.7523712, 12.6726812 ], [ 8.7448129, 12.666652 ], [ 8.7422929, 12.6669337 ], [ 8.7357822, 12.6688374 ], [ 8.7307423, 12.6696667 ], [ 8.7260362, 12.6699913 ], [ 8.7229464, 12.6699449 ], [ 8.7227897, 12.682717 ], [ 8.7124072, 12.6805558 ], [ 8.7012, 12.687 ], [ 8.7011112, 12.6870082 ], [ 8.6880165, 12.6882106 ], [ 8.6874461, 12.694703 ], [ 8.686733, 12.6968362 ], [ 8.6855446, 12.6995722 ], [ 8.6845592, 12.7008814 ], [ 8.6842136, 12.7032357 ], [ 8.6838809, 12.7051369 ], [ 8.6835811, 12.7080476 ], [ 8.6821156, 12.7091957 ], [ 8.6802487, 12.7104413 ], [ 8.6780815, 12.7125563 ], [ 8.677416, 12.7135765 ], [ 8.6767287, 12.7159044 ], [ 8.668633, 12.7194652 ], [ 8.6638943, 12.72577 ], [ 8.6510256, 12.7275961 ], [ 8.6518463, 12.7331249 ], [ 8.6362734, 12.7373151 ], [ 8.6038269, 12.7372728 ], [ 8.600844, 12.7481822 ], [ 8.5944127, 12.7662158 ], [ 8.5936802, 12.7718939 ], [ 8.5930521, 12.7773386 ], [ 8.5881955, 12.7944418 ], [ 8.5870991, 12.802716 ], [ 8.5890583, 12.808619 ], [ 8.5853505, 12.8125821 ], [ 8.5839957, 12.8135903 ], [ 8.5740348, 12.8204655 ], [ 8.5639389, 12.8252743 ], [ 8.5631903, 12.8341388 ], [ 8.5521506, 12.8318193 ], [ 8.5278686, 12.8319349 ], [ 8.5021126, 12.8338218 ], [ 8.4988594, 12.833621 ], [ 8.4852548, 12.8320242 ], [ 8.4788023, 12.8306615 ], [ 8.4698299, 12.8281123 ], [ 8.4670669, 12.8268377 ], [ 8.4619844, 12.8232449 ], [ 8.4591641, 12.821884 ], [ 8.4563119, 12.8209859 ], [ 8.452301, 12.8189581 ], [ 8.4440714, 12.8160901 ], [ 8.4353515, 12.8151883 ], [ 8.4229034, 12.820932 ], [ 8.4162781, 12.822844 ], [ 8.4075434, 12.8242925 ], [ 8.4013125, 12.8252158 ], [ 8.3983778, 12.8259427 ], [ 8.3949373, 12.8262488 ], [ 8.394147, 12.8260887 ], [ 8.3900814, 12.8252802 ], [ 8.3839998, 12.8252365 ], [ 8.3771706, 12.8251896 ], [ 8.3746146, 12.8251445 ], [ 8.3727271, 12.8253093 ], [ 8.3706335, 12.8254921 ], [ 8.3677813, 12.8250286 ], [ 8.3645133, 12.8244492 ], [ 8.3616607, 12.8241411 ], [ 8.3608303, 12.8240514 ], [ 8.3523945, 12.8254657 ], [ 8.3500012, 12.8268668 ], [ 8.3468433, 12.8298983 ], [ 8.3381935, 12.8353046 ], [ 8.3374792, 12.8360113 ], [ 8.3256147, 12.8342063 ], [ 8.3003018, 12.8310083 ], [ 8.2923291, 12.8291453 ], [ 8.288608, 12.8290616 ], [ 8.2769142, 12.8291311 ], [ 8.2605856, 12.8301044 ], [ 8.2538117, 12.8292702 ], [ 8.2450178, 12.827897 ], [ 8.2421179, 12.8261416 ], [ 8.2301173, 12.8261554 ], [ 8.210958, 12.8175203 ], [ 8.2007466, 12.816431 ], [ 8.1924689, 12.8157033 ], [ 8.1878908, 12.8144177 ], [ 8.1822844, 12.8124681 ], [ 8.1809553, 12.812006 ], [ 8.1788826, 12.8112852 ], [ 8.168247, 12.8143916 ], [ 8.152061, 12.8186328 ], [ 8.1416255, 12.8110182 ], [ 8.1278364, 12.8011134 ], [ 8.1279186, 12.7968276 ], [ 8.1523046, 12.7968276 ], [ 8.1523714, 12.795902 ], [ 8.1524686, 12.794556 ], [ 8.1549432, 12.7857615 ], [ 8.1614856, 12.7697899 ], [ 8.1628658, 12.7639203 ], [ 8.167144, 12.7566878 ], [ 8.1721083, 12.7511465 ], [ 8.1801689, 12.7561075 ], [ 8.1808819, 12.7536503 ], [ 8.1819636, 12.7503264 ], [ 8.180073, 12.7500043 ], [ 8.1791781, 12.7484945 ], [ 8.1805135, 12.7433111 ], [ 8.1848983, 12.7350667 ], [ 8.1851278, 12.73247 ], [ 8.1831966, 12.7319483 ], [ 8.1812125, 12.7315098 ], [ 8.1790075, 12.7305863 ], [ 8.1778435, 12.730457 ], [ 8.1766604, 12.7303255 ], [ 8.1743289, 12.7305876 ], [ 8.1667888, 12.7289501 ], [ 8.1633305, 12.7270548 ], [ 8.1591834, 12.7267204 ], [ 8.1539184, 12.7239945 ], [ 8.1445354, 12.7212624 ], [ 8.1433315, 12.7153295 ], [ 8.1527325, 12.6928264 ], [ 8.1538901, 12.6906 ], [ 8.1560856, 12.6879612 ], [ 8.1582808, 12.6863167 ], [ 8.1600235, 12.6839655 ], [ 8.1604329, 12.6670566 ], [ 8.1592308, 12.6656064 ], [ 8.1584545, 12.6631687 ], [ 8.1532426, 12.6554016 ], [ 8.1821347, 12.6517827 ], [ 8.1834605, 12.6352488 ], [ 8.1852689, 12.6299364 ], [ 8.1859182, 12.629855 ], [ 8.186455, 12.6297179 ], [ 8.1871288, 12.6297865 ], [ 8.187757, 12.630152 ], [ 8.1881225, 12.6287586 ], [ 8.1889563, 12.6288842 ], [ 8.1903954, 12.6287243 ], [ 8.1912406, 12.6271938 ], [ 8.1911949, 12.6262915 ], [ 8.190983, 12.6255504 ], [ 8.1903951, 12.6240094 ], [ 8.1967654, 12.6228822 ], [ 8.2035393, 12.6216297 ], [ 8.2082454, 12.6196119 ], [ 8.2199392, 12.6162719 ], [ 8.2267131, 12.6135582 ], [ 8.2304922, 12.6125145 ], [ 8.2370132, 12.6089539 ], [ 8.240168, 12.6048823 ], [ 8.2461996, 12.5944157 ], [ 8.236084, 12.5912059 ], [ 8.2323549, 12.584922 ], [ 8.2282763, 12.5847341 ], [ 8.1947536, 12.5676073 ], [ 8.179866, 12.5640881 ], [ 8.1802302, 12.5630156 ], [ 8.1808308, 12.5624293 ], [ 8.1813503, 12.5617413 ], [ 8.1812112, 12.5605345 ], [ 8.1808809, 12.5591562 ], [ 8.1812312, 12.5580815 ], [ 8.1807808, 12.5570067 ], [ 8.179688, 12.5547278 ], [ 8.1803804, 12.5538508 ], [ 8.1805806, 12.5529714 ], [ 8.1792426, 12.5521208 ], [ 8.1792292, 12.5508707 ], [ 8.1792292, 12.549747 ], [ 8.1793293, 12.5488676 ], [ 8.1786286, 12.5475974 ], [ 8.1783784, 12.5465226 ], [ 8.1776777, 12.5458875 ], [ 8.1779279, 12.5450081 ], [ 8.1772272, 12.5435229 ], [ 8.1766266, 12.5424969 ], [ 8.1767768, 12.5415686 ], [ 8.1770874, 12.540371 ], [ 8.1768603, 12.5395173 ], [ 8.176977, 12.5383441 ], [ 8.1767348, 12.5378212 ], [ 8.1761733, 12.5377455 ], [ 8.1758168, 12.5373975 ], [ 8.1756266, 12.5369567 ], [ 8.1756741, 12.5362374 ], [ 8.1757777, 12.5357547 ], [ 8.1760544, 12.5350773 ], [ 8.1766486, 12.5346829 ], [ 8.1771478, 12.5343581 ], [ 8.1775756, 12.5338709 ], [ 8.1778133, 12.5333372 ], [ 8.1779559, 12.5327572 ], [ 8.177742, 12.532154 ], [ 8.1772904, 12.5315739 ], [ 8.1767126, 12.531071 ], [ 8.176197, 12.5307386 ], [ 8.1759594, 12.5302282 ], [ 8.1760069, 12.5295786 ], [ 8.1764414, 12.5289624 ], [ 8.1768863, 12.5282746 ], [ 8.1774226, 12.5278809 ], [ 8.177837, 12.5273233 ], [ 8.1776469, 12.5266969 ], [ 8.1773141, 12.5260472 ], [ 8.1769339, 12.5255831 ], [ 8.1763872, 12.5250263 ], [ 8.1762125, 12.524271 ], [ 8.1757692, 12.5234253 ], [ 8.1755553, 12.52259 ], [ 8.1756979, 12.5215691 ], [ 8.1756431, 12.5208504 ], [ 8.1752939, 12.5205018 ], [ 8.1748185, 12.5201306 ], [ 8.1743431, 12.5195458 ], [ 8.1745571, 12.5189426 ], [ 8.1748314, 12.5184806 ], [ 8.1751988, 12.5177128 ], [ 8.1754875, 12.517471 ], [ 8.1759594, 12.5173648 ], [ 8.1765298, 12.5175272 ], [ 8.1771478, 12.5179448 ], [ 8.1776231, 12.5181537 ], [ 8.1781816, 12.5180626 ], [ 8.1782411, 12.5175272 ], [ 8.1785976, 12.5169007 ], [ 8.1788823, 12.5161504 ], [ 8.1792096, 12.5154679 ], [ 8.1796149, 12.5149198 ], [ 8.1802138, 12.5144876 ], [ 8.1804822, 12.5140024 ], [ 8.1809031, 12.5133738 ], [ 8.1809506, 12.5127241 ], [ 8.180808, 12.5119816 ], [ 8.1805466, 12.5112855 ], [ 8.1798335, 12.5107054 ], [ 8.1801901, 12.5102181 ], [ 8.1806892, 12.5099165 ], [ 8.1813547, 12.5095916 ], [ 8.182044, 12.5092668 ], [ 8.1820677, 12.5083618 ], [ 8.1827332, 12.5075033 ], [ 8.1835176, 12.5066216 ], [ 8.184397, 12.5073409 ], [ 8.1851813, 12.507805 ], [ 8.1862271, 12.5079674 ], [ 8.187059, 12.5077121 ], [ 8.188081, 12.5070392 ], [ 8.1896022, 12.5060415 ], [ 8.1903865, 12.5051829 ], [ 8.1882236, 12.5044636 ], [ 8.1872967, 12.5039995 ], [ 8.1865836, 12.5036746 ], [ 8.1863222, 12.503257 ], [ 8.1861796, 12.502468 ], [ 8.1857042, 12.5021431 ], [ 8.1850625, 12.5020735 ], [ 8.183684, 12.5017719 ], [ 8.1826619, 12.5011686 ], [ 8.1816161, 12.5000083 ], [ 8.1807605, 12.4990105 ], [ 8.1799762, 12.4976879 ], [ 8.1789779, 12.4964348 ], [ 8.1783115, 12.4962177 ], [ 8.1768124, 12.496471 ], [ 8.175793, 12.4957155 ], [ 8.1750324, 12.4948105 ], [ 8.1742956, 12.4942071 ], [ 8.1737727, 12.4936966 ], [ 8.1730359, 12.4934414 ], [ 8.1721327, 12.4932093 ], [ 8.1716811, 12.4925364 ], [ 8.1714136, 12.4914843 ], [ 8.1688088, 12.4817463 ], [ 8.1628951, 12.4744828 ], [ 8.162165, 12.4623929 ], [ 8.164964, 12.4514135 ], [ 8.1587826, 12.4473244 ], [ 8.1567397, 12.4403005 ], [ 8.155836, 12.4405357 ], [ 8.1486182, 12.4396494 ], [ 8.130166, 12.4411506 ], [ 8.1081604, 12.4163658 ], [ 8.0786519, 12.4175155 ], [ 8.0772023, 12.4174888 ], [ 8.0770237, 12.4174767 ], [ 8.0551685, 12.4171877 ], [ 8.0479431, 12.4126372 ], [ 8.0335712, 12.4043651 ], [ 8.0302484, 12.3954028 ], [ 8.0130447, 12.3947128 ], [ 8.0024194, 12.3936017 ], [ 8.0012772, 12.392174 ], [ 8.001499, 12.3908033 ], [ 8.0007419, 12.3896518 ], [ 7.9992785, 12.3888428 ], [ 7.998993, 12.3866537 ], [ 7.9988436, 12.3840957 ], [ 7.9971335, 12.3829495 ], [ 7.9954714, 12.3818947 ], [ 7.9933774, 12.3813237 ], [ 7.992616, 12.3804671 ], [ 7.9891896, 12.3758033 ], [ 7.987626, 12.3747706 ], [ 7.987286, 12.3727576 ], [ 7.9861439, 12.3728528 ], [ 7.9837644, 12.371901 ], [ 7.9825271, 12.3724721 ], [ 7.9828126, 12.3749467 ], [ 7.9811946, 12.3753274 ], [ 7.9805283, 12.3749467 ], [ 7.9807187, 12.3728528 ], [ 7.979291, 12.3721865 ], [ 7.9757854, 12.371153 ], [ 7.9736184, 12.3694806 ], [ 7.9724382, 12.3685698 ], [ 7.9714938, 12.3654739 ], [ 7.9691069, 12.3630494 ], [ 7.96806, 12.3627639 ], [ 7.9677697, 12.3645055 ], [ 7.967013, 12.3659048 ], [ 7.9652998, 12.3644771 ], [ 7.9626348, 12.364953 ], [ 7.961683, 12.3645723 ], [ 7.9599698, 12.3631446 ], [ 7.9568289, 12.3617169 ], [ 7.9557819, 12.3595278 ], [ 7.953523, 12.3581809 ], [ 7.9518796, 12.3588616 ], [ 7.9503568, 12.3587664 ], [ 7.9448768, 12.3492343 ], [ 7.9336936, 12.3444401 ], [ 7.9226051, 12.3367097 ], [ 7.9185619, 12.3358483 ], [ 7.9027291, 12.3324752 ], [ 7.8923544, 12.3302649 ], [ 7.8866479, 12.3098188 ], [ 7.8850038, 12.2985213 ], [ 7.8769626, 12.2895763 ], [ 7.8645375, 12.2806802 ], [ 7.8701415, 12.2663691 ], [ 7.8736764, 12.2606461 ], [ 7.8781365, 12.2534248 ], [ 7.8764535, 12.2357532 ], [ 7.8764047, 12.2352413 ], [ 7.8674616, 12.2339394 ], [ 7.8631549, 12.23258 ], [ 7.8658644, 12.2291654 ], [ 7.867523, 12.2265723 ], [ 7.8707844, 12.2237299 ], [ 7.8707585, 12.2199471 ], [ 7.8695701, 12.2159516 ], [ 7.8683283, 12.214145 ], [ 7.8644027, 12.2096852 ], [ 7.8641873, 12.2072715 ], [ 7.8642626, 12.2015185 ], [ 7.8628841, 12.197151 ], [ 7.8609801, 12.1933073 ], [ 7.8616481, 12.1892058 ], [ 7.8601745, 12.1825613 ], [ 7.859509, 12.1787976 ], [ 7.8555085, 12.1767674 ], [ 7.855838, 12.1727905 ], [ 7.8596286, 12.169507 ], [ 7.8599775, 12.1629175 ], [ 7.8585421, 12.1593371 ], [ 7.8543201, 12.1566666 ], [ 7.8542217, 12.1551423 ], [ 7.8565985, 12.1507741 ], [ 7.8552675, 12.1501235 ], [ 7.8552002, 12.1470972 ], [ 7.8571254, 12.1451454 ], [ 7.8594785, 12.1443786 ], [ 7.8627852, 12.1410359 ], [ 7.865468, 12.139987 ], [ 7.8648392, 12.1349437 ], [ 7.8631863, 12.1319703 ], [ 7.8632171, 12.1216087 ], [ 7.8642114, 12.1183306 ], [ 7.8663236, 12.1174002 ], [ 7.8696036, 12.1155179 ], [ 7.8708871, 12.1143327 ], [ 7.8713177, 12.1128372 ], [ 7.8698175, 12.1096617 ], [ 7.8691758, 12.1070821 ], [ 7.8676159, 12.1042238 ], [ 7.8673219, 12.1013652 ], [ 7.869461, 12.0963454 ], [ 7.869, 12.0955 ], [ 7.8671793, 12.0947418 ], [ 7.8670367, 12.0930685 ], [ 7.8698175, 12.0902099 ], [ 7.8699364, 12.0863983 ], [ 7.8682251, 12.0826333 ], [ 7.8723622, 12.0756821 ], [ 7.8756421, 12.0650835 ], [ 7.8757369, 12.0616 ], [ 7.87771, 12.0501611 ], [ 7.8797908, 12.0443407 ], [ 7.8698658, 12.027516 ], [ 7.8655785, 12.0213919 ], [ 7.8629914, 12.0176964 ], [ 7.8597359, 12.008163 ], [ 7.858478, 12.0041266 ], [ 7.8567056, 12.0012279 ], [ 7.855597, 12.0002312 ], [ 7.8448, 11.995 ], [ 7.8346769, 11.9801906 ], [ 7.8293491, 11.9686467 ], [ 7.8333958, 11.9697403 ], [ 7.8317985, 11.9639925 ], [ 7.8262163, 11.9533294 ], [ 7.8279867, 11.942976 ], [ 7.8286495, 11.9388948 ], [ 7.8286425, 11.9309384 ], [ 7.8295268, 11.9220496 ], [ 7.843712, 11.9019466 ], [ 7.84769, 11.8933413 ], [ 7.8482096, 11.8861293 ], [ 7.8553689, 11.8814963 ], [ 7.8598724, 11.8768633 ], [ 7.8628416, 11.8742466 ], [ 7.8651053, 11.873463 ], [ 7.8603618, 11.8634879 ], [ 7.8555844, 11.8456234 ], [ 7.855178, 11.8425236 ], [ 7.852334, 11.8359954 ], [ 7.8549188, 11.833262 ], [ 7.8544732, 11.8323024 ], [ 7.8530009, 11.8243443 ], [ 7.8553231, 11.8172553 ], [ 7.8555321, 11.8109368 ], [ 7.8549752, 11.8019025 ], [ 7.857506, 11.7949432 ], [ 7.8593295, 11.777216 ], [ 7.8605825, 11.7679928 ], [ 7.8608467, 11.7619959 ], [ 7.8676205, 11.7564113 ], [ 7.8694031, 11.7500121 ], [ 7.8690466, 11.7455326 ], [ 7.8675017, 11.7432637 ], [ 7.8691806, 11.7385566 ], [ 7.8708789, 11.7337951 ], [ 7.8753451, 11.7212723 ], [ 7.8768465, 11.7180983 ], [ 7.8772746, 11.7123374 ], [ 7.8778447, 11.711256 ], [ 7.8805543, 11.7093011 ], [ 7.8825508, 11.7083934 ], [ 7.8865918, 11.7077536 ], [ 7.8883264, 11.7072065 ], [ 7.8922962, 11.702261 ], [ 7.8936029, 11.7001545 ], [ 7.8949577, 11.6983391 ], [ 7.8965976, 11.6966634 ], [ 7.8960985, 11.6943592 ], [ 7.8944595, 11.692672 ], [ 7.8923917, 11.6924625 ], [ 7.8916074, 11.6910661 ], [ 7.8935316, 11.6870974 ], [ 7.8953152, 11.6833 ], [ 7.894443, 11.6789821 ], [ 7.8965987, 11.6756344 ], [ 7.8976682, 11.6745171 ], [ 7.8968839, 11.6730507 ], [ 7.8918926, 11.6675341 ], [ 7.8928909, 11.6647409 ], [ 7.9009482, 11.6615286 ], [ 7.902303, 11.6532185 ], [ 7.901047, 11.649647 ], [ 7.8970265, 11.6488887 ], [ 7.8956717, 11.650914 ], [ 7.8933614, 11.6534673 ], [ 7.8917256, 11.6549545 ], [ 7.8891974, 11.6551032 ], [ 7.8851561, 11.6539442 ], [ 7.8817616, 11.653616 ], [ 7.878936, 11.6543596 ], [ 7.8752639, 11.6563501 ], [ 7.8736463, 11.6575672 ], [ 7.8726899, 11.6585237 ], [ 7.8716204, 11.658895 ], [ 7.8709053, 11.6592672 ], [ 7.8698643, 11.658375 ], [ 7.8689571, 11.6570646 ], [ 7.8678952, 11.6553907 ], [ 7.8671874, 11.6542109 ], [ 7.8659976, 11.6527237 ], [ 7.8658489, 11.6513853 ], [ 7.8667766, 11.6499649 ], [ 7.8659976, 11.6488571 ], [ 7.8631262, 11.649044 ], [ 7.8605891, 11.64954 ], [ 7.8578182, 11.6497494 ], [ 7.8558849, 11.649452 ], [ 7.8538029, 11.6482622 ], [ 7.8524645, 11.6464776 ], [ 7.8515722, 11.6455853 ], [ 7.8478085, 11.6444442 ], [ 7.844856, 11.6418448 ], [ 7.8438389, 11.6397854 ], [ 7.843244, 11.6378521 ], [ 7.8420543, 11.6354726 ], [ 7.841162, 11.6329445 ], [ 7.8396749, 11.6322009 ], [ 7.8356595, 11.6319034 ], [ 7.8323878, 11.6319034 ], [ 7.83191, 11.6322617 ], [ 7.831198, 11.6327957 ], [ 7.8304384, 11.634559 ], [ 7.8282125, 11.6358855 ], [ 7.8201668, 11.6349089 ], [ 7.8166238, 11.6375547 ], [ 7.8143931, 11.6381495 ], [ 7.8133774, 11.6377432 ], [ 7.8108239, 11.6363649 ], [ 7.8079172, 11.6345228 ], [ 7.805024, 11.6344316 ], [ 7.8012609, 11.6326143 ], [ 7.7978856, 11.630565 ], [ 7.7969731, 11.6285082 ], [ 7.7969933, 11.6266984 ], [ 7.7965471, 11.6253599 ], [ 7.7932754, 11.6255086 ], [ 7.7915941, 11.6271187 ], [ 7.7897629, 11.6284677 ], [ 7.786824, 11.6298243 ], [ 7.7837575, 11.6293753 ], [ 7.779247, 11.6300924 ], [ 7.7668541, 11.6286262 ], [ 7.758155, 11.6237373 ], [ 7.7455343, 11.6194071 ], [ 7.7395447, 11.616753 ], [ 7.7364617, 11.6085535 ], [ 7.7282157, 11.6053679 ], [ 7.7219831, 11.6034162 ], [ 7.7214916, 11.5997178 ], [ 7.7181403, 11.5996479 ], [ 7.7150279, 11.5982391 ], [ 7.7105891, 11.5974013 ], [ 7.7068712, 11.5950218 ], [ 7.7048767, 11.5924871 ], [ 7.7049562, 11.5912955 ], [ 7.7053068, 11.5860445 ], [ 7.7068237, 11.5821838 ], [ 7.7092706, 11.5783162 ], [ 7.7111649, 11.5758693 ], [ 7.7131929, 11.5732365 ], [ 7.7168684, 11.5716712 ], [ 7.7185399, 11.569013 ], [ 7.7170308, 11.5639155 ], [ 7.7168767, 11.563395 ], [ 7.7112035, 11.5490043 ], [ 7.7002753, 11.5395627 ], [ 7.697987, 11.5353798 ], [ 7.6796049, 11.5237403 ], [ 7.6807975, 11.5203506 ], [ 7.6817428, 11.5178867 ], [ 7.6822966, 11.516549 ], [ 7.682048, 11.5144598 ], [ 7.6826422, 11.5106752 ], [ 7.6800509, 11.5065518 ], [ 7.6793544, 11.4921789 ], [ 7.6751709, 11.4832521 ], [ 7.6827783, 11.4757569 ], [ 7.6862677, 11.4710404 ], [ 7.6874004, 11.4696057 ], [ 7.6894762, 11.466146 ], [ 7.6921072, 11.4605347 ], [ 7.6934144, 11.4557593 ], [ 7.6939674, 11.4539771 ], [ 7.6931156, 11.4351839 ], [ 7.6930618, 11.4339968 ], [ 7.6952076, 11.4314901 ], [ 7.6949498, 11.4302423 ], [ 7.6947716, 11.4241269 ], [ 7.6944776, 11.4203227 ], [ 7.6966405, 11.4215571 ], [ 7.700968, 11.4238651 ], [ 7.7056921, 11.4260284 ], [ 7.7223487, 11.4155199 ], [ 7.7195149, 11.4087761 ], [ 7.7309483, 11.3981947 ], [ 7.7399932, 11.3913674 ], [ 7.7450385, 11.3891817 ], [ 7.7481759, 11.3875973 ], [ 7.748984, 11.3858731 ], [ 7.7498872, 11.3843819 ], [ 7.7503626, 11.3817256 ], [ 7.7506478, 11.3791159 ], [ 7.7502893, 11.3767515 ], [ 7.7498853, 11.3743165 ], [ 7.7495525, 11.373734 ], [ 7.749505, 11.3735243 ], [ 7.7493414, 11.3733612 ], [ 7.7494256, 11.3732526 ], [ 7.7501914, 11.3720691 ], [ 7.7504481, 11.3716776 ], [ 7.7506579, 11.3714445 ], [ 7.7504182, 11.3713751 ], [ 7.7501971, 11.3712493 ], [ 7.7497764, 11.3710955 ], [ 7.7493843, 11.3709347 ], [ 7.7490135, 11.3707739 ], [ 7.7485785, 11.3704594 ], [ 7.7480224, 11.3702147 ], [ 7.7477657, 11.3700399 ], [ 7.7475232, 11.3698302 ], [ 7.7472932, 11.3698057 ], [ 7.7470693, 11.3696881 ], [ 7.7468234, 11.36961 ], [ 7.7465939, 11.3695389 ], [ 7.7464616, 11.3695365 ], [ 7.7460805, 11.3695296 ], [ 7.7458523, 11.3694551 ], [ 7.7455576, 11.369278 ], [ 7.7450991, 11.3691155 ], [ 7.7445221, 11.3689331 ], [ 7.7441181, 11.368869 ], [ 7.7435595, 11.3686768 ], [ 7.7430842, 11.3685661 ], [ 7.7424614, 11.3684915 ], [ 7.7415868, 11.3682972 ], [ 7.7413301, 11.368417 ], [ 7.7412065, 11.3686779 ], [ 7.7409975, 11.3688583 ], [ 7.7397234, 11.368855 ], [ 7.7394382, 11.3689296 ], [ 7.7388487, 11.3689482 ], [ 7.7379455, 11.3691347 ], [ 7.7378219, 11.3693956 ], [ 7.7376603, 11.3694982 ], [ 7.7373276, 11.3696939 ], [ 7.7368237, 11.3697778 ], [ 7.7364529, 11.3700481 ], [ 7.7357157, 11.3704868 ], [ 7.7353734, 11.3705823 ], [ 7.7347959, 11.3706173 ], [ 7.7336265, 11.3705754 ], [ 7.7325783, 11.3707641 ], [ 7.7319651, 11.3709668 ], [ 7.7311522, 11.3712115 ], [ 7.7310115, 11.371241 ], [ 7.7308527, 11.3712744 ], [ 7.7304035, 11.3714701 ], [ 7.7301254, 11.3716379 ], [ 7.7298402, 11.3716519 ], [ 7.7291628, 11.3714002 ], [ 7.728899, 11.3712534 ], [ 7.7285425, 11.3710996 ], [ 7.7278722, 11.3709458 ], [ 7.7275229, 11.3709458 ], [ 7.7272043, 11.3709726 ], [ 7.7270594, 11.3708829 ], [ 7.7268811, 11.370841 ], [ 7.7265467, 11.370951 ], [ 7.7261396, 11.3709948 ], [ 7.7256829, 11.3708867 ], [ 7.7240361, 11.3707641 ], [ 7.7232731, 11.3705474 ], [ 7.7226385, 11.3704705 ], [ 7.72179, 11.3703027 ], [ 7.7211697, 11.3701979 ], [ 7.7209948, 11.3701727 ], [ 7.7204862, 11.3697063 ], [ 7.7200013, 11.3690073 ], [ 7.7198444, 11.3687556 ], [ 7.7197161, 11.3683222 ], [ 7.7195735, 11.3678888 ], [ 7.7177481, 11.3645613 ], [ 7.7179983, 11.363082 ], [ 7.7177895, 11.3616718 ], [ 7.7175206, 11.361397 ], [ 7.716856, 11.3585284 ], [ 7.7159528, 11.3563146 ], [ 7.7146693, 11.3527493 ], [ 7.7136711, 11.350419 ], [ 7.713267, 11.3483916 ], [ 7.7144792, 11.3444067 ], [ 7.7154331, 11.3423613 ], [ 7.7179731, 11.3368096 ], [ 7.7166468, 11.3362364 ], [ 7.7164614, 11.3360826 ], [ 7.717287, 11.333832 ], [ 7.7191884, 11.3293109 ], [ 7.7210079, 11.3254061 ], [ 7.7211374, 11.3250927 ], [ 7.7211797, 11.3249921 ], [ 7.7210775, 11.324947 ], [ 7.7200222, 11.3242386 ], [ 7.718713, 11.3233578 ], [ 7.7171298, 11.3224745 ], [ 7.7187102, 11.3213394 ], [ 7.7168088, 11.3191207 ], [ 7.7160838, 11.3185228 ], [ 7.7159912, 11.318319 ], [ 7.7156679, 11.3179554 ], [ 7.7153732, 11.3178995 ], [ 7.7151022, 11.3178928 ], [ 7.714798, 11.3179356 ], [ 7.7140137, 11.3183749 ], [ 7.7130249, 11.3176664 ], [ 7.7125305, 11.3172469 ], [ 7.7122805, 11.3169682 ], [ 7.7117224, 11.3166409 ], [ 7.711133, 11.3164079 ], [ 7.7105721, 11.316324 ], [ 7.7101347, 11.316296 ], [ 7.7096594, 11.3160816 ], [ 7.7089749, 11.3158485 ], [ 7.7083759, 11.3158019 ], [ 7.7081667, 11.3160163 ], [ 7.707891, 11.3166409 ], [ 7.7076914, 11.317452 ], [ 7.7076629, 11.3182817 ], [ 7.7073301, 11.3181978 ], [ 7.7070924, 11.3180673 ], [ 7.7065678, 11.3180931 ], [ 7.7068167, 11.3170232 ], [ 7.7070577, 11.3159302 ], [ 7.7069783, 11.3147485 ], [ 7.7070164, 11.3140773 ], [ 7.7068981, 11.3135094 ], [ 7.7064137, 11.3126309 ], [ 7.7061761, 11.3100416 ], [ 7.6898084, 11.3088473 ], [ 7.689314, 11.3089313 ], [ 7.6889622, 11.3091084 ], [ 7.6885534, 11.3091457 ], [ 7.6876312, 11.3093881 ], [ 7.687337, 11.3093827 ], [ 7.6869562, 11.3093694 ], [ 7.68669, 11.3094254 ], [ 7.6865379, 11.3097889 ], [ 7.686072, 11.3096025 ], [ 7.6859675, 11.309705 ], [ 7.6857108, 11.3096864 ], [ 7.6848266, 11.3094999 ], [ 7.6842942, 11.3091923 ], [ 7.6840185, 11.3094067 ], [ 7.6837808, 11.3095745 ], [ 7.6834861, 11.3096584 ], [ 7.6831819, 11.309444 ], [ 7.682997, 11.309379 ], [ 7.6831938, 11.309143 ], [ 7.6834223, 11.3088265 ], [ 7.6836205, 11.3082588 ], [ 7.6836055, 11.3081339 ], [ 7.6837006, 11.3078193 ], [ 7.6838788, 11.3074813 ], [ 7.6841046, 11.3070152 ], [ 7.6844849, 11.3062577 ], [ 7.6842472, 11.3063976 ], [ 7.6833797, 11.3064908 ], [ 7.6827736, 11.3064442 ], [ 7.6823102, 11.3062461 ], [ 7.6818229, 11.3062228 ], [ 7.6809792, 11.3059548 ], [ 7.6804681, 11.3059315 ], [ 7.6802186, 11.3058615 ], [ 7.6797908, 11.3059198 ], [ 7.6794105, 11.3059081 ], [ 7.6790896, 11.3059198 ], [ 7.6788281, 11.306013 ], [ 7.678436, 11.3059548 ], [ 7.6780438, 11.3059781 ], [ 7.6774496, 11.3061645 ], [ 7.6770927, 11.3063493 ], [ 7.676695, 11.3064679 ], [ 7.6760414, 11.3065378 ], [ 7.6753283, 11.3061533 ], [ 7.6750074, 11.305524 ], [ 7.6748648, 11.3051394 ], [ 7.6743895, 11.3044635 ], [ 7.6739379, 11.304044 ], [ 7.6733556, 11.3032865 ], [ 7.6723336, 11.3014103 ], [ 7.6720246, 11.3012588 ], [ 7.6717512, 11.3011539 ], [ 7.6715017, 11.3010141 ], [ 7.6710794, 11.3005567 ], [ 7.6700811, 11.299368 ], [ 7.6697701, 11.2987551 ], [ 7.6695226, 11.2981444 ], [ 7.6693443, 11.2977482 ], [ 7.6692697, 11.2977138 ], [ 7.66883, 11.2969097 ], [ 7.6687151, 11.2969552 ], [ 7.6683009, 11.2974394 ], [ 7.6643116, 11.3000225 ], [ 7.6640922, 11.2996005 ], [ 7.664009, 11.2992509 ], [ 7.6639377, 11.2990179 ], [ 7.6638902, 11.2986566 ], [ 7.6639734, 11.2979341 ], [ 7.6639852, 11.2974796 ], [ 7.662987, 11.2966755 ], [ 7.6621076, 11.2961744 ], [ 7.661038, 11.2953469 ], [ 7.6607053, 11.2951488 ], [ 7.6604082, 11.2944496 ], [ 7.6585899, 11.2937853 ], [ 7.6580433, 11.293494 ], [ 7.658067, 11.293121 ], [ 7.6579911, 11.2929745 ], [ 7.6577622, 11.2930468 ], [ 7.6575441, 11.293191 ], [ 7.6570259, 11.2930254 ], [ 7.6569618, 11.2928763 ], [ 7.6565756, 11.2928815 ], [ 7.6563201, 11.2931677 ], [ 7.6561062, 11.2930977 ], [ 7.655821, 11.2930045 ], [ 7.6557378, 11.2928414 ], [ 7.6554763, 11.2923635 ], [ 7.6550128, 11.2920372 ], [ 7.6537579, 11.2919813 ], [ 7.6532635, 11.2921864 ], [ 7.6527026, 11.2923076 ], [ 7.6524839, 11.2925873 ], [ 7.6522272, 11.2930255 ], [ 7.6516663, 11.2930068 ], [ 7.6508582, 11.2926712 ], [ 7.6504969, 11.2923822 ], [ 7.649917, 11.2920466 ], [ 7.6500976, 11.2918135 ], [ 7.6504494, 11.2916084 ], [ 7.6498331, 11.2912687 ], [ 7.6495215, 11.2910738 ], [ 7.64928, 11.2912727 ], [ 7.6484624, 11.2912168 ], [ 7.6484148, 11.290993 ], [ 7.6483198, 11.2907133 ], [ 7.6481486, 11.2902379 ], [ 7.6479291, 11.2900184 ], [ 7.64195, 11.2888457 ], [ 7.6389552, 11.2877968 ], [ 7.634594, 11.2862943 ], [ 7.6310405, 11.2849299 ], [ 7.6290922, 11.2840614 ], [ 7.6279031, 11.2835314 ], [ 7.6186676, 11.2776903 ], [ 7.6076015, 11.2718545 ], [ 7.6075021, 11.2718021 ], [ 7.6052813, 11.2743883 ], [ 7.6019683, 11.2788978 ], [ 7.599452, 11.282605 ], [ 7.5931379, 11.2920177 ], [ 7.5857846, 11.3027415 ], [ 7.5823742, 11.3065707 ], [ 7.5775613, 11.3154805 ], [ 7.5739838, 11.3190521 ], [ 7.5699666, 11.3213988 ], [ 7.5621839, 11.3232474 ], [ 7.5558484, 11.3272717 ], [ 7.5509284, 11.3313967 ], [ 7.5445111, 11.3334242 ], [ 7.538319, 11.3345119 ], [ 7.5373477, 11.3349782 ], [ 7.5341166, 11.3365291 ], [ 7.5299014, 11.3391587 ], [ 7.5249025, 11.3402057 ], [ 7.5224069, 11.3404154 ], [ 7.5217252, 11.3404041 ], [ 7.5216643, 11.346948 ], [ 7.5218925, 11.3535475 ], [ 7.5202952, 11.3616008 ], [ 7.5106193, 11.3580006 ], [ 7.505628, 11.3564627 ], [ 7.5036672, 11.3553441 ], [ 7.5011359, 11.3535615 ], [ 7.4963585, 11.3515691 ], [ 7.4894992, 11.3521819 ], [ 7.4829758, 11.3576132 ], [ 7.4774463, 11.3675296 ], [ 7.47723, 11.3683085 ], [ 7.472504, 11.3760158 ], [ 7.4677244, 11.3776586 ], [ 7.4676372, 11.3776825 ], [ 7.4543701, 11.3784062 ], [ 7.4477366, 11.3770795 ], [ 7.4404633, 11.3760042 ], [ 7.4336182, 11.3750535 ], [ 7.4291117, 11.3744943 ], [ 7.4275716, 11.3740469 ], [ 7.4237979, 11.3741392 ], [ 7.4181228, 11.374815 ], [ 7.4150605, 11.3749409 ], [ 7.4063301, 11.3753001 ], [ 7.4054531, 11.3753362 ], [ 7.3979141, 11.3780423 ], [ 7.392313, 11.3748302 ], [ 7.3899786, 11.3702084 ], [ 7.388813, 11.3655901 ], [ 7.3835842, 11.3552418 ], [ 7.3829718, 11.3540297 ], [ 7.3806348, 11.3494101 ], [ 7.3771281, 11.3436203 ], [ 7.3760784, 11.3418907 ], [ 7.37362, 11.3378401 ], [ 7.37011, 11.3332005 ], [ 7.3666129, 11.3228102 ], [ 7.366621, 11.3193598 ], [ 7.3642931, 11.3112698 ], [ 7.3643231, 11.2986002 ], [ 7.364336, 11.29284 ], [ 7.3646144, 11.2903439 ], [ 7.3632644, 11.2865135 ], [ 7.3611094, 11.2783361 ], [ 7.3602062, 11.2743735 ], [ 7.3589703, 11.2704575 ], [ 7.3577819, 11.2642571 ], [ 7.3504297, 11.2627381 ], [ 7.3412077, 11.2623651 ], [ 7.3298942, 11.263484 ], [ 7.3201968, 11.2650691 ], [ 7.3066015, 11.2693581 ], [ 7.3018479, 11.2714093 ], [ 7.2975697, 11.2736471 ], [ 7.2938619, 11.2771901 ], [ 7.2910324, 11.2819042 ], [ 7.2895771, 11.2843288 ], [ 7.283993, 11.2754504 ], [ 7.2809831, 11.2756691 ], [ 7.2768474, 11.2751796 ], [ 7.2750845, 11.2747992 ], [ 7.2732823, 11.2744104 ], [ 7.2701972, 11.2754122 ], [ 7.2677918, 11.2772774 ], [ 7.2656527, 11.2781165 ], [ 7.2626958, 11.2775423 ], [ 7.2605626, 11.2784994 ], [ 7.2604979, 11.2785284 ], [ 7.2584619, 11.2764971 ], [ 7.2570488, 11.2751502 ], [ 7.2527111, 11.2728776 ], [ 7.2522971, 11.2728852 ], [ 7.2495619, 11.2729358 ], [ 7.243917, 11.2739848 ], [ 7.2406153, 11.2750642 ], [ 7.2384506, 11.2757719 ], [ 7.2348852, 11.2761176 ], [ 7.2328937, 11.2767872 ], [ 7.2328325, 11.2768077 ], [ 7.2273983, 11.2786349 ], [ 7.2221218, 11.2761176 ], [ 7.2151268, 11.269965 ], [ 7.2099573, 11.2611072 ], [ 7.1947859, 11.2575612 ], [ 7.1953293, 11.2522393 ], [ 7.1965204, 11.2494049 ], [ 7.1990333, 11.2434247 ], [ 7.1997463, 11.2387623 ], [ 7.1997463, 11.2345661 ], [ 7.2005782, 11.2285048 ], [ 7.2027411, 11.2221635 ], [ 7.2065673, 11.2154981 ], [ 7.2087306, 11.2078953 ], [ 7.2113689, 11.2024396 ], [ 7.2162175, 11.2000615 ], [ 7.2184993, 11.1998516 ], [ 7.2197114, 11.194186 ], [ 7.2064671, 11.1855718 ], [ 7.200074, 11.173159 ], [ 7.2010247, 11.1533851 ], [ 7.2002762, 11.1517286 ], [ 7.2001341, 11.1516326 ], [ 7.1858644, 11.1419954 ], [ 7.1818914, 11.1403685 ], [ 7.1730255, 11.1348997 ], [ 7.1615542, 11.1308666 ], [ 7.1521097, 11.1288363 ], [ 7.1442663, 11.130119 ], [ 7.1338084, 11.1353661 ], [ 7.1292925, 11.1381646 ], [ 7.1233505, 11.145044 ], [ 7.1213063, 11.1492949 ], [ 7.1186788, 11.1560863 ], [ 7.1092648, 11.1624915 ], [ 7.1014213, 11.1664556 ], [ 7.0957539, 11.1695233 ], [ 7.0898939, 11.1748499 ], [ 7.0845583, 11.181024 ], [ 7.0766554, 11.1953052 ], [ 7.0737438, 11.19889 ], [ 7.0689605, 11.2032907 ], [ 7.0613564, 11.2077535 ], [ 7.0584213, 11.2002572 ], [ 7.0538893, 11.2020406 ], [ 7.0518928, 11.2031597 ], [ 7.0492784, 11.2039524 ], [ 7.0469016, 11.2048384 ], [ 7.0433692, 11.2052127 ], [ 7.0402465, 11.2048384 ], [ 7.0367163, 11.2057465 ], [ 7.0304598, 11.2080412 ], [ 7.0254502, 11.2095588 ], [ 7.0138989, 11.2171126 ], [ 6.9990677, 11.2267645 ], [ 6.9839513, 11.2343178 ], [ 6.9757004, 11.2390373 ], [ 6.9700871, 11.2428799 ], [ 6.9677339, 11.2451696 ], [ 6.9688969, 11.2497902 ], [ 6.971901, 11.2547401 ], [ 6.972405, 11.2555704 ], [ 6.9737683, 11.2573685 ], [ 6.975915, 11.2601995 ], [ 6.9782538, 11.26367 ], [ 6.980597, 11.2659998 ], [ 6.984107, 11.2706299 ], [ 6.9864478, 11.2729502 ], [ 6.988791, 11.2752705 ], [ 6.9934769, 11.27876 ], [ 6.9969931, 11.2810898 ], [ 6.9993348, 11.2834101 ], [ 7.0028448, 11.2880402 ], [ 7.005187, 11.2903605 ], [ 7.0086999, 11.2938404 ], [ 7.0087477, 11.3044367 ], [ 7.0077278, 11.3086538 ], [ 7.0075748, 11.3109858 ], [ 7.0087156, 11.3146216 ], [ 7.0096188, 11.330912 ], [ 7.0081894, 11.3407525 ], [ 7.0098969, 11.3474004 ], [ 7.0122499, 11.3464333 ], [ 7.0134217, 11.3460119 ], [ 7.0136285, 11.3492297 ], [ 7.0061932, 11.3617897 ], [ 7.0026722, 11.3617697 ], [ 6.9956331, 11.36057 ], [ 6.9885409, 11.3606752 ], [ 6.9814272, 11.3596214 ], [ 6.9754704, 11.3573848 ], [ 6.9683799, 11.3574996 ], [ 6.9613122, 11.3587628 ], [ 6.958996, 11.3611199 ], [ 6.954316, 11.3635085 ], [ 6.9496365, 11.3658971 ], [ 6.9461621, 11.3694284 ], [ 6.9403472, 11.3741589 ], [ 6.9344616, 11.3754058 ], [ 6.9286231, 11.3789783 ], [ 6.9239676, 11.3825248 ], [ 6.9192881, 11.3849134 ], [ 6.9110154, 11.3850445 ], [ 6.8979914, 11.3840701 ], [ 6.8977492, 11.3812997 ], [ 6.8952892, 11.3812647 ], [ 6.893403, 11.3822569 ], [ 6.8917597, 11.3833967 ], [ 6.8894423, 11.3836414 ] ] ] } }
]
}
