{
"type": "FeatureCollection",
"name": "Katsina_interventions",
"crs": { "type": "name", "properties": { "name": "urn:ogc:def:crs:OGC:1.3:CRS84" } },
"features": [
{ "type": "Feature", "properties": { "OBJECTID": 1, "ActivityID": "KAT001", "Stra_Catch": "Rima", "Micr_Catch": "Jibia", "State": "Katsina", "LGA": "Jibia", "Site_Name": "Desilting_Draininages_of_Jibia_Town_Katsina_State", "Interv_Typ": "Desilting (Urban Drainage Desilting)", "Component": "A - Dryland Management", "Comments": "Completed", "Implemnter": "Katsina_ACReSAL", "Start_Date": "2024-06-24T00:00:00", "End_Date": "2024/12/23", "No_Trees_P": 0, "Sub_compon": "A2-1", "Lon": 7.2238845575299999, "Lat": 13.0939597045, "Female_pop": 0, "Buffer_Mtr": 0, "Area_Impac": 538.60601480299999, "Male_pop": 0, "Area_Intev": 538.60601480299999, "Netsize_Ha": 0.0, "Indicator": "Area under improved catchment management", "Benefi_pop": 80195.0, "Perct_NDVI": 0.0, "parent_micro_name": "Jibia" }, "geometry": { "type": "Polygon", "coordinates": [ [ [ 7.229011795077569, 13.099810780805381, 0.0 ], [ 7.233645953929819, 13.098625022001636, 0.0 ], [ 7.234721237570505, 13.098636244724375, 0.0 ], [ 7.236536142009745, 13.096939278781502, 0.0 ], [ 7.237132708729785, 13.093634542688319, 0.0 ], [ 7.237437692119654, 13.087132947418311, 0.0 ], [ 7.234375388390019, 13.087053006783979, 0.0 ], [ 7.226925224287102, 13.080407093919986, 0.0 ], [ 7.226663629840405, 13.080197954673974, 0.0 ], [ 7.224381159030635, 13.07988912809212, 0.0 ], [ 7.22253203525914, 13.08062266894777, 0.0 ], [ 7.221730672915321, 13.080934468412556, 0.0 ], [ 7.22035411878797, 13.081470060051027, 0.0 ], [ 7.21840918039084, 13.083179941679553, 0.0 ], [ 7.217680906088907, 13.084410701195042, 0.0 ], [ 7.217302104056023, 13.085050857095068, 0.0 ], [ 7.216938909380977, 13.08566463389857, 0.0 ], [ 7.215699481946863, 13.088231785640037, 0.0 ], [ 7.214576368865261, 13.088997529636446, 0.0 ], [ 7.213223935191754, 13.08957018266295, 0.0 ], [ 7.213231376558854, 13.089658566526387, 0.0 ], [ 7.213295907010899, 13.09042501009713, 0.0 ], [ 7.214014856763103, 13.092247524853871, 0.0 ], [ 7.21402686022992, 13.093459127810483, 0.0 ], [ 7.214034949574917, 13.094275632697, 0.0 ], [ 7.213547365883797, 13.096076963993688, 0.0 ], [ 7.213399861588146, 13.096621899121558, 0.0 ], [ 7.213398086583428, 13.096627262126132, 0.0 ], [ 7.212550598020519, 13.099187278894801, 0.0 ], [ 7.21209408557139, 13.100566242051633, 0.0 ], [ 7.211228333585473, 13.10390600778568, 0.0 ], [ 7.210993949471023, 13.106063335151489, 0.0 ], [ 7.210953947682526, 13.106431513968388, 0.0 ], [ 7.213798083815237, 13.108901188689, 0.0 ], [ 7.214254592425568, 13.108932299777347, 0.0 ], [ 7.215642526043541, 13.109026881969427, 0.0 ], [ 7.217768128684226, 13.106362321916501, 0.0 ], [ 7.221033447312662, 13.103400952025975, 0.0 ], [ 7.224211275206383, 13.100978729620843, 0.0 ], [ 7.229011795077569, 13.099810780805381, 0.0 ] ] ] } },
{ "type": "Feature", "properties": { "OBJECTID": 24, "ActivityID": "KAT001", "Stra_Catch": "Rima", "Micr_Catch": "Jibia", "State": "Katsina", "LGA": "Jibia", "Site_Name": "Const. of Riverbank Protection for Jibia Fllood Control Phase II", "Interv_Typ": "Civil Works (Flood Control)", "Component": "A - Dryland Management", "Comments": "Ongoing", "Implemnter": "Katsina_ACReSAL", "Start_Date": "2023-09-15T00:00:00", "End_Date": "2024/01/15", "No_Trees_P": 0, "Sub_compon": "A2-2", "Lon": 7.2353198226700002, "Lat": 13.0957017455, "Female_pop": 0, "Buffer_Mtr": 0, "Area_Impac": 1812.26199174, "Male_pop": 0, "Area_Intev": 1812.26199174, "Netsize_Ha": 1812.26199174, "Indicator": "Area under improved catchment management", "Benefi_pop": 92144.0, "Perct_NDVI": 0.0, "parent_micro_name": "Jibia" }, "geometry": { "type": "MultiPolygon", "coordinates": [ [ [ [ 7.214221631652234, 13.109104493078865, 0.0 ], [ 7.214128589805396, 13.109151125866521, 0.0 ], [ 7.21414946479365, 13.109331329078435, 0.0 ], [ 7.214221631652234, 13.109104493078865, 0.0 ] ] ], [ [ [ 7.214221631652234, 13.109104493078865, 0.0 ], [ 7.214299182386432, 13.109065624669823, 0.0 ], [ 7.21418338111522, 13.109431116121618, 0.0 ], [ 7.214339198189548, 13.109434831784801, 0.0 ], [ 7.214358580766482, 13.109624948214748, 0.0 ], [ 7.216432319044909, 13.110113032715606, 0.0 ], [ 7.216074489376235, 13.111808748075696, 0.0 ], [ 7.223432770189416, 13.119322870805259, 0.0 ], [ 7.226165684026503, 13.117086721426846, 0.0 ], [ 7.227080902382403, 13.116221736352211, 0.0 ], [ 7.228078916196311, 13.115456980634852, 0.0 ], [ 7.228920383343509, 13.11597179428068, 0.0 ], [ 7.229607909832457, 13.115759692349164, 0.0 ], [ 7.230830974601671, 13.116465592019541, 0.0 ], [ 7.232110146148524, 13.115189401297455, 0.0 ], [ 7.23523907133757, 13.114832139604138, 0.0 ], [ 7.238791084585945, 13.113239677989556, 0.0 ], [ 7.240378439734678, 13.110410011922024, 0.0 ], [ 7.242155345199189, 13.109861428707424, 0.0 ], [ 7.248352057058728, 13.10857697257206, 0.0 ], [ 7.254150554016062, 13.10816858328702, 0.0 ], [ 7.25630259284364, 13.106232329158379, 0.0 ], [ 7.257176605792783, 13.105636377850109, 0.0 ], [ 7.260503118573947, 13.095650589400833, 0.0 ], [ 7.258740020288839, 13.090595804616926, 0.0 ], [ 7.25701979396624, 13.088963052805802, 0.0 ], [ 7.255787127786834, 13.087622727918967, 0.0 ], [ 7.252614629141027, 13.08598781476498, 0.0 ], [ 7.250699615427598, 13.082695063735875, 0.0 ], [ 7.250218505247509, 13.081081037416842, 0.0 ], [ 7.25023308845855, 13.080013744705687, 0.0 ], [ 7.251263944592858, 13.077088330549799, 0.0 ], [ 7.250212586197327, 13.073630583810482, 0.0 ], [ 7.248064122278437, 13.072337286946532, 0.0 ], [ 7.247247989561178, 13.072842216613575, 0.0 ], [ 7.246372735822412, 13.072473885667279, 0.0 ], [ 7.246063422215679, 13.072714441413389, 0.0 ], [ 7.245770045191315, 13.07245516419807, 0.0 ], [ 7.243688146358167, 13.073260717432921, 0.0 ], [ 7.241456044885624, 13.0739234873997, 0.0 ], [ 7.240128036229926, 13.074194080684046, 0.0 ], [ 7.239609671240972, 13.074370670894075, 0.0 ], [ 7.239155376795892, 13.074637004705968, 0.0 ], [ 7.238422695823715, 13.075071222058137, 0.0 ], [ 7.236745971193276, 13.074882035104672, 0.0 ], [ 7.234653692664302, 13.076189122666465, 0.0 ], [ 7.231386173668009, 13.076942608866556, 0.0 ], [ 7.22882538285909, 13.076668570378391, 0.0 ], [ 7.225955084309404, 13.076898384639447, 0.0 ], [ 7.225458422944596, 13.077383513599326, 0.0 ], [ 7.224704125317137, 13.077827011155078, 0.0 ], [ 7.224445848811764, 13.078575223813759, 0.0 ], [ 7.223723897907059, 13.08003229361813, 0.0 ], [ 7.221730672915321, 13.080934468412556, 0.0 ], [ 7.220193317762102, 13.081630291691576, 0.0 ], [ 7.217680906088907, 13.084410701195042, 0.0 ], [ 7.217483289048599, 13.084629393659268, 0.0 ], [ 7.217302104056023, 13.085050857095068, 0.0 ], [ 7.215673553452816, 13.088839031864799, 0.0 ], [ 7.213231376558854, 13.089658566526387, 0.0 ], [ 7.212903714264227, 13.089768519577662, 0.0 ], [ 7.21402686022992, 13.093459127810483, 0.0 ], [ 7.214126988061026, 13.093788137718516, 0.0 ], [ 7.213920178339573, 13.095117714012146, 0.0 ], [ 7.213761624840083, 13.096074963734985, 0.0 ], [ 7.213547365883797, 13.096076963993688, 0.0 ], [ 7.21337360866958, 13.096078586657157, 0.0 ], [ 7.213398086583428, 13.096627262126132, 0.0 ], [ 7.2134409861938, 13.097588883342311, 0.0 ], [ 7.213064836150647, 13.098014282644817, 0.0 ], [ 7.212550598020519, 13.099187278894801, 0.0 ], [ 7.211970874197305, 13.100509633400145, 0.0 ], [ 7.210888746903187, 13.103635647187719, 0.0 ], [ 7.210737192142145, 13.105406817289596, 0.0 ], [ 7.210993949471023, 13.106063335151489, 0.0 ], [ 7.211200410079315, 13.10659124423186, 0.0 ], [ 7.212674805077149, 13.107048003902282, 0.0 ], [ 7.213484276702708, 13.108412470347, 0.0 ], [ 7.214139628273609, 13.108505740721375, 0.0 ], [ 7.214140025800967, 13.108789233357763, 0.0 ], [ 7.21420798922112, 13.108698280037373, 0.0 ], [ 7.214254592425568, 13.108932299777347, 0.0 ], [ 7.214262993262437, 13.108974483649067, 0.0 ], [ 7.214221631652234, 13.109104493078865, 0.0 ] ] ] ] } },
{ "type": "Feature", "properties": { "OBJECTID": 4, "ActivityID": "KAT001", "Stra_Catch": "Rima", "Micr_Catch": "Katsina", "State": "Katsina", "LGA": "Bindawa", "Site_Name": "Faru BindawaLGA_Bore&Tree Planting", "Interv_Typ": "Afforestation (Agroforestry)", "Component": "A - Dryland Management", "Comments": "Completed", "Implemnter": "Katsina_ACReSAL", "Start_Date": "2024-06-25T00:00:00", "End_Date": "2024/09/25", "No_Trees_P": 0, "Sub_compon": "A2-1", "Lon": 7.8942329760299996, "Lat": 12.6920105119, "Female_pop": 0, "Buffer_Mtr": 0, "Area_Impac": 6.0454249419400004, "Male_pop": 0, "Area_Intev": 6.0454249419400004, "Netsize_Ha": 6.0454249419400004, "Indicator": "Area under improved catchment management", "Benefi_pop": 389.0, "Perct_NDVI": 0.0, "parent_micro_name": "Charanchi" }, "geometry": { "type": "Polygon", "coordinates": [ [ [ 7.892854514055114, 12.691669300554455, 0.0 ], [ 7.893736010833826, 12.691750322097116, 0.0 ], [ 7.89383292999206, 12.6919403256738, 0.0 ], [ 7.893797710139501, 12.692150869711751, 0.0 ], [ 7.893755182685958, 12.692470389070142, 0.0 ], [ 7.893908988712357, 12.692517781878292, 0.0 ], [ 7.893894533026922, 12.692857859869587, 0.0 ], [ 7.893866031225639, 12.69328676077432, 0.0 ], [ 7.893893791200167, 12.693416133093345, 0.0 ], [ 7.893647892444551, 12.693758470121482, 0.0 ], [ 7.893829025685278, 12.69385441615791, 0.0 ], [ 7.89405936566902, 12.693875127436197, 0.0 ], [ 7.894312262153044, 12.69356554717838, 0.0 ], [ 7.894584482837832, 12.693183868690825, 0.0 ], [ 7.894640286806054, 12.693102122633436, 0.0 ], [ 7.894821403260892, 12.693068002893096, 0.0 ], [ 7.894995500636115, 12.693067819638854, 0.0 ], [ 7.895106938710155, 12.693122605856498, 0.0 ], [ 7.895162801954833, 12.69336846324642, 0.0 ], [ 7.895664073026015, 12.692735172111917, 0.0 ], [ 7.895629003788958, 12.692571924837209, 0.0 ], [ 7.895468488664774, 12.692313671400486, 0.0 ], [ 7.895378032166859, 12.692171170687653, 0.0 ], [ 7.895391919845386, 12.691879444390661, 0.0 ], [ 7.895412730734027, 12.691757372590104, 0.0 ], [ 7.895377944302148, 12.691689562065964, 0.0 ], [ 7.895225005841365, 12.691682725315102, 0.0 ], [ 7.895051159033662, 12.691703159858255, 0.0 ], [ 7.894731240887857, 12.69162159255721, 0.0 ], [ 7.894696457390459, 12.691614792423056, 0.0 ], [ 7.894654730396709, 12.691608011305282, 0.0 ], [ 7.894626913089282, 12.691594444640522, 0.0 ], [ 7.894606059981727, 12.691567320450291, 0.0 ], [ 7.89459925992742, 12.691452217752168, 0.0 ], [ 7.894599197274514, 12.691330014856904, 0.0 ], [ 7.894543517948978, 12.691302801767293, 0.0 ], [ 7.894731537712811, 12.690496936000848, 0.0 ], [ 7.894050464999421, 12.690435593155355, 0.0 ], [ 7.893452928710203, 12.690408576902325, 0.0 ], [ 7.893056926707885, 12.690381524103358, 0.0 ], [ 7.89286946289075, 12.6904426301963, 0.0 ], [ 7.892848648262846, 12.690761247143151, 0.0 ], [ 7.892904092844803, 12.691289890765505, 0.0 ], [ 7.892868707711073, 12.691560871142027, 0.0 ], [ 7.892854514055114, 12.691669300554455, 0.0 ] ] ] } },
{ "type": "Feature", "properties": { "OBJECTID": 8, "ActivityID": "KAT001", "Stra_Catch": "Rima", "Micr_Catch": "Charanchi", "State": "Katsina", "LGA": "Katsina", "Site_Name": "Plantation_Dajin_Koda_CharanchiLGA", "Interv_Typ": "Afforestation (Agroforestry)", "Component": "A - Dryland Management", "Comments": "Completed", "Implemnter": "Katsina_ACReSAL", "Start_Date": "2024-06-25T00:00:00", "End_Date": "2024/09/25", "No_Trees_P": 0, "Sub_compon": "A2-1", "Lon": 7.7404103943400004, "Lat": 12.636940268, "Female_pop": 0, "Buffer_Mtr": 0, "Area_Impac": 40.999061081000001, "Male_pop": 0, "Area_Intev": 40.999061081000001, "Netsize_Ha": 40.999061081000001, "Indicator": "Area under improved catchment management", "Benefi_pop": 624.0, "Perct_NDVI": 0.0, "parent_micro_name": "Charanchi" }, "geometry": { "type": "Polygon", "coordinates": [ [ [ 7.737443844245027, 12.641555458901891, 0.0 ], [ 7.74490121931496, 12.635006168700627, 0.0 ], [ 7.741206516696224, 12.632782683728575, 0.0 ], [ 7.739904269599637, 12.633827382842659, 0.0 ], [ 7.739718110261364, 12.633847320081578, 0.0 ], [ 7.737874286306503, 12.635699567960616, 0.0 ], [ 7.737045805951698, 12.635699308914182, 0.0 ], [ 7.73682737472252, 12.638004189702631, 0.0 ], [ 7.736640847059173, 12.639424618625648, 0.0 ], [ 7.737443844245027, 12.641555458901891, 0.0 ] ] ] } },
{ "type": "Feature", "properties": { "OBJECTID": 10, "ActivityID": "KAT001", "Stra_Catch": "Rima", "Micr_Catch": "Charanchi", "State": "Katsina", "LGA": "Charanchi", "Site_Name": "Kirkini Community", "Interv_Typ": "Afforestation (Agroforestry)", "Component": "A - Dryland Management", "Comments": "Completed", "Implemnter": "Katsina_ACReSAL", "Start_Date": "2024-06-25T00:00:00", "End_Date": "2024/09/25", "No_Trees_P": 0, "Sub_compon": "A2-1", "Lon": 7.7078729988800001, "Lat": 12.6097858705, "Female_pop": 0, "Buffer_Mtr": 0, "Area_Impac": 32.754647411900002, "Male_pop": 0, "Area_Intev": 32.754647411900002, "Netsize_Ha": 32.754647411900002, "Indicator": "Area under improved catchment management", "Benefi_pop": 1821.0, "Perct_NDVI": 0.0, "parent_micro_name": "Charanchi" }, "geometry": { "type": "Polygon", "coordinates": [ [ [ 7.706441822909714, 12.610366941002239, 0.0 ], [ 7.706056842324842, 12.611551234289388, 0.0 ], [ 7.704617743946856, 12.613984393651362, 0.0 ], [ 7.704480194602384, 12.6141949729135, 0.0 ], [ 7.706768378040132, 12.615798956142557, 0.0 ], [ 7.706890039327939, 12.615462123234058, 0.0 ], [ 7.705037437664002, 12.614209510654709, 0.0 ], [ 7.70628125311045, 12.612046708313327, 0.0 ], [ 7.709079184607445, 12.61206604464514, 0.0 ], [ 7.709880972351852, 12.61164585310196, 0.0 ], [ 7.710117441877745, 12.611285792209205, 0.0 ], [ 7.710058663981276, 12.608596448219735, 0.0 ], [ 7.709999781970797, 12.608023661761083, 0.0 ], [ 7.709942967108385, 12.607262438596285, 0.0 ], [ 7.710099282367912, 12.606801218608563, 0.0 ], [ 7.710895695218162, 12.606413934971583, 0.0 ], [ 7.71088715640148, 12.606243865157259, 0.0 ], [ 7.710836212727986, 12.605590665585314, 0.0 ], [ 7.710588358419811, 12.605563936600987, 0.0 ], [ 7.709038280204407, 12.605320125560818, 0.0 ], [ 7.707653557438127, 12.605334597233606, 0.0 ], [ 7.706935337691219, 12.605453795573569, 0.0 ], [ 7.706497801679483, 12.606119152637088, 0.0 ], [ 7.706359025877491, 12.606396723265719, 0.0 ], [ 7.706143994394234, 12.606808519892573, 0.0 ], [ 7.706040000174856, 12.607187916199347, 0.0 ], [ 7.705262588625839, 12.607538708843959, 0.0 ], [ 7.706967466977515, 12.608344032965654, 0.0 ], [ 7.706441822909714, 12.610366941002239, 0.0 ] ] ] } },
{ "type": "Feature", "properties": { "OBJECTID": 11, "ActivityID": "KAT001", "Stra_Catch": "Rima", "Micr_Catch": "Charanchi", "State": "Katsina", "LGA": "Charanchi", "Site_Name": "Radda_Farm Boundry Planting", "Interv_Typ": "Afforestation (Agroforestry)", "Component": "A - Dryland Management", "Comments": "Completed", "Implemnter": "Katsina_ACReSAL", "Start_Date": "2024-06-25T00:00:00", "End_Date": "2024/09/26", "No_Trees_P": 0, "Sub_compon": "A2-1", "Lon": 7.68156878998, "Lat": 12.466553403000001, "Female_pop": 0, "Buffer_Mtr": 0, "Area_Impac": 31.7177768526, "Male_pop": 0, "Area_Intev": 0.0, "Netsize_Ha": 31.7177768526, "Indicator": "Area under improved catchment management", "Benefi_pop": 106.0, "Perct_NDVI": 0.0, "parent_micro_name": "Charanchi" }, "geometry": { "type": "Polygon", "coordinates": [ [ [ 7.679941840282905, 12.474064323221793, 0.0 ], [ 7.68080070945719, 12.473958794299094, 0.0 ], [ 7.681485717027205, 12.473998813303227, 0.0 ], [ 7.682534645931877, 12.473974438807785, 0.0 ], [ 7.683210541917233, 12.473799826035206, 0.0 ], [ 7.684151481375901, 12.473559868737524, 0.0 ], [ 7.684918372122416, 12.473599029616585, 0.0 ], [ 7.685322093101287, 12.473602801896671, 0.0 ], [ 7.685430236682741, 12.473429177335095, 0.0 ], [ 7.685368821217421, 12.472877115492187, 0.0 ], [ 7.685381986435358, 12.472078588446612, 0.0 ], [ 7.685442670600244, 12.471724323221228, 0.0 ], [ 7.685895497310526, 12.471631703392573, 0.0 ], [ 7.685981710484924, 12.471220853145949, 0.0 ], [ 7.686139744208139, 12.471066295047653, 0.0 ], [ 7.686045063994814, 12.47066660494723, 0.0 ], [ 7.685851563917466, 12.470393463073808, 0.0 ], [ 7.685430112951497, 12.469976160601201, 0.0 ], [ 7.685031203295901, 12.469343722425515, 0.0 ], [ 7.68490966080736, 12.468448949715066, 0.0 ], [ 7.684974752761475, 12.467912482891764, 0.0 ], [ 7.685077360452911, 12.467422211483019, 0.0 ], [ 7.685037256099664, 12.467095464993683, 0.0 ], [ 7.685070203867183, 12.466246256688281, 0.0 ], [ 7.685014026022474, 12.465284001726063, 0.0 ], [ 7.685011007669095, 12.465131238190985, 0.0 ], [ 7.685109447118514, 12.465000437170396, 0.0 ], [ 7.685330684239228, 12.464934031048646, 0.0 ], [ 7.685771890760893, 12.464913621307939, 0.0 ], [ 7.686428686912071, 12.464911425464665, 0.0 ], [ 7.68688711485566, 12.465067577183083, 0.0 ], [ 7.687320892158534, 12.465004864329636, 0.0 ], [ 7.687465360369199, 12.464831978178408, 0.0 ], [ 7.687525115094865, 12.464283597987711, 0.0 ], [ 7.687544910288537, 12.463454699107038, 0.0 ], [ 7.687627855756668, 12.463338750047827, 0.0 ], [ 7.687258024430941, 12.463008893327734, 0.0 ], [ 7.687153794552274, 12.46281759631481, 0.0 ], [ 7.687050323925823, 12.462412776427914, 0.0 ], [ 7.687002719090924, 12.46198680109184, 0.0 ], [ 7.686978708942852, 12.461607897140045, 0.0 ], [ 7.687122920123706, 12.461275101224773, 0.0 ], [ 7.687157431299998, 12.460866764152529, 0.0 ], [ 7.687157282335672, 12.460330862160298, 0.0 ], [ 7.687271631552901, 12.459891987600363, 0.0 ], [ 7.687236293235022, 12.459527319537051, 0.0 ], [ 7.687090028563788, 12.459257756354543, 0.0 ], [ 7.686824203428528, 12.459315704236069, 0.0 ], [ 7.68652352997016, 12.459344794707784, 0.0 ], [ 7.686073554755012, 12.459302641503585, 0.0 ], [ 7.685792867882673, 12.459302344121422, 0.0 ], [ 7.68560019912573, 12.459344711076797, 0.0 ], [ 7.685422916656854, 12.459401769192155, 0.0 ], [ 7.685261759796503, 12.459559945975194, 0.0 ], [ 7.685268873638518, 12.459764156920555, 0.0 ], [ 7.685222318635787, 12.460062120420279, 0.0 ], [ 7.685022640914895, 12.46001738791869, 0.0 ], [ 7.684985472483827, 12.459779175211491, 0.0 ], [ 7.684787394068147, 12.459546063999335, 0.0 ], [ 7.6845023906256, 12.459532419746548, 0.0 ], [ 7.68423263148611, 12.459532258908654, 0.0 ], [ 7.684065580328697, 12.45948888798139, 0.0 ], [ 7.683971196555031, 12.459604300156682, 0.0 ], [ 7.683856151220447, 12.459912580755162, 0.0 ], [ 7.683732073967048, 12.460304584879843, 0.0 ], [ 7.683732385400819, 12.460582589734004, 0.0 ], [ 7.683304425055707, 12.46067591842092, 0.0 ], [ 7.683163231131657, 12.460675278162265, 0.0 ], [ 7.682953787788428, 12.460910657836019, 0.0 ], [ 7.68278285991454, 12.461135379637891, 0.0 ], [ 7.682647923693621, 12.461283202219919, 0.0 ], [ 7.682388570892584, 12.461286663075315, 0.0 ], [ 7.682229977683311, 12.461288599979769, 0.0 ], [ 7.68190005802084, 12.461357780699791, 0.0 ], [ 7.681638810319118, 12.461325500142447, 0.0 ], [ 7.681465067855306, 12.461309736529611, 0.0 ], [ 7.681262723647351, 12.461311301106571, 0.0 ], [ 7.680943931015524, 12.461428354958894, 0.0 ], [ 7.680695986579556, 12.46149684950192, 0.0 ], [ 7.680288886538488, 12.461479276359414, 0.0 ], [ 7.679897567283248, 12.46144587136865, 0.0 ], [ 7.679519829153332, 12.461445351544569, 0.0 ], [ 7.679224464797094, 12.46151250720326, 0.0 ], [ 7.678771191806667, 12.461530327131745, 0.0 ], [ 7.678552506953468, 12.461530396648712, 0.0 ], [ 7.678395796803088, 12.461495871362416, 0.0 ], [ 7.678266810849981, 12.461751113685175, 0.0 ], [ 7.678068992059585, 12.461941478008628, 0.0 ], [ 7.677692604224444, 12.462461826524704, 0.0 ], [ 7.677459768949331, 12.462625622216473, 0.0 ], [ 7.676981360401721, 12.463302717117621, 0.0 ], [ 7.676555561419693, 12.463832177070088, 0.0 ], [ 7.676226690172224, 12.464281297550881, 0.0 ], [ 7.67590086607769, 12.464575221378411, 0.0 ], [ 7.675495339438033, 12.464573175997394, 0.0 ], [ 7.675264005430938, 12.464845232257479, 0.0 ], [ 7.67504191659708, 12.465141443827179, 0.0 ], [ 7.674852481299517, 12.465423274043967, 0.0 ], [ 7.674748614597145, 12.465601831520134, 0.0 ], [ 7.674665294172725, 12.466303393936084, 0.0 ], [ 7.674642505643533, 12.466495274955458, 0.0 ], [ 7.674633766995404, 12.466568852790276, 0.0 ], [ 7.674690177881196, 12.466512785125623, 0.0 ], [ 7.674892742214467, 12.466311448973789, 0.0 ], [ 7.675023455386376, 12.46617136914956, 0.0 ], [ 7.675741524195134, 12.465391436133267, 0.0 ], [ 7.676561481099195, 12.464615567565922, 0.0 ], [ 7.677145285932373, 12.464155924179254, 0.0 ], [ 7.677554765052915, 12.463694598614623, 0.0 ], [ 7.67792754350737, 12.463187818604224, 0.0 ], [ 7.678199932944168, 12.462808591868189, 0.0 ], [ 7.678509471555605, 12.46244285650603, 0.0 ], [ 7.678990138867582, 12.462084036698254, 0.0 ], [ 7.67934982583678, 12.46204764826869, 0.0 ], [ 7.680291839222797, 12.461856564567759, 0.0 ], [ 7.680867421073846, 12.46185680371001, 0.0 ], [ 7.681413394820839, 12.461854151384543, 0.0 ], [ 7.681736659735602, 12.461800128473085, 0.0 ], [ 7.682075009419162, 12.461796964200603, 0.0 ], [ 7.682484901808767, 12.4617587524063, 0.0 ], [ 7.682678034615171, 12.461793798362622, 0.0 ], [ 7.682992307716949, 12.461657873733969, 0.0 ], [ 7.683318014081244, 12.461523244844459, 0.0 ], [ 7.683540293883334, 12.461405546925114, 0.0 ], [ 7.683928884486877, 12.461374202302055, 0.0 ], [ 7.684072870382756, 12.461109944577338, 0.0 ], [ 7.684248097744971, 12.4606616493964, 0.0 ], [ 7.684437381868075, 12.46038157885272, 0.0 ], [ 7.684728477279708, 12.46036715558156, 0.0 ], [ 7.684879165704411, 12.460538391656334, 0.0 ], [ 7.685164747005469, 12.460569586836906, 0.0 ], [ 7.685630886193283, 12.460584583734207, 0.0 ], [ 7.685684690937192, 12.460259118596339, 0.0 ], [ 7.685972668855634, 12.459882911161548, 0.0 ], [ 7.686286966156281, 12.459882499396814, 0.0 ], [ 7.686669488149227, 12.45988185837553, 0.0 ], [ 7.686784258637993, 12.460090196392974, 0.0 ], [ 7.686772711640582, 12.460411213033089, 0.0 ], [ 7.686745839270403, 12.460867685725333, 0.0 ], [ 7.68664563452861, 12.461340708401393, 0.0 ], [ 7.686538648355532, 12.461744417490937, 0.0 ], [ 7.686638173991109, 12.462162577167053, 0.0 ], [ 7.686677030137726, 12.462502998293147, 0.0 ], [ 7.686630593401308, 12.462799004398448, 0.0 ], [ 7.686706745600325, 12.463178669932361, 0.0 ], [ 7.68700378088155, 12.463412664376852, 0.0 ], [ 7.687263449997578, 12.463671693860967, 0.0 ], [ 7.687243538935772, 12.464096415236817, 0.0 ], [ 7.687173661915181, 12.464532550174436, 0.0 ], [ 7.687036439959165, 12.464658592449123, 0.0 ], [ 7.686811835969413, 12.46450996542705, 0.0 ], [ 7.686390113042481, 12.464509900917013, 0.0 ], [ 7.68590767609318, 12.464340255629919, 0.0 ], [ 7.685597473007924, 12.464422087099233, 0.0 ], [ 7.68533262895073, 12.464379930462298, 0.0 ], [ 7.685103981588644, 12.464359855011418, 0.0 ], [ 7.684856982974409, 12.464319529694031, 0.0 ], [ 7.684673906831027, 12.464806127471769, 0.0 ], [ 7.684608844573696, 12.465667577988294, 0.0 ], [ 7.684611080966505, 12.466438799800295, 0.0 ], [ 7.684602031143245, 12.46714768561041, 0.0 ], [ 7.684535468061338, 12.467862796124956, 0.0 ], [ 7.68448415119109, 12.468609585121504, 0.0 ], [ 7.684533158139021, 12.469088726865186, 0.0 ], [ 7.684680459414762, 12.469604133199246, 0.0 ], [ 7.684955776837639, 12.470036005839292, 0.0 ], [ 7.685250583774554, 12.4704190329636, 0.0 ], [ 7.685581025271612, 12.470724104551184, 0.0 ], [ 7.685622883559391, 12.471061516049879, 0.0 ], [ 7.685364405920253, 12.471058392280415, 0.0 ], [ 7.685189049819781, 12.471087576664408, 0.0 ], [ 7.68503418696151, 12.471495819261735, 0.0 ], [ 7.685004501562229, 12.471979067327242, 0.0 ], [ 7.68506956815532, 12.472604561822692, 0.0 ], [ 7.684761464772972, 12.472841301123983, 0.0 ], [ 7.684344758064929, 12.472836582429679, 0.0 ], [ 7.683831599753606, 12.472934643468244, 0.0 ], [ 7.683211244073966, 12.473031688718615, 0.0 ], [ 7.682674671593885, 12.473201218144993, 0.0 ], [ 7.682090381002154, 12.473338173262711, 0.0 ], [ 7.681584800630048, 12.473335265635663, 0.0 ], [ 7.680952901495531, 12.473360207714183, 0.0 ], [ 7.680404383809154, 12.473396645526101, 0.0 ], [ 7.680214495913338, 12.473397280244786, 0.0 ], [ 7.679902261622106, 12.473262130821757, 0.0 ], [ 7.679922540260366, 12.472614493055904, 0.0 ], [ 7.680045485048791, 12.471925692373294, 0.0 ], [ 7.680324647317781, 12.471218746255291, 0.0 ], [ 7.680611968565883, 12.470600861563417, 0.0 ], [ 7.68102490308012, 12.469775005925195, 0.0 ], [ 7.681177403369905, 12.469546480237248, 0.0 ], [ 7.681214204075193, 12.469152535876972, 0.0 ], [ 7.681150700288788, 12.468946190987158, 0.0 ], [ 7.681129705555453, 12.468877973448965, 0.0 ], [ 7.681120235982421, 12.468847203529002, 0.0 ], [ 7.680972937326787, 12.468465524299857, 0.0 ], [ 7.680715974943769, 12.468411369708262, 0.0 ], [ 7.680354124642783, 12.468169592916562, 0.0 ], [ 7.679974939299972, 12.468061919440782, 0.0 ], [ 7.679586281863455, 12.467823617083193, 0.0 ], [ 7.679215340166988, 12.467690266126287, 0.0 ], [ 7.678845618160097, 12.467584284709391, 0.0 ], [ 7.678371183453343, 12.467479776602376, 0.0 ], [ 7.67804663828122, 12.467326818237877, 0.0 ], [ 7.67775016031772, 12.467103451858106, 0.0 ], [ 7.677221731170122, 12.466953534534641, 0.0 ], [ 7.676906322075972, 12.466950557230243, 0.0 ], [ 7.676457995510758, 12.466777945067324, 0.0 ], [ 7.67601984570631, 12.46668037256326, 0.0 ], [ 7.675562500705303, 12.466510994823434, 0.0 ], [ 7.675277444017869, 12.466368438725894, 0.0 ], [ 7.675075615517137, 12.466343681022481, 0.0 ], [ 7.67475206346243, 12.466535515625772, 0.0 ], [ 7.674646221584613, 12.466598269627916, 0.0 ], [ 7.6747052883216, 12.46673920293958, 0.0 ], [ 7.676091470562444, 12.467235530667214, 0.0 ], [ 7.677005632317345, 12.467419336942971, 0.0 ], [ 7.678060404088436, 12.467755162184686, 0.0 ], [ 7.678668483680111, 12.46804634019089, 0.0 ], [ 7.67934262227481, 12.468342508779912, 0.0 ], [ 7.679938443025378, 12.468590961170847, 0.0 ], [ 7.680578111791941, 12.469007642532134, 0.0 ], [ 7.680799620869121, 12.469317455069179, 0.0 ], [ 7.680425625674441, 12.470121109152755, 0.0 ], [ 7.679857929690057, 12.470904249897028, 0.0 ], [ 7.679669183302768, 12.471692901712698, 0.0 ], [ 7.679585718837425, 12.472252952376831, 0.0 ], [ 7.679387251029285, 12.473025806971744, 0.0 ], [ 7.679400513018703, 12.473681349466787, 0.0 ], [ 7.679555352017815, 12.474069753005708, 0.0 ], [ 7.679941840282905, 12.474064323221793, 0.0 ] ] ] } },
{ "type": "Feature", "properties": { "OBJECTID": 25, "ActivityID": "KAT001", "Stra_Catch": "Rima", "Micr_Catch": "Charanchi", "State": "Katsina", "LGA": "Katsina", "Site_Name": "Radda Farm", "Interv_Typ": "Afforestation (Agroforestry)", "Component": "A - Dryland Management", "Comments": null, "Implemnter": "Katsina_ACReSAL", "Start_Date": "2024-06-25T00:00:00", "End_Date": "2024/12/25", "No_Trees_P": 0, "Sub_compon": "A2-1", "Lon": 7.6814993609000002, "Lat": 12.4665734238, "Female_pop": 0, "Buffer_Mtr": 0, "Area_Impac": 113.75118806, "Male_pop": 0, "Area_Intev": 113.75118806, "Netsize_Ha": 113.75118806, "Indicator": "Area under improved catchment management", "Benefi_pop": 1755.0, "Perct_NDVI": 0.0, "parent_micro_name": "Charanchi" }, "geometry": { "type": "Polygon", "coordinates": [ [ [ 7.681651468807799, 12.473774551842549, 0.0 ], [ 7.682534815769289, 12.473726261686284, 0.0 ], [ 7.68348824119985, 12.473608687400183, 0.0 ], [ 7.684893325419084, 12.473407330873517, 0.0 ], [ 7.685275120784638, 12.473255336425503, 0.0 ], [ 7.685254866668027, 12.472879345047781, 0.0 ], [ 7.685270036169648, 12.472678891704049, 0.0 ], [ 7.685253456141378, 12.472366105989481, 0.0 ], [ 7.685245018729775, 12.472182756054885, 0.0 ], [ 7.68517031507179, 12.471461736341832, 0.0 ], [ 7.685822935189579, 12.471391986735204, 0.0 ], [ 7.685977097261047, 12.470712392700198, 0.0 ], [ 7.685742947557142, 12.470657378120098, 0.0 ], [ 7.685220075811356, 12.47015067871774, 0.0 ], [ 7.684915229042367, 12.469788798176742, 0.0 ], [ 7.684720883273207, 12.468735319378979, 0.0 ], [ 7.684807165864415, 12.468158298926152, 0.0 ], [ 7.685031637976882, 12.467512996394216, 0.0 ], [ 7.684956394587056, 12.46704999777921, 0.0 ], [ 7.684918810666168, 12.46634060901931, 0.0 ], [ 7.684935672781513, 12.465902521801111, 0.0 ], [ 7.684822498772422, 12.464691867035068, 0.0 ], [ 7.687222067264021, 12.464889841017509, 0.0 ], [ 7.687337323950979, 12.46484975508023, 0.0 ], [ 7.687476998221111, 12.463438690354891, 0.0 ], [ 7.68726834589706, 12.463318577680791, 0.0 ], [ 7.686962866929463, 12.463227646589921, 0.0 ], [ 7.68688552460827, 12.462648802143885, 0.0 ], [ 7.686875743228925, 12.462356185160177, 0.0 ], [ 7.686794634211582, 12.461883077587485, 0.0 ], [ 7.686811088988492, 12.461755919352743, 0.0 ], [ 7.686976588416703, 12.460936280570401, 0.0 ], [ 7.687091538785312, 12.459670325175999, 0.0 ], [ 7.685532471662907, 12.459672155354147, 0.0 ], [ 7.685363545837214, 12.460393173403411, 0.0 ], [ 7.685029432991463, 12.46036626721566, 0.0 ], [ 7.684927954031829, 12.460270913337403, 0.0 ], [ 7.684822393080453, 12.460195834590797, 0.0 ], [ 7.684846545668446, 12.460075160182877, 0.0 ], [ 7.68485890735696, 12.459962944912606, 0.0 ], [ 7.684727490547727, 12.459917203702281, 0.0 ], [ 7.684615721006264, 12.459910884233732, 0.0 ], [ 7.684515057430975, 12.459878495087844, 0.0 ], [ 7.684362496346831, 12.459865481913479, 0.0 ], [ 7.684280282632646, 12.459845602924911, 0.0 ], [ 7.684048254003565, 12.459838627042675, 0.0 ], [ 7.683941319346426, 12.460493610798675, 0.0 ], [ 7.683909689346049, 12.461032154600275, 0.0 ], [ 7.683674537035722, 12.461030510775748, 0.0 ], [ 7.683549743356759, 12.460971932410599, 0.0 ], [ 7.683426532247453, 12.460965469863066, 0.0 ], [ 7.683285226087329, 12.460952583201619, 0.0 ], [ 7.683191805738072, 12.460952029319618, 0.0 ], [ 7.683107169078525, 12.460982900102183, 0.0 ], [ 7.683104538843174, 12.461073482558366, 0.0 ], [ 7.683005505090549, 12.461276236579005, 0.0 ], [ 7.68294004794058, 12.461405582996093, 0.0 ], [ 7.682862079722953, 12.4614744362867, 0.0 ], [ 7.682752377731441, 12.461535908423196, 0.0 ], [ 7.678513576946158, 12.461843996445902, 0.0 ], [ 7.676492081237006, 12.46436420385754, 0.0 ], [ 7.676035754616205, 12.464761186281676, 0.0 ], [ 7.675631053326537, 12.464787866178535, 0.0 ], [ 7.675361322322073, 12.465015124735141, 0.0 ], [ 7.675244382898051, 12.465415195709841, 0.0 ], [ 7.675157585624014, 12.465460210267379, 0.0 ], [ 7.674665294172725, 12.466303393936084, 0.0 ], [ 7.67464382943052, 12.466340158171329, 0.0 ], [ 7.674617229646479, 12.466485990690124, 0.0 ], [ 7.674642505643533, 12.466495274955458, 0.0 ], [ 7.674690177881196, 12.466512785125623, 0.0 ], [ 7.67475206346243, 12.466535515625772, 0.0 ], [ 7.681129705555453, 12.468877973448965, 0.0 ], [ 7.681175191350807, 12.468894678987326, 0.0 ], [ 7.681150700288788, 12.468946190987158, 0.0 ], [ 7.680748345021606, 12.469792447960867, 0.0 ], [ 7.680315345360821, 12.470503524047421, 0.0 ], [ 7.679934061345896, 12.471197551434486, 0.0 ], [ 7.679621621113116, 12.472551900308352, 0.0 ], [ 7.679485122185508, 12.473725089162807, 0.0 ], [ 7.67991836895732, 12.473758866099159, 0.0 ], [ 7.680403913143658, 12.473758173814218, 0.0 ], [ 7.681651468807799, 12.473774551842549, 0.0 ] ] ] } },
{ "type": "Feature", "properties": { "OBJECTID": 3, "ActivityID": "KAT001", "Stra_Catch": "Rima", "Micr_Catch": "Katsina", "State": "Katsina", "LGA": "Batagarawa", "Site_Name": "Tsanni, BatagarawaLGA Agroforestry Site", "Interv_Typ": "Afforestation (Agroforestry)", "Component": "A - Dryland Management", "Comments": "Completed", "Implemnter": "Katsina_ACReSAL", "Start_Date": "2024-06-25T00:00:00", "End_Date": "2024/09/25", "No_Trees_P": 0, "Sub_compon": "A2-1", "Lon": 7.5557614897900001, "Lat": 12.783844420499999, "Female_pop": 0, "Buffer_Mtr": 0, "Area_Impac": 69.815702186699994, "Male_pop": 0, "Area_Intev": 69.815702186699994, "Netsize_Ha": 69.815702186699994, "Indicator": "Area under improved catchment management", "Benefi_pop": 104.0, "Perct_NDVI": 0.0, "parent_micro_name": "Batagarawa" }, "geometry": { "type": "Polygon", "coordinates": [ [ [ 7.552956762098679, 12.787060428761825, 0.0 ], [ 7.553147932745435, 12.788255203203821, 0.0 ], [ 7.554281709745942, 12.788407272703608, 0.0 ], [ 7.555065511667157, 12.788704763310871, 0.0 ], [ 7.555841057925611, 12.788566466296771, 0.0 ], [ 7.556512228424931, 12.788053544063599, 0.0 ], [ 7.556794700592829, 12.787362468117092, 0.0 ], [ 7.556894227933998, 12.786937991345853, 0.0 ], [ 7.55723146174332, 12.786676919584426, 0.0 ], [ 7.558950920371969, 12.785958597587543, 0.0 ], [ 7.560321457790024, 12.784871239800339, 0.0 ], [ 7.560444986653705, 12.7846761207146, 0.0 ], [ 7.560975363292155, 12.783807281956532, 0.0 ], [ 7.560978358199807, 12.783229190720036, 0.0 ], [ 7.560503174265854, 12.782463421621543, 0.0 ], [ 7.55998758357888, 12.781998550215068, 0.0 ], [ 7.559298548783937, 12.781943501787119, 0.0 ], [ 7.557875453825248, 12.782263367986932, 0.0 ], [ 7.557599543282071, 12.782637082028073, 0.0 ], [ 7.557584215300692, 12.782637083194039, 0.0 ], [ 7.557697410118952, 12.78024642891773, 0.0 ], [ 7.55757366718869, 12.780157533001827, 0.0 ], [ 7.557195353871939, 12.78016036340277, 0.0 ], [ 7.55677344155944, 12.78001822920198, 0.0 ], [ 7.555407467253217, 12.779880094028867, 0.0 ], [ 7.555162174650403, 12.779585359293087, 0.0 ], [ 7.554518749998684, 12.779464838882921, 0.0 ], [ 7.553958566282783, 12.779283444994926, 0.0 ], [ 7.553291923222081, 12.77916446240398, 0.0 ], [ 7.552602282677973, 12.779075042024347, 0.0 ], [ 7.552556221300533, 12.779052541301768, 0.0 ], [ 7.552517820573718, 12.77903004010725, 0.0 ], [ 7.552465534215351, 12.779442341155598, 0.0 ], [ 7.552413223329235, 12.779831736754565, 0.0 ], [ 7.552152453870559, 12.779980853150334, 0.0 ], [ 7.551821193068081, 12.779845360654626, 0.0 ], [ 7.552154521841409, 12.780631296658385, 0.0 ], [ 7.552515381037688, 12.781116612634477, 0.0 ], [ 7.552415750937519, 12.781265783319684, 0.0 ], [ 7.552355611546277, 12.781571637428648, 0.0 ], [ 7.552303617957139, 12.782115677069848, 0.0 ], [ 7.552112114748065, 12.782190304673783, 0.0 ], [ 7.551514954928745, 12.7821531987751, 0.0 ], [ 7.551415921597486, 12.782130770365937, 0.0 ], [ 7.551278115303577, 12.782709929753874, 0.0 ], [ 7.551100281364414, 12.783102140238237, 0.0 ], [ 7.551004700096602, 12.783583316278868, 0.0 ], [ 7.551096827327314, 12.783790729037154, 0.0 ], [ 7.551362012090915, 12.783806327222649, 0.0 ], [ 7.551711338708624, 12.783925774985352, 0.0 ], [ 7.551863088415385, 12.783948490974826, 0.0 ], [ 7.552227657604633, 12.784046005170074, 0.0 ], [ 7.552161256831678, 12.784563821141608, 0.0 ], [ 7.552034708300024, 12.785444816812056, 0.0 ], [ 7.551937746192174, 12.785815381876459, 0.0 ], [ 7.551884672637048, 12.786200821301652, 0.0 ], [ 7.552036739838329, 12.786289759747781, 0.0 ], [ 7.552074837146883, 12.786408328287303, 0.0 ], [ 7.551912394992204, 12.786791446838443, 0.0 ], [ 7.552063949315257, 12.786872980335859, 0.0 ], [ 7.552509696765103, 12.786963173790781, 0.0 ], [ 7.552865732870879, 12.787045463043073, 0.0 ], [ 7.552956762098679, 12.787060428761825, 0.0 ] ] ] } },
{ "type": "Feature", "properties": { "OBJECTID": 15, "ActivityID": "KAT001", "Stra_Catch": "Rima", "Micr_Catch": "Batagarawa", "State": "Katsina", "LGA": "Batagarawa", "Site_Name": "Ajiwa Dam_Irrigation Site", "Interv_Typ": "Irrigation", "Component": "A - Dryland Management", "Comments": null, "Implemnter": "Katsina_ACReSAL", "Start_Date": "2025-06-02T00:00:00", "End_Date": "2025/07/02", "No_Trees_P": 0, "Sub_compon": "A2-1", "Lon": 7.7583162917599999, "Lat": 12.946253348400001, "Female_pop": 0, "Buffer_Mtr": 0, "Area_Impac": 3418.0997841899998, "Male_pop": 0, "Area_Intev": 3418.0997841899998, "Netsize_Ha": 3418.0997841899998, "Indicator": "Area provided with new/improved irrigation or drainage services", "Benefi_pop": 8318.0, "Perct_NDVI": 0.0, "parent_micro_name": "Batagarawa" }, "geometry": { "type": "Polygon", "coordinates": [ [ [ 7.757857213982209, 13.017265228411373, 0.0 ], [ 7.765389880135139, 13.000928473794103, 0.0 ], [ 7.76708381977883, 12.980488919337654, 0.0 ], [ 7.763586392332607, 12.964423490268819, 0.0 ], [ 7.758827056353017, 12.96033245310238, 0.0 ], [ 7.75848145702778, 12.959161075291011, 0.0 ], [ 7.757970093081139, 12.958303939723731, 0.0 ], [ 7.758689009953198, 12.956818498414831, 0.0 ], [ 7.758803734774739, 12.955213806607986, 0.0 ], [ 7.759642781728344, 12.954673835694196, 0.0 ], [ 7.76046773958879, 12.953496329224334, 0.0 ], [ 7.761101295010817, 12.952577920288366, 0.0 ], [ 7.761208084671178, 12.952410115641634, 0.0 ], [ 7.762855715552643, 12.951575386341036, 0.0 ], [ 7.763590406766196, 12.949967869641203, 0.0 ], [ 7.76182166518182, 12.948240858101155, 0.0 ], [ 7.765787412410158, 12.946692600856228, 0.0 ], [ 7.767318790095993, 12.945381828395744, 0.0 ], [ 7.772512006914407, 12.945560390355865, 0.0 ], [ 7.777826757391048, 12.942701704677781, 0.0 ], [ 7.778378082061819, 12.941152836915997, 0.0 ], [ 7.77786926081893, 12.940311117152524, 0.0 ], [ 7.777635049616912, 12.939663578441367, 0.0 ], [ 7.7765910645557, 12.93823558131894, 0.0 ], [ 7.775528866425452, 12.937770743438165, 0.0 ], [ 7.776304427606406, 12.936832866010356, 0.0 ], [ 7.776948330964828, 12.935545430687624, 0.0 ], [ 7.778054199847103, 12.932052088797217, 0.0 ], [ 7.787510675739084, 12.927949210180952, 0.0 ], [ 7.786718978347241, 12.925032179452439, 0.0 ], [ 7.7845810803214, 12.924557150383965, 0.0 ], [ 7.780502045878983, 12.923893109282002, 0.0 ], [ 7.77403225807584, 12.926330281682182, 0.0 ], [ 7.768905802233223, 12.929778600645225, 0.0 ], [ 7.76935084218524, 12.9262728544221, 0.0 ], [ 7.769568004910283, 12.92423242658057, 0.0 ], [ 7.770858311445331, 12.921920347443987, 0.0 ], [ 7.766279620689036, 12.917129339186628, 0.0 ], [ 7.765043805161228, 12.913477461173709, 0.0 ], [ 7.765407539867813, 12.910391386378816, 0.0 ], [ 7.764251535998932, 12.905991526950237, 0.0 ], [ 7.765699378320644, 12.900714452260031, 0.0 ], [ 7.766272511895, 12.895900390370031, 0.0 ], [ 7.769268579683393, 12.89262093868177, 0.0 ], [ 7.771165439581607, 12.890770513636731, 0.0 ], [ 7.771404155679714, 12.88764062282506, 0.0 ], [ 7.771642058961082, 12.87978658867063, 0.0 ], [ 7.772009091705695, 12.875618901960946, 0.0 ], [ 7.766950684759657, 12.874949181235829, 0.0 ], [ 7.764627619765061, 12.875130176288236, 0.0 ], [ 7.76199556900618, 12.880797472324138, 0.0 ], [ 7.761452255376148, 12.889244937076453, 0.0 ], [ 7.758333701906101, 12.894249896099161, 0.0 ], [ 7.755523363587787, 12.89782269355352, 0.0 ], [ 7.753080092231802, 12.903838524784979, 0.0 ], [ 7.745873945555496, 12.908060495128062, 0.0 ], [ 7.741421249272377, 12.906270438033397, 0.0 ], [ 7.736909368756558, 12.907754140432688, 0.0 ], [ 7.734521439912775, 12.916445629320654, 0.0 ], [ 7.737391800730662, 12.917753215183199, 0.0 ], [ 7.742819362565057, 12.916248075683228, 0.0 ], [ 7.746909729386046, 12.920592054053541, 0.0 ], [ 7.74605703461707, 12.926130304180415, 0.0 ], [ 7.743370933765561, 12.92761820133766, 0.0 ], [ 7.743004468017898, 12.927618193639132, 0.0 ], [ 7.739093857757988, 12.928391768806348, 0.0 ], [ 7.734434130996555, 12.932086087923869, 0.0 ], [ 7.73198777667788, 12.935005710762821, 0.0 ], [ 7.73241723418697, 12.937567103715519, 0.0 ], [ 7.735537698387502, 12.938101957259606, 0.0 ], [ 7.73938868580632, 12.938697664407155, 0.0 ], [ 7.743176263028452, 12.939176666592529, 0.0 ], [ 7.744889453928566, 12.942808166392924, 0.0 ], [ 7.743547196356432, 12.944947932716479, 0.0 ], [ 7.743420542622784, 12.947279446986631, 0.0 ], [ 7.743870192312066, 12.949797884083713, 0.0 ], [ 7.745126085171241, 12.952863835063809, 0.0 ], [ 7.745983418099668, 12.956321185912541, 0.0 ], [ 7.745861130380475, 12.958288422622308, 0.0 ], [ 7.743844281311878, 12.960252984759901, 0.0 ], [ 7.742500435991129, 12.96066806090314, 0.0 ], [ 7.74036464112061, 12.960246474980885, 0.0 ], [ 7.740422224945958, 12.962394962260792, 0.0 ], [ 7.741887625636412, 12.964185679773129, 0.0 ], [ 7.738716625928181, 12.964413263956246, 0.0 ], [ 7.737495179757174, 12.966198765640721, 0.0 ], [ 7.739627604670595, 12.967637841268729, 0.0 ], [ 7.739994126942245, 12.967578814786398, 0.0 ], [ 7.74347619888033, 12.96722827130445, 0.0 ], [ 7.743763890617771, 12.969245882004815, 0.0 ], [ 7.744725082160474, 12.969013852897087, 0.0 ], [ 7.745291086250221, 12.97065071114673, 0.0 ], [ 7.75004497569071, 12.999910706306014, 0.0 ], [ 7.749638433912442, 13.014277341028645, 0.0 ], [ 7.749720008230698, 13.01886266680193, 0.0 ], [ 7.757857213982209, 13.017265228411373, 0.0 ] ] ] } },
{ "type": "Feature", "properties": { "OBJECTID": 20, "ActivityID": "KAT001", "Stra_Catch": "Rima", "Micr_Catch": "Katsina", "State": "Katsina", "LGA": "Katsina", "Site_Name": "Katsina_Town_Stormwater_Drainage MgmtPhase2", "Interv_Typ": "Civil Works (Flood Control)", "Component": "A - Dryland Management", "Comments": "Ongoing", "Implemnter": "Katsina_ACReSAL", "Start_Date": "2023-11-21T00:00:00", "End_Date": "2025/11/20", "No_Trees_P": 0, "Sub_compon": "A2-2", "Lon": 7.61123920028, "Lat": 12.998757985699999, "Female_pop": 0, "Buffer_Mtr": 0, "Area_Impac": 7190.1349530899997, "Male_pop": 0, "Area_Intev": 7190.1349530899997, "Netsize_Ha": 7190.1349530899997, "Indicator": "Area under improved catchment management", "Benefi_pop": 415737.0, "Perct_NDVI": 0.0, "parent_micro_name": "Batagarawa" }, "geometry": { "type": "Polygon", "coordinates": [ [ [ 7.632899999687837, 13.052100000023508, 0.0 ], [ 7.632099999542655, 13.04289999960598, 0.0 ], [ 7.636199999589937, 13.038800000256822, 0.0 ], [ 7.635400000400045, 13.03710000044134, 0.0 ], [ 7.636200000252019, 13.034600000278189, 0.0 ], [ 7.639600000334659, 13.032100000139735, 0.0 ], [ 7.640400000282045, 13.027899999571883, 0.0 ], [ 7.642900000325977, 13.026300000360616, 0.0 ], [ 7.641200000053884, 13.023800000353409, 0.0 ], [ 7.641200000239988, 13.022099999973623, 0.0 ], [ 7.64289999998138, 13.022099999573927, 0.0 ], [ 7.64290000027656, 13.019600000394007, 0.0 ], [ 7.641199999749642, 13.018799999908957, 0.0 ], [ 7.64209999972632, 13.017899999595812, 0.0 ], [ 7.641199999627862, 13.012899999798979, 0.0 ], [ 7.63959999957106, 13.01209999976485, 0.0 ], [ 7.638700000398671, 13.009599999673577, 0.0 ], [ 7.63959999989048, 13.007099999882476, 0.0 ], [ 7.63789999960109, 13.002099999626244, 0.0 ], [ 7.638700000196398, 12.997899999688162, 0.0 ], [ 7.637100000449328, 12.997100000348494, 0.0 ], [ 7.637099999732987, 12.995400000188935, 0.0 ], [ 7.640400000388841, 12.992900000065491, 0.0 ], [ 7.640400000296856, 12.989600000329398, 0.0 ], [ 7.643556954532875, 12.989664008901833, 0.0 ], [ 7.6532777326549, 12.990472469379657, 0.0 ], [ 7.652170328940219, 12.984937410381921, 0.0 ], [ 7.65069529768287, 12.97648384954157, 0.0 ], [ 7.65384986273719, 12.966448877605123, 0.0 ], [ 7.651540458771243, 12.95499451491146, 0.0 ], [ 7.648639140061624, 12.955696652655789, 0.0 ], [ 7.647017864294341, 12.962806017901139, 0.0 ], [ 7.643667782204306, 12.962879478089178, 0.0 ], [ 7.641476592394688, 12.962927525729329, 0.0 ], [ 7.637493167486396, 12.964275118130937, 0.0 ], [ 7.632515208904591, 12.958233249458292, 0.0 ], [ 7.629942027157119, 12.955607639473946, 0.0 ], [ 7.626968496137961, 12.952306555120947, 0.0 ], [ 7.625614329512771, 12.950803218350607, 0.0 ], [ 7.623187212090609, 12.948280583859885, 0.0 ], [ 7.621200000447494, 12.946300000392172, 0.0 ], [ 7.619600000271228, 12.946300000289702, 0.0 ], [ 7.618699999545371, 12.943800000093729, 0.0 ], [ 7.616200000408399, 12.943799999885872, 0.0 ], [ 7.614600000080094, 12.942100000085317, 0.0 ], [ 7.614600000383434, 12.939599999629984, 0.0 ], [ 7.611200000319221, 12.938800000136743, 0.0 ], [ 7.607899999904666, 12.942100000053971, 0.0 ], [ 7.60790000026314, 12.947899999569652, 0.0 ], [ 7.605399999685737, 12.950400000333945, 0.0 ], [ 7.602099999958448, 12.951299999971146, 0.0 ], [ 7.602899999898641, 12.954600000288316, 0.0 ], [ 7.601199999688009, 12.9546000002846, 0.0 ], [ 7.601199999573531, 12.958800000240762, 0.0 ], [ 7.599599999600941, 12.959600000247955, 0.0 ], [ 7.598700000248574, 12.962100000102907, 0.0 ], [ 7.597900000234892, 12.968799999554443, 0.0 ], [ 7.594599999914845, 12.969599999853155, 0.0 ], [ 7.592946187816561, 12.978550055696282, 0.0 ], [ 7.592900000391404, 12.978799999631143, 0.0 ], [ 7.589600000002048, 12.981300000324188, 0.0 ], [ 7.588738852713227, 12.981300007375514, 0.0 ], [ 7.584600000396247, 12.98129999969262, 0.0 ], [ 7.582900000456398, 12.983800000130259, 0.0 ], [ 7.579599999710253, 12.983800000221821, 0.0 ], [ 7.579600000014795, 12.986300000443229, 0.0 ], [ 7.577100000425161, 12.987100000128764, 0.0 ], [ 7.572900000357, 12.986300000113427, 0.0 ], [ 7.573700000425283, 12.990399999897324, 0.0 ], [ 7.571200000343237, 12.991299999678473, 0.0 ], [ 7.572100000255198, 12.99290000003954, 0.0 ], [ 7.571199999788295, 13.00459999970948, 0.0 ], [ 7.572899999909719, 13.009599999639217, 0.0 ], [ 7.571200000205985, 13.010399999690332, 0.0 ], [ 7.569599999627564, 13.016299999754629, 0.0 ], [ 7.567099999907619, 13.019599999781828, 0.0 ], [ 7.569599999770064, 13.020400000306276, 0.0 ], [ 7.570399999858695, 13.023800000246871, 0.0 ], [ 7.572899999889056, 13.024600000073583, 0.0 ], [ 7.573699999692268, 13.027100000121724, 0.0 ], [ 7.57540000030187, 13.026300000436665, 0.0 ], [ 7.577900000373326, 13.027100000173423, 0.0 ], [ 7.577899999582894, 13.028800000288857, 0.0 ], [ 7.582100000129126, 13.030400000201903, 0.0 ], [ 7.58209999979855, 13.032099999995962, 0.0 ], [ 7.586200000058137, 13.03539999969863, 0.0 ], [ 7.587099999808925, 13.045399999847183, 0.0 ], [ 7.588699999895812, 13.046300000370472, 0.0 ], [ 7.591199999751406, 13.045400000434359, 0.0 ], [ 7.592099999563183, 13.047100000155558, 0.0 ], [ 7.597100000224801, 13.047900000214579, 0.0 ], [ 7.597899999715916, 13.05130000044816, 0.0 ], [ 7.601199999653719, 13.052899999684771, 0.0 ], [ 7.602099999800955, 13.052100000195097, 0.0 ], [ 7.61869999964672, 13.05289999995413, 0.0 ], [ 7.618699999567724, 13.051299999767132, 0.0 ], [ 7.62040000001695, 13.051299999564312, 0.0 ], [ 7.622899999760982, 13.053800000021239, 0.0 ], [ 7.632899999687837, 13.052100000023508, 0.0 ] ] ] } },
{ "type": "Feature", "properties": { "OBJECTID": 22, "ActivityID": "KAT001", "Stra_Catch": "Rima", "Micr_Catch": "Batagarawa", "State": "Katsina", "LGA": "Batagarawa", "Site_Name": "Yargamji, Batagarawa LGA Irrigation Site", "Interv_Typ": "Afforestation (Agroforestry)", "Component": "A - Dryland Management", "Comments": "Completed", "Implemnter": "Katsina_ACReSAL", "Start_Date": "2024-06-25T00:00:00", "End_Date": "0204/09/25", "No_Trees_P": 0, "Sub_compon": "A2-1", "Lon": 7.5311170019400002, "Lat": 12.729620174200001, "Female_pop": 0, "Buffer_Mtr": 0, "Area_Impac": 52.349009074900003, "Male_pop": 0, "Area_Intev": 52.349009074900003, "Netsize_Ha": 52.349009074900003, "Indicator": "Area under improved catchment management", "Benefi_pop": 1206.0, "Perct_NDVI": 0.0, "parent_micro_name": "Batagarawa" }, "geometry": { "type": "Polygon", "coordinates": [ [ [ 7.532358924043501, 12.731848415792395, 0.0 ], [ 7.532858136324839, 12.731197286211776, 0.0 ], [ 7.533255443101647, 12.731410941436881, 0.0 ], [ 7.533793200703378, 12.731761073802561, 0.0 ], [ 7.534321973190376, 12.732082109278965, 0.0 ], [ 7.535439107340893, 12.732742241281832, 0.0 ], [ 7.535797524212, 12.732945814221962, 0.0 ], [ 7.53639461442414, 12.733537766885414, 0.0 ], [ 7.536951177193328, 12.733866670868849, 0.0 ], [ 7.53698096014543, 12.733885990785943, 0.0 ], [ 7.537667239047929, 12.73453602378096, 0.0 ], [ 7.538084987920253, 12.735011440401031, 0.0 ], [ 7.538582095764008, 12.735040317876678, 0.0 ], [ 7.538997836251239, 12.734883298652033, 0.0 ], [ 7.539633853076237, 12.734795943917323, 0.0 ], [ 7.540252014086218, 12.734845681898488, 0.0 ], [ 7.54077202127838, 12.734818310242803, 0.0 ], [ 7.540939747949496, 12.734555553728372, 0.0 ], [ 7.541026943851481, 12.734108263326643, 0.0 ], [ 7.540886273206322, 12.733836143568986, 0.0 ], [ 7.540775442578872, 12.733554469083156, 0.0 ], [ 7.540122799232659, 12.733280834702679, 0.0 ], [ 7.539315453415749, 12.733134315246277, 0.0 ], [ 7.538367143168284, 12.732951959937404, 0.0 ], [ 7.537505526808618, 12.73291425284928, 0.0 ], [ 7.5368411668541, 12.732692218262732, 0.0 ], [ 7.536659155809142, 12.732596834237212, 0.0 ], [ 7.536075434658426, 12.732209700890653, 0.0 ], [ 7.534904226383399, 12.731239353069206, 0.0 ], [ 7.533719692142006, 12.730695227312887, 0.0 ], [ 7.533191098453217, 12.730423170916087, 0.0 ], [ 7.531680732012067, 12.730532433168069, 0.0 ], [ 7.531502190063157, 12.730493859344628, 0.0 ], [ 7.531382662828026, 12.73038699486937, 0.0 ], [ 7.530964987257483, 12.730241500264086, 0.0 ], [ 7.530627102762172, 12.730164074830659, 0.0 ], [ 7.530566310065396, 12.729998494396721, 0.0 ], [ 7.53055572627336, 12.729910841556741, 0.0 ], [ 7.530514518961272, 12.729706452642127, 0.0 ], [ 7.530385389137299, 12.729687111435144, 0.0 ], [ 7.530306745842766, 12.729842817297854, 0.0 ], [ 7.530308474195295, 12.730086376170345, 0.0 ], [ 7.530020622457806, 12.730242361719036, 0.0 ], [ 7.529712078635143, 12.730300869112192, 0.0 ], [ 7.529731491355583, 12.730213083589524, 0.0 ], [ 7.529740586062375, 12.730066844722584, 0.0 ], [ 7.529768422571824, 12.729725958757488, 0.0 ], [ 7.529817413912505, 12.729473280611693, 0.0 ], [ 7.529816740358203, 12.729249869190008, 0.0 ], [ 7.529676955614291, 12.729075088322851, 0.0 ], [ 7.529487857813008, 12.729007139118435, 0.0 ], [ 7.52909997266536, 12.729045928060225, 0.0 ], [ 7.52890225230195, 12.729114175328874, 0.0 ], [ 7.528931748631982, 12.729017015160174, 0.0 ], [ 7.528931769153156, 12.728716132295423, 0.0 ], [ 7.52894168018454, 12.728347313057808, 0.0 ], [ 7.528995231148099, 12.727685921559795, 0.0 ], [ 7.529043934369676, 12.727122760053659, 0.0 ], [ 7.528992810615452, 12.726463256005534, 0.0 ], [ 7.529071914918976, 12.72594921862448, 0.0 ], [ 7.528615533736107, 12.725947120568037, 0.0 ], [ 7.527918493874468, 12.72518861225052, 0.0 ], [ 7.527370502389593, 12.724751679765323, 0.0 ], [ 7.526393862299618, 12.72419318733113, 0.0 ], [ 7.526194214639083, 12.724396167991523, 0.0 ], [ 7.525724824762023, 12.724900397825575, 0.0 ], [ 7.524935116766351, 12.725462954016082, 0.0 ], [ 7.524523923869423, 12.7257920860244, 0.0 ], [ 7.524264067421118, 12.726377026944657, 0.0 ], [ 7.524056419379473, 12.726778134383851, 0.0 ], [ 7.523639603168253, 12.727918250068877, 0.0 ], [ 7.523459414834512, 12.728317222672203, 0.0 ], [ 7.523631374615291, 12.72884262176377, 0.0 ], [ 7.52402062129992, 12.729173268950364, 0.0 ], [ 7.524530227929003, 12.729367388035591, 0.0 ], [ 7.525008426261196, 12.729338329940365, 0.0 ], [ 7.525366444144999, 12.729377703116967, 0.0 ], [ 7.525785739448287, 12.729688374717819, 0.0 ], [ 7.526304269336773, 12.729872312237696, 0.0 ], [ 7.526503456837557, 12.730202628022925, 0.0 ], [ 7.526682691741158, 12.73058191185393, 0.0 ], [ 7.526891899398129, 12.730728015281889, 0.0 ], [ 7.52730040484408, 12.730728044704263, 0.0 ], [ 7.527689315013674, 12.730680274835946, 0.0 ], [ 7.528916268647349, 12.730554910197064, 0.0 ], [ 7.529216381376035, 12.730828209827878, 0.0 ], [ 7.529834821592883, 12.730857394317214, 0.0 ], [ 7.528899125792625, 12.731400928191427, 0.0 ], [ 7.528890311240609, 12.731566352709542, 0.0 ], [ 7.528960448817799, 12.731712209933537, 0.0 ], [ 7.528901607351658, 12.731945484296091, 0.0 ], [ 7.528932153825376, 12.732178661353982, 0.0 ], [ 7.529291411160567, 12.732304889329306, 0.0 ], [ 7.529710914917214, 12.732392050638307, 0.0 ], [ 7.529899839763032, 12.732343567582182, 0.0 ], [ 7.530298114618881, 12.732353291114697, 0.0 ], [ 7.530328017615303, 12.732362991801047, 0.0 ], [ 7.530506352434428, 12.732227284828527, 0.0 ], [ 7.530715398618375, 12.73219818744453, 0.0 ], [ 7.531317523218211, 12.732265948648211, 0.0 ], [ 7.531657599997185, 12.732275478370635, 0.0 ], [ 7.531906173653207, 12.731896926898292, 0.0 ], [ 7.532358924043501, 12.731848415792395, 0.0 ] ] ] } },
{ "type": "Feature", "properties": { "OBJECTID": 23, "ActivityID": "KAT001", "Stra_Catch": "Rima", "Micr_Catch": "Batagarawa", "State": "Katsina", "LGA": "Batagarawa", "Site_Name": "Umaru Musa Yaradua University", "Interv_Typ": "Afforestation (Tree Planting)", "Component": "A - Dryland Management", "Comments": "Completed", "Implemnter": "Katsina_ACReSAL", "Start_Date": "2023-09-15T00:00:00", "End_Date": "2024/01/15", "No_Trees_P": 0, "Sub_compon": "A2-1", "Lon": 7.5868594850699997, "Lat": 12.8848199023, "Female_pop": 0, "Buffer_Mtr": 0, "Area_Impac": 32.502389409400003, "Male_pop": 0, "Area_Intev": 32.502389409400003, "Netsize_Ha": 32.502389409400003, "Indicator": "Area under improved catchment management", "Benefi_pop": 2782.0, "Perct_NDVI": 0.0, "parent_micro_name": "Batagarawa" }, "geometry": { "type": "Polygon", "coordinates": [ [ [ 7.584273189847536, 12.883243187488004, 0.0 ], [ 7.583946824155069, 12.887325545927645, 0.0 ], [ 7.586578792134407, 12.888235216903043, 0.0 ], [ 7.588014326514896, 12.886891918132511, 0.0 ], [ 7.589218861272384, 12.885399275065081, 0.0 ], [ 7.589791916290485, 12.884172658865738, 0.0 ], [ 7.589900556268735, 12.883199983533183, 0.0 ], [ 7.588724414191061, 12.881415028087881, 0.0 ], [ 7.584273189847536, 12.883243187488004, 0.0 ] ] ] } },
{ "type": "Feature", "properties": { "OBJECTID": 2, "ActivityID": "KAT001", "Stra_Catch": "Rima", "Micr_Catch": "Katsina", "State": "Katsina", "LGA": "Kaita", "Site_Name": "Plantation_Dan_Kaba_KaitaLGA", "Interv_Typ": "Afforestation (Agroforestry)", "Component": "A - Dryland Management", "Comments": "Completed", "Implemnter": "Katsina_ACReSAL", "Start_Date": "2024-06-25T00:00:00", "End_Date": "2024/09/25", "No_Trees_P": 0, "Sub_compon": "A2-1", "Lon": 7.7410915944600003, "Lat": 13.206781966499999, "Female_pop": 0, "Buffer_Mtr": 0, "Area_Impac": 4.0529230113799999, "Male_pop": 0, "Area_Intev": 4.0529230113799999, "Netsize_Ha": 0.0, "Indicator": "Area under improved catchment management", "Benefi_pop": 47.0, "Perct_NDVI": 0.0, "parent_micro_name": "Katsina" }, "geometry": { "type": "Polygon", "coordinates": [ [ [ 7.741378698850428, 13.205692662112661, 0.0 ], [ 7.740980798906833, 13.205950304221966, 0.0 ], [ 7.740504191662163, 13.206113263921649, 0.0 ], [ 7.740038849066889, 13.206167253908726, 0.0 ], [ 7.739984771346009, 13.206209464036087, 0.0 ], [ 7.739728077554345, 13.206686188412508, 0.0 ], [ 7.739730978398503, 13.206869877851929, 0.0 ], [ 7.739899065311659, 13.206950594610579, 0.0 ], [ 7.740272015250232, 13.207131733841116, 0.0 ], [ 7.740782261225385, 13.207436379230831, 0.0 ], [ 7.741236771963252, 13.2076815923614, 0.0 ], [ 7.741711320453255, 13.207972080997777, 0.0 ], [ 7.741841404953978, 13.208004749664038, 0.0 ], [ 7.741908643898805, 13.207932058366703, 0.0 ], [ 7.741945386735275, 13.207504562283274, 0.0 ], [ 7.741870923270766, 13.206993256402443, 0.0 ], [ 7.741967005028267, 13.206557196709456, 0.0 ], [ 7.742117145742245, 13.206334034113141, 0.0 ], [ 7.742380007948462, 13.206186777893294, 0.0 ], [ 7.742358146322499, 13.206060682355034, 0.0 ], [ 7.742152352090221, 13.20589432462177, 0.0 ], [ 7.742077844183862, 13.205853019843955, 0.0 ], [ 7.741378698850428, 13.205692662112661, 0.0 ] ] ] } },
{ "type": "Feature", "properties": { "OBJECTID": 9, "ActivityID": "KAT001", "Stra_Catch": "Rima", "Micr_Catch": "Katsina", "State": "Katsina", "LGA": "Kaita", "Site_Name": "Dutsin_Safe_Community_Plantation", "Interv_Typ": "Afforestation (Tree Planting)", "Component": "A - Dryland Management", "Comments": "Completed", "Implemnter": "Katsina_ACReSAL", "Start_Date": "2024-06-25T00:00:00", "End_Date": "2024/09/25", "No_Trees_P": 0, "Sub_compon": "A2-1", "Lon": 7.6186706370500001, "Lat": 13.0911061042, "Female_pop": 0, "Buffer_Mtr": 0, "Area_Impac": 79.043368941799997, "Male_pop": 0, "Area_Intev": 79.043368941799997, "Netsize_Ha": 79.043368941799997, "Indicator": "Area under improved catchment management", "Benefi_pop": 1063.0, "Perct_NDVI": 0.0, "parent_micro_name": "Katsina" }, "geometry": { "type": "Polygon", "coordinates": [ [ [ 7.6146838623591, 13.095790775113787, 0.0 ], [ 7.614912332215733, 13.095968846853362, 0.0 ], [ 7.617232781640353, 13.095098976260017, 0.0 ], [ 7.618930037820726, 13.094497866981406, 0.0 ], [ 7.619542803958705, 13.0934621150779, 0.0 ], [ 7.620204255799483, 13.092859706274076, 0.0 ], [ 7.622317895349759, 13.092442236796106, 0.0 ], [ 7.623427779562953, 13.091573200924149, 0.0 ], [ 7.624309051454015, 13.090785976729757, 0.0 ], [ 7.624118095766973, 13.089937154816708, 0.0 ], [ 7.624153164777757, 13.089438146444721, 0.0 ], [ 7.623835844161832, 13.088598295726909, 0.0 ], [ 7.623448232794883, 13.087840733427639, 0.0 ], [ 7.623291937386683, 13.087669673611325, 0.0 ], [ 7.622830047686374, 13.087101679944658, 0.0 ], [ 7.622499001183005, 13.086882090928913, 0.0 ], [ 7.621745819236099, 13.086962751168555, 0.0 ], [ 7.621449667949577, 13.086835709203706, 0.0 ], [ 7.621005194124859, 13.086761807035193, 0.0 ], [ 7.620276746675069, 13.08703595603224, 0.0 ], [ 7.619611873626005, 13.087239623077229, 0.0 ], [ 7.618865976925385, 13.08737760465994, 0.0 ], [ 7.618600109608826, 13.087612800222072, 0.0 ], [ 7.618465643598928, 13.087090137995377, 0.0 ], [ 7.617911032946636, 13.087018973194132, 0.0 ], [ 7.617277723951991, 13.087567845129211, 0.0 ], [ 7.616661447665832, 13.087375769797543, 0.0 ], [ 7.616175291091956, 13.087721941718714, 0.0 ], [ 7.615421249544038, 13.087998828235829, 0.0 ], [ 7.615013975219241, 13.088258930832886, 0.0 ], [ 7.614447928189327, 13.088740962267634, 0.0 ], [ 7.614091459226328, 13.089177243248846, 0.0 ], [ 7.613745672784482, 13.089734505363541, 0.0 ], [ 7.61358387895935, 13.090234163790527, 0.0 ], [ 7.613540613108561, 13.090833873831709, 0.0 ], [ 7.61353170393265, 13.091557358764932, 0.0 ], [ 7.613589024008608, 13.092498086281898, 0.0 ], [ 7.613595862196743, 13.093207516800557, 0.0 ], [ 7.613832557554129, 13.093675475053672, 0.0 ], [ 7.614264786646213, 13.094215128771243, 0.0 ], [ 7.614293030604106, 13.09465529355252, 0.0 ], [ 7.614209550426657, 13.095073835877882, 0.0 ], [ 7.614332469388867, 13.095421010371917, 0.0 ], [ 7.614530065818441, 13.095653175284095, 0.0 ], [ 7.6146838623591, 13.095790775113787, 0.0 ] ] ] } },
{ "type": "Feature", "properties": { "OBJECTID": 16, "ActivityID": "KAT001", "Stra_Catch": "Rima", "Micr_Catch": "Katsina", "State": "Katsina", "LGA": "Kaita", "Site_Name": "Dawan_Allah Site_Abdallawa_Kaita_LGA", "Interv_Typ": "Afforestation (Agroforestry)", "Component": "A - Dryland Management", "Comments": null, "Implemnter": "Katsina_ACReSAL", "Start_Date": "2025-06-02T00:00:00", "End_Date": "2025/07/02", "No_Trees_P": 0, "Sub_compon": "A2-1", "Lon": 7.8193931716299998, "Lat": 13.1973446127, "Female_pop": 0, "Buffer_Mtr": 0, "Area_Impac": 349.55848877400001, "Male_pop": 0, "Area_Intev": 349.55848877400001, "Netsize_Ha": 349.55848877400001, "Indicator": "Area under improved catchment management", "Benefi_pop": 200.0, "Perct_NDVI": 0.0, "parent_micro_name": "Katsina" }, "geometry": { "type": "Polygon", "coordinates": [ [ [ 7.826557375431756, 13.194696078916065, 0.0 ], [ 7.811907819090227, 13.184052217338209, 0.0 ], [ 7.808640623941579, 13.198677171347558, 0.0 ], [ 7.828237875160958, 13.210308773870038, 0.0 ], [ 7.830117711370714, 13.199357428328161, 0.0 ], [ 7.826557375431756, 13.194696078916065, 0.0 ] ] ] } },
{ "type": "Feature", "properties": { "OBJECTID": 17, "ActivityID": "KAT001", "Stra_Catch": "Rima", "Micr_Catch": "Katsina", "State": "Katsina", "LGA": "Kaita", "Site_Name": "Katsina_Abdallawa_Kaita_LGA", "Interv_Typ": "Irrigation", "Component": "A - Dryland Management", "Comments": null, "Implemnter": "Katsina_ACReSAL", "Start_Date": "2025-06-02T00:00:00", "End_Date": "2025/07/02", "No_Trees_P": 0, "Sub_compon": "A2-1", "Lon": 7.7608503964400004, "Lat": 13.178497617, "Female_pop": 0, "Buffer_Mtr": 0, "Area_Impac": 10370.8368985, "Male_pop": 0, "Area_Intev": 10370.8368985, "Netsize_Ha": 10370.8368985, "Indicator": "Area provided with new/improved irrigation or drainage services", "Benefi_pop": 81202.0, "Perct_NDVI": 0.0, "parent_micro_name": "Katsina" }, "geometry": { "type": "Polygon", "coordinates": [ [ [ 7.693879744106888, 13.06368431920419, 0.0 ], [ 7.701173883722344, 13.060979563633644, 0.0 ], [ 7.706494714748906, 13.063181401382296, 0.0 ], [ 7.708094061003457, 13.065193569924467, 0.0 ], [ 7.710687483752271, 13.068175611928098, 0.0 ], [ 7.715677711108166, 13.070118856330115, 0.0 ], [ 7.722204288095271, 13.071804837037401, 0.0 ], [ 7.728795992635232, 13.072967253836092, 0.0 ], [ 7.735327663917277, 13.074644473368485, 0.0 ], [ 7.735460972669716, 13.077047397561758, 0.0 ], [ 7.733327532599385, 13.081855104055014, 0.0 ], [ 7.741331086373507, 13.093214870449707, 0.0 ], [ 7.741797165717476, 13.096943352865017, 0.0 ], [ 7.743263808404068, 13.105197365377009, 0.0 ], [ 7.743262796204722, 13.109226833774137, 0.0 ], [ 7.743802957150689, 13.115326594218763, 0.0 ], [ 7.744003420797642, 13.121762924785022, 0.0 ], [ 7.744738868952711, 13.131971339318303, 0.0 ], [ 7.746026364846847, 13.138810687133878, 0.0 ], [ 7.746159718449081, 13.141153342354899, 0.0 ], [ 7.74869810577486, 13.143818794077273, 0.0 ], [ 7.752771088748301, 13.149864858137093, 0.0 ], [ 7.75276968760217, 13.154094958860922, 0.0 ], [ 7.753105396819581, 13.1611803738323, 0.0 ], [ 7.75370816908606, 13.167942575856452, 0.0 ], [ 7.749969309056251, 13.174706651612606, 0.0 ], [ 7.749170167940161, 13.178155904252252, 0.0 ], [ 7.744139443066571, 13.180348437374876, 0.0 ], [ 7.741254598837429, 13.182471045388546, 0.0 ], [ 7.736479532139702, 13.187444812155904, 0.0 ], [ 7.734533321128777, 13.19465759771605, 0.0 ], [ 7.732530187707757, 13.195183703248482, 0.0 ], [ 7.733402247572596, 13.199160719381595, 0.0 ], [ 7.737676165686414, 13.206570222087914, 0.0 ], [ 7.735788180218834, 13.246510287997529, 0.0 ], [ 7.8092272998339, 13.329814796573215, 0.0 ], [ 7.824353479603837, 13.320985798550979, 0.0 ], [ 7.752113512403041, 13.211796244654225, 0.0 ], [ 7.752460805140399, 13.205823741032527, 0.0 ], [ 7.754084318161668, 13.201152037175722, 0.0 ], [ 7.756020636559001, 13.197037906708525, 0.0 ], [ 7.757592187549804, 13.194103806999626, 0.0 ], [ 7.758817945661098, 13.1923058015685, 0.0 ], [ 7.759330675885421, 13.190651443011472, 0.0 ], [ 7.76079872610395, 13.187073140696175, 0.0 ], [ 7.764340424624413, 13.184081641967644, 0.0 ], [ 7.766942833716209, 13.18219099891807, 0.0 ], [ 7.770550192425643, 13.180498646776837, 0.0 ], [ 7.775143916439993, 13.180097281173726, 0.0 ], [ 7.779726965819032, 13.178978315145699, 0.0 ], [ 7.784126739993638, 13.172608468406937, 0.0 ], [ 7.785548968977459, 13.167154224818947, 0.0 ], [ 7.78562301959654, 13.164099702261272, 0.0 ], [ 7.783437476185481, 13.160654490555816, 0.0 ], [ 7.782882570280376, 13.154842733084468, 0.0 ], [ 7.785103578262684, 13.145309349145968, 0.0 ], [ 7.782863743379069, 13.135783144932635, 0.0 ], [ 7.774158751067679, 13.130824703010456, 0.0 ], [ 7.769395732800471, 13.122714584007646, 0.0 ], [ 7.768097771624825, 13.117057064887719, 0.0 ], [ 7.768224596830679, 13.113826438107735, 0.0 ], [ 7.768028603440991, 13.112203942861354, 0.0 ], [ 7.76708058334912, 13.109270140107775, 0.0 ], [ 7.765540301891752, 13.106797492882013, 0.0 ], [ 7.766539439878731, 13.10497674104472, 0.0 ], [ 7.767791485723745, 13.103475207721456, 0.0 ], [ 7.76926006978438, 13.101981380849297, 0.0 ], [ 7.769799020991863, 13.100293964899787, 0.0 ], [ 7.769536735288932, 13.096526550571724, 0.0 ], [ 7.769794745442542, 13.090482623444707, 0.0 ], [ 7.767858686683844, 13.0861298843238, 0.0 ], [ 7.765724649330949, 13.084650101651381, 0.0 ], [ 7.765507955370849, 13.082042496150892, 0.0 ], [ 7.761858719964904, 13.080884076256581, 0.0 ], [ 7.760778268159529, 13.077888995779915, 0.0 ], [ 7.758382131943829, 13.077501723201005, 0.0 ], [ 7.75784221493578, 13.075745032078615, 0.0 ], [ 7.757249237543803, 13.073767571329126, 0.0 ], [ 7.756715298560542, 13.071535855327506, 0.0 ], [ 7.760036088115073, 13.071760736878183, 0.0 ], [ 7.759681130359266, 13.070475437064905, 0.0 ], [ 7.760924549631843, 13.067589692661034, 0.0 ], [ 7.758780771841135, 13.065099035667828, 0.0 ], [ 7.759619742845121, 13.063845798189252, 0.0 ], [ 7.762985439164867, 13.058317534779212, 0.0 ], [ 7.766251899402287, 13.055907486193513, 0.0 ], [ 7.795316261838739, 13.042268107976808, 0.0 ], [ 7.784677939911752, 13.032688400094488, 0.0 ], [ 7.743012769939486, 13.051455651172544, 0.0 ], [ 7.736678367540943, 13.051456066678671, 0.0 ], [ 7.734129088902626, 13.05615400727641, 0.0 ], [ 7.732730878906821, 13.056681019989693, 0.0 ], [ 7.730217264781235, 13.058981885748278, 0.0 ], [ 7.728487831204919, 13.059628174591591, 0.0 ], [ 7.722852515150823, 13.06081263726414, 0.0 ], [ 7.71849234170372, 13.059823107912042, 0.0 ], [ 7.715094401023364, 13.059170226946398, 0.0 ], [ 7.711106383688831, 13.058138691045199, 0.0 ], [ 7.706175803372791, 13.056706534377012, 0.0 ], [ 7.695143439581302, 13.054160510790721, 0.0 ], [ 7.693879744106888, 13.06368431920419, 0.0 ] ] ] } },
{ "type": "Feature", "properties": { "OBJECTID": 20, "ActivityID": "KAT001", "Stra_Catch": "Rima", "Micr_Catch": "Katsina", "State": "Katsina", "LGA": "Katsina", "Site_Name": "Katsina_Town_Stormwater_Drainage MgmtPhase2", "Interv_Typ": "Civil Works (Flood Control)", "Component": "A - Dryland Management", "Comments": "Ongoing", "Implemnter": "Katsina_ACReSAL", "Start_Date": "2023-11-21T00:00:00", "End_Date": "2025/11/20", "No_Trees_P": 0, "Sub_compon": "A2-2", "Lon": 7.61123920028, "Lat": 12.998757985699999, "Female_pop": 0, "Buffer_Mtr": 0, "Area_Impac": 7190.1349530899997, "Male_pop": 0, "Area_Intev": 7190.1349530899997, "Netsize_Ha": 7190.1349530899997, "Indicator": "Area under improved catchment management", "Benefi_pop": 415737.0, "Perct_NDVI": 0.0, "parent_micro_name": "Katsina" }, "geometry": { "type": "Polygon", "coordinates": [ [ [ 7.632899999687837, 13.052100000023508, 0.0 ], [ 7.632099999542655, 13.04289999960598, 0.0 ], [ 7.636199999589937, 13.038800000256822, 0.0 ], [ 7.635400000400045, 13.03710000044134, 0.0 ], [ 7.636200000252019, 13.034600000278189, 0.0 ], [ 7.639600000334659, 13.032100000139735, 0.0 ], [ 7.640400000282045, 13.027899999571883, 0.0 ], [ 7.642900000325977, 13.026300000360616, 0.0 ], [ 7.641200000053884, 13.023800000353409, 0.0 ], [ 7.641200000239988, 13.022099999973623, 0.0 ], [ 7.64289999998138, 13.022099999573927, 0.0 ], [ 7.64290000027656, 13.019600000394007, 0.0 ], [ 7.641199999749642, 13.018799999908957, 0.0 ], [ 7.64209999972632, 13.017899999595812, 0.0 ], [ 7.641199999627862, 13.012899999798979, 0.0 ], [ 7.63959999957106, 13.01209999976485, 0.0 ], [ 7.638700000398671, 13.009599999673577, 0.0 ], [ 7.63959999989048, 13.007099999882476, 0.0 ], [ 7.63789999960109, 13.002099999626244, 0.0 ], [ 7.638700000196398, 12.997899999688162, 0.0 ], [ 7.637100000449328, 12.997100000348494, 0.0 ], [ 7.637099999732987, 12.995400000188935, 0.0 ], [ 7.640400000388841, 12.992900000065491, 0.0 ], [ 7.640400000296856, 12.989600000329398, 0.0 ], [ 7.643556954532875, 12.989664008901833, 0.0 ], [ 7.6532777326549, 12.990472469379657, 0.0 ], [ 7.652170328940219, 12.984937410381921, 0.0 ], [ 7.65069529768287, 12.97648384954157, 0.0 ], [ 7.65384986273719, 12.966448877605123, 0.0 ], [ 7.651540458771243, 12.95499451491146, 0.0 ], [ 7.648639140061624, 12.955696652655789, 0.0 ], [ 7.647017864294341, 12.962806017901139, 0.0 ], [ 7.643667782204306, 12.962879478089178, 0.0 ], [ 7.641476592394688, 12.962927525729329, 0.0 ], [ 7.637493167486396, 12.964275118130937, 0.0 ], [ 7.632515208904591, 12.958233249458292, 0.0 ], [ 7.629942027157119, 12.955607639473946, 0.0 ], [ 7.626968496137961, 12.952306555120947, 0.0 ], [ 7.625614329512771, 12.950803218350607, 0.0 ], [ 7.623187212090609, 12.948280583859885, 0.0 ], [ 7.621200000447494, 12.946300000392172, 0.0 ], [ 7.619600000271228, 12.946300000289702, 0.0 ], [ 7.618699999545371, 12.943800000093729, 0.0 ], [ 7.616200000408399, 12.943799999885872, 0.0 ], [ 7.614600000080094, 12.942100000085317, 0.0 ], [ 7.614600000383434, 12.939599999629984, 0.0 ], [ 7.611200000319221, 12.938800000136743, 0.0 ], [ 7.607899999904666, 12.942100000053971, 0.0 ], [ 7.60790000026314, 12.947899999569652, 0.0 ], [ 7.605399999685737, 12.950400000333945, 0.0 ], [ 7.602099999958448, 12.951299999971146, 0.0 ], [ 7.602899999898641, 12.954600000288316, 0.0 ], [ 7.601199999688009, 12.9546000002846, 0.0 ], [ 7.601199999573531, 12.958800000240762, 0.0 ], [ 7.599599999600941, 12.959600000247955, 0.0 ], [ 7.598700000248574, 12.962100000102907, 0.0 ], [ 7.597900000234892, 12.968799999554443, 0.0 ], [ 7.594599999914845, 12.969599999853155, 0.0 ], [ 7.592946187816561, 12.978550055696282, 0.0 ], [ 7.592900000391404, 12.978799999631143, 0.0 ], [ 7.589600000002048, 12.981300000324188, 0.0 ], [ 7.588738852713227, 12.981300007375514, 0.0 ], [ 7.584600000396247, 12.98129999969262, 0.0 ], [ 7.582900000456398, 12.983800000130259, 0.0 ], [ 7.579599999710253, 12.983800000221821, 0.0 ], [ 7.579600000014795, 12.986300000443229, 0.0 ], [ 7.577100000425161, 12.987100000128764, 0.0 ], [ 7.572900000357, 12.986300000113427, 0.0 ], [ 7.573700000425283, 12.990399999897324, 0.0 ], [ 7.571200000343237, 12.991299999678473, 0.0 ], [ 7.572100000255198, 12.99290000003954, 0.0 ], [ 7.571199999788295, 13.00459999970948, 0.0 ], [ 7.572899999909719, 13.009599999639217, 0.0 ], [ 7.571200000205985, 13.010399999690332, 0.0 ], [ 7.569599999627564, 13.016299999754629, 0.0 ], [ 7.567099999907619, 13.019599999781828, 0.0 ], [ 7.569599999770064, 13.020400000306276, 0.0 ], [ 7.570399999858695, 13.023800000246871, 0.0 ], [ 7.572899999889056, 13.024600000073583, 0.0 ], [ 7.573699999692268, 13.027100000121724, 0.0 ], [ 7.57540000030187, 13.026300000436665, 0.0 ], [ 7.577900000373326, 13.027100000173423, 0.0 ], [ 7.577899999582894, 13.028800000288857, 0.0 ], [ 7.582100000129126, 13.030400000201903, 0.0 ], [ 7.58209999979855, 13.032099999995962, 0.0 ], [ 7.586200000058137, 13.03539999969863, 0.0 ], [ 7.587099999808925, 13.045399999847183, 0.0 ], [ 7.588699999895812, 13.046300000370472, 0.0 ], [ 7.591199999751406, 13.045400000434359, 0.0 ], [ 7.592099999563183, 13.047100000155558, 0.0 ], [ 7.597100000224801, 13.047900000214579, 0.0 ], [ 7.597899999715916, 13.05130000044816, 0.0 ], [ 7.601199999653719, 13.052899999684771, 0.0 ], [ 7.602099999800955, 13.052100000195097, 0.0 ], [ 7.61869999964672, 13.05289999995413, 0.0 ], [ 7.618699999567724, 13.051299999767132, 0.0 ], [ 7.62040000001695, 13.051299999564312, 0.0 ], [ 7.622899999760982, 13.053800000021239, 0.0 ], [ 7.632899999687837, 13.052100000023508, 0.0 ] ] ] } },
{ "type": "Feature", "properties": { "OBJECTID": 26, "ActivityID": "KAT001", "Stra_Catch": "Rima", "Micr_Catch": "Katsina", "State": "Katsina", "LGA": "Katsina", "Site_Name": "Kabukawa Plants Nurseries", "Interv_Typ": "Afforestation (Tree Planting)", "Component": "A - Dryland Management", "Comments": "Completed", "Implemnter": "Katsina_ACReSAL", "Start_Date": "2023-11-05T00:00:00", "End_Date": "2023/12/07", "No_Trees_P": 0, "Sub_compon": "A2-1", "Lon": 7.6279695486900003, "Lat": 12.960430348799999, "Female_pop": 0, "Buffer_Mtr": 0, "Area_Impac": 15.2435183236, "Male_pop": 0, "Area_Intev": 15.2435183236, "Netsize_Ha": 0.0, "Indicator": "Area under improved catchment management", "Benefi_pop": 312.0, "Perct_NDVI": 0.0, "parent_micro_name": "Katsina" }, "geometry": { "type": "Polygon", "coordinates": [ [ [ 7.62498106654008, 12.96192718132507, 0.0 ], [ 7.626870938800987, 12.963185502596609, 0.0 ], [ 7.627714674752895, 12.962271935794147, 0.0 ], [ 7.628775893878464, 12.961069907127253, 0.0 ], [ 7.628853586387722, 12.960933204988207, 0.0 ], [ 7.630236027778649, 12.959371853257153, 0.0 ], [ 7.631000852281073, 12.958400813188023, 0.0 ], [ 7.630219261728135, 12.957748768159215, 0.0 ], [ 7.629470558988973, 12.958599720248769, 0.0 ], [ 7.628427087323125, 12.958052254630502, 0.0 ], [ 7.627616698883395, 12.95862926011606, 0.0 ], [ 7.627259496255647, 12.959737214639313, 0.0 ], [ 7.62498106654008, 12.96192718132507, 0.0 ] ] ] } },
{ "type": "Feature", "properties": { "OBJECTID": 27, "ActivityID": "KAT001", "Stra_Catch": "Rima", "Micr_Catch": "Katsina", "State": "Katsina", "LGA": "Katsina", "Site_Name": "Desilting_Katsina Town Storm Water Management", "Interv_Typ": "Desilting (Urban Drainage Desilting)", "Component": "A - Dryland Management", "Comments": "Completed", "Implemnter": "Katsina_ACReSAL", "Start_Date": "2024-06-25T00:00:00", "End_Date": "2025/09/25", "No_Trees_P": 0, "Sub_compon": "A2-1", "Lon": 7.60502971909, "Lat": 13.011304404400001, "Female_pop": 0, "Buffer_Mtr": 0, "Area_Impac": 2571.6048247399999, "Male_pop": 0, "Area_Intev": 2571.6048247399999, "Netsize_Ha": 0.0, "Indicator": "Area under improved catchment management", "Benefi_pop": 234337.0, "Perct_NDVI": 0.0, "parent_micro_name": "Katsina" }, "geometry": { "type": "Polygon", "coordinates": [ [ [ 7.631651047952072, 13.009783671442444, 0.0 ], [ 7.632123044093168, 13.009288879265279, 0.0 ], [ 7.63203517794517, 13.00634774966052, 0.0 ], [ 7.629935190924225, 13.005303695685068, 0.0 ], [ 7.628600769549646, 13.00417429118423, 0.0 ], [ 7.629803644232339, 13.002746227051503, 0.0 ], [ 7.629628584409726, 13.002149499042357, 0.0 ], [ 7.629847224146595, 13.001403539914179, 0.0 ], [ 7.625022173296893, 13.004223545065647, 0.0 ], [ 7.619044116553868, 13.007036221098261, 0.0 ], [ 7.614823661659308, 13.009237899779663, 0.0 ], [ 7.613915197242219, 13.009507009730747, 0.0 ], [ 7.613473907037519, 13.009507613084516, 0.0 ], [ 7.611771398137, 13.008927817409882, 0.0 ], [ 7.609100036225549, 13.007592880846314, 0.0 ], [ 7.604716573012175, 13.005216823808013, 0.0 ], [ 7.604232114716193, 13.005203340356717, 0.0 ], [ 7.60365075719693, 13.004947107631377, 0.0 ], [ 7.603069388410895, 13.004245842260595, 0.0 ], [ 7.602377293035132, 13.003234412590432, 0.0 ], [ 7.601643687348029, 13.00188585482136, 0.0 ], [ 7.600704211020979, 12.999665295804483, 0.0 ], [ 7.599721485341965, 12.997831252574894, 0.0 ], [ 7.598489674895103, 12.996145563562493, 0.0 ], [ 7.596144683198551, 12.99007115787966, 0.0 ], [ 7.598156616052316, 12.98275382393409, 0.0 ], [ 7.599111036920783, 12.981289978931219, 0.0 ], [ 7.596643110806969, 12.972375084603442, 0.0 ], [ 7.593464848871599, 12.978211045044176, 0.0 ], [ 7.592946187816561, 12.978550055696282, 0.0 ], [ 7.588738852713227, 12.981300007375514, 0.0 ], [ 7.586344689358199, 12.982864792832718, 0.0 ], [ 7.585327363363885, 12.986121921301683, 0.0 ], [ 7.582031803873343, 12.986721868912072, 0.0 ], [ 7.580527291419135, 12.992710667647764, 0.0 ], [ 7.582608011822876, 12.996436715162487, 0.0 ], [ 7.581632809065855, 13.003288741942582, 0.0 ], [ 7.578918376875412, 13.005179479911662, 0.0 ], [ 7.577081322457837, 13.006460866687808, 0.0 ], [ 7.574485425548918, 13.008296018932798, 0.0 ], [ 7.573610168560653, 13.009191967682112, 0.0 ], [ 7.571992909386887, 13.012082319912349, 0.0 ], [ 7.570268657274815, 13.015132189216137, 0.0 ], [ 7.573648680096068, 13.016329996366219, 0.0 ], [ 7.577927374635228, 13.01787155285292, 0.0 ], [ 7.580731767784203, 13.019062701167023, 0.0 ], [ 7.58281699481046, 13.020499038390318, 0.0 ], [ 7.587203133952015, 13.024142469562516, 0.0 ], [ 7.595130995598633, 13.031405778992925, 0.0 ], [ 7.601926463092324, 13.037430843610229, 0.0 ], [ 7.605306379632276, 13.040198282385427, 0.0 ], [ 7.607715533650192, 13.041214196798913, 0.0 ], [ 7.609801090796857, 13.041599544738824, 0.0 ], [ 7.614187979344314, 13.041389334009782, 0.0 ], [ 7.627853500133769, 13.040303403357038, 0.0 ], [ 7.629464129112996, 13.039793108301524, 0.0 ], [ 7.631236072624587, 13.038897698039355, 0.0 ], [ 7.633664129796146, 13.036957878719122, 0.0 ], [ 7.635042069811041, 13.035082173944899, 0.0 ], [ 7.635938696602881, 13.033099991425024, 0.0 ], [ 7.637381854092359, 13.028709437705947, 0.0 ], [ 7.63830023019515, 13.02587471497295, 0.0 ], [ 7.638368822288943, 13.02523456821085, 0.0 ], [ 7.638170417091946, 13.01538805681796, 0.0 ], [ 7.631761190437706, 13.015303660084381, 0.0 ], [ 7.631651047952072, 13.009783671442444, 0.0 ] ] ] } },
{ "type": "Feature", "properties": { "OBJECTID": 5, "ActivityID": "KAT001", "Stra_Catch": "Rima", "Micr_Catch": "Daura", "State": "Katsina", "LGA": "Daura", "Site_Name": "Turumni, DauraLG_Borehole&Irrigation Site", "Interv_Typ": "Irrigation", "Component": "A - Dryland Management", "Comments": "Completed", "Implemnter": "Katsina_ACReSAL", "Start_Date": "2024-06-25T00:00:00", "End_Date": "2024/09/25", "No_Trees_P": 0, "Sub_compon": "A2-1", "Lon": 8.2408714248599999, "Lat": 12.9017921851, "Female_pop": 0, "Buffer_Mtr": 0, "Area_Impac": 45.298142158399997, "Male_pop": 0, "Area_Intev": 45.298142158399997, "Netsize_Ha": 45.298142158399997, "Indicator": "Area provided with new/improved irrigation or drainage services", "Benefi_pop": 867.0, "Perct_NDVI": 0.0, "parent_micro_name": "Daura" }, "geometry": { "type": "Polygon", "coordinates": [ [ [ 8.239689937446297, 12.905602940395605, 0.0 ], [ 8.24010458683424, 12.90589576121349, 0.0 ], [ 8.240546006341964, 12.905468129792263, 0.0 ], [ 8.240694496296213, 12.905235026226867, 0.0 ], [ 8.241028611191254, 12.904839690661246, 0.0 ], [ 8.241793035888408, 12.904029824866422, 0.0 ], [ 8.242236804587876, 12.903560444369401, 0.0 ], [ 8.243496515035698, 12.90227893192688, 0.0 ], [ 8.243764403733454, 12.902027869570995, 0.0 ], [ 8.24414966642909, 12.901614285741884, 0.0 ], [ 8.244940894837251, 12.900889316072865, 0.0 ], [ 8.245807575690922, 12.899998017086718, 0.0 ], [ 8.244922949296994, 12.899193444934054, 0.0 ], [ 8.244257808890909, 12.898747328847795, 0.0 ], [ 8.244087322749859, 12.898644403180787, 0.0 ], [ 8.243486587344757, 12.898463245836963, 0.0 ], [ 8.243239025700658, 12.89841637642885, 0.0 ], [ 8.243220049628773, 12.898425538123947, 0.0 ], [ 8.243162871631938, 12.89848123012599, 0.0 ], [ 8.242443612575199, 12.898488243875894, 0.0 ], [ 8.242195668742184, 12.898477172651324, 0.0 ], [ 8.241660192721985, 12.898451682214921, 0.0 ], [ 8.241363306999785, 12.898427483929432, 0.0 ], [ 8.241238972638358, 12.898362402052447, 0.0 ], [ 8.241311450744131, 12.898112685842845, 0.0 ], [ 8.241009689912312, 12.898078609953247, 0.0 ], [ 8.240874762742326, 12.898375454781723, 0.0 ], [ 8.240616794177274, 12.898114855216733, 0.0 ], [ 8.240275130017151, 12.898243261630023, 0.0 ], [ 8.239557998067028, 12.898333999561533, 0.0 ], [ 8.239421700210581, 12.89878191889305, 0.0 ], [ 8.239443159017666, 12.90103220018543, 0.0 ], [ 8.239390513159053, 12.901432114996785, 0.0 ], [ 8.239140038358055, 12.901275918215385, 0.0 ], [ 8.238660526943486, 12.901023297437966, 0.0 ], [ 8.238324647027467, 12.90097112257051, 0.0 ], [ 8.238132829262151, 12.901500006449778, 0.0 ], [ 8.237935551764787, 12.901560171809047, 0.0 ], [ 8.237527179644516, 12.901592645309096, 0.0 ], [ 8.237464901969044, 12.901733123841391, 0.0 ], [ 8.237124237915188, 12.901555274155696, 0.0 ], [ 8.236836269395258, 12.901363351025216, 0.0 ], [ 8.236595532849298, 12.90180304014272, 0.0 ], [ 8.235969024902635, 12.902420567275124, 0.0 ], [ 8.235977025584077, 12.902706268969103, 0.0 ], [ 8.235991444239783, 12.902739028861928, 0.0 ], [ 8.235991436793785, 12.902762434200952, 0.0 ], [ 8.235991429186795, 12.902776479203601, 0.0 ], [ 8.23598173987183, 12.90279990508745, 0.0 ], [ 8.236309589255663, 12.902981918908599, 0.0 ], [ 8.236493189558219, 12.903182229236386, 0.0 ], [ 8.236195271918286, 12.903612525252111, 0.0 ], [ 8.236910027804674, 12.903914262782735, 0.0 ], [ 8.237318637306272, 12.904078455893384, 0.0 ], [ 8.237840204049608, 12.904330492077996, 0.0 ], [ 8.238472452319497, 12.90446139395309, 0.0 ], [ 8.238932306026804, 12.904680963661582, 0.0 ], [ 8.239252144791124, 12.904764773813559, 0.0 ], [ 8.239504347762351, 12.904778470068706, 0.0 ], [ 8.23980652276019, 12.904890660047, 0.0 ], [ 8.23991043935861, 12.904936947322708, 0.0 ], [ 8.239848147425134, 12.905030086660544, 0.0 ], [ 8.239771231936338, 12.905272180358612, 0.0 ], [ 8.239714079219645, 12.905565837772851, 0.0 ], [ 8.239689937446297, 12.905602940395605, 0.0 ] ] ] } },
{ "type": "Feature", "properties": { "OBJECTID": 7, "ActivityID": "KAT001", "Stra_Catch": "Rima", "Micr_Catch": "Daura", "State": "Katsina", "LGA": "Daura", "Site_Name": "Dr Yusufu Bala College Daura, Tree Planting", "Interv_Typ": "Afforestation (Tree Planting)", "Component": "A - Dryland Management", "Comments": "Completed", "Implemnter": "Katsina_ACReSAL", "Start_Date": "2023-09-15T00:00:00", "End_Date": "2024/01/15", "No_Trees_P": 0, "Sub_compon": "A2-1", "Lon": 8.3314924607799998, "Lat": 13.0044199137, "Female_pop": 0, "Buffer_Mtr": 0, "Area_Impac": 40.881706151700001, "Male_pop": 0, "Area_Intev": 40.881706151700001, "Netsize_Ha": 40.881706151700001, "Indicator": "Area under improved catchment management", "Benefi_pop": 1886.0, "Perct_NDVI": 0.0, "parent_micro_name": "Daura" }, "geometry": { "type": "Polygon", "coordinates": [ [ [ 8.326687616041424, 13.003103213656189, 0.0 ], [ 8.329305309252064, 13.005371963118863, 0.0 ], [ 8.330907354817148, 13.006491083011966, 0.0 ], [ 8.331454132277168, 13.006868069326135, 0.0 ], [ 8.333314536191764, 13.007284865976381, 0.0 ], [ 8.333512147589722, 13.007337924619224, 0.0 ], [ 8.334893597832854, 13.007576032218388, 0.0 ], [ 8.335745397734945, 13.004419859024674, 0.0 ], [ 8.335981801016452, 13.003223672622411, 0.0 ], [ 8.333058387932725, 13.002613842412936, 0.0 ], [ 8.332203428888622, 13.002339191376146, 0.0 ], [ 8.331253921373085, 13.002210629717139, 0.0 ], [ 8.330718308160408, 13.002033432346936, 0.0 ], [ 8.330455276293605, 13.001953863313084, 0.0 ], [ 8.330289733429797, 13.001954078447787, 0.0 ], [ 8.328916842611013, 13.001695044643396, 0.0 ], [ 8.327769100833866, 13.001565136166143, 0.0 ], [ 8.327320888980511, 13.001596041770082, 0.0 ], [ 8.326996276356594, 13.001478021700725, 0.0 ], [ 8.326687616041424, 13.003103213656189, 0.0 ] ] ] } },
{ "type": "Feature", "properties": { "OBJECTID": 14, "ActivityID": "KAT001", "Stra_Catch": "Rima", "Micr_Catch": "Daura", "State": "Katsina", "LGA": "Daura", "Site_Name": "Daura_Plants Nurseries", "Interv_Typ": "Afforestation (Tree Planting)", "Component": "A - Dryland Management", "Comments": "Completed", "Implemnter": "Katsina_ACReSAL", "Start_Date": "2023-12-05T00:00:00", "End_Date": "2023/12/08", "No_Trees_P": 0, "Sub_compon": "A2-1", "Lon": 8.3299941009800005, "Lat": 13.0335150296, "Female_pop": 0, "Buffer_Mtr": 0, "Area_Impac": 2.8042855592199998, "Male_pop": 0, "Area_Intev": 2.8042855592299998, "Netsize_Ha": 2.8042855592199998, "Indicator": "Area under improved catchment management", "Benefi_pop": 72.0, "Perct_NDVI": 0.0, "parent_micro_name": "Daura" }, "geometry": { "type": "Polygon", "coordinates": [ [ [ 8.328286164582812, 13.033297650902377, 0.0 ], [ 8.331323302089134, 13.034294433184568, 0.0 ], [ 8.331562333425087, 13.033370994228967, 0.0 ], [ 8.328518501809492, 13.03280409605315, 0.0 ], [ 8.328286164582812, 13.033297650902377, 0.0 ] ] ] } }
]
}
