{
"type": "FeatureCollection",
"name": "Katsina_micro_catchments",
"crs": { "type": "name", "properties": { "name": "urn:ogc:def:crs:OGC:1.3:CRS84" } },
"features": [
{ "type": "Feature", "properties": { "Stra_Catch": "Rima", "State": "Katsina", "LGA": "Jibia", "Population": 0, "Cleard_TOR": "Cleared", "Status": "Ongoing", "Start_Date": "2025-02-04T00:00:00", "End_Date": "2025-12-03T00:00:00", "Micr_Catch": "Jibia", "Size_Ha": 19850.295686099998, "Comments": null, "OBJECTID_1": 0, "Shape_Leng": 0.0, "Shape_Area": 0.0, "parent_strategic_name": "Rima", "clipped_to_state": true }, "geometry": { "type": "Polygon", "coordinates": [ [ [ 7.384178604228128, 13.098070590785683, 0.0 ], [ 7.401479630480481, 13.100810551833609, 0.0 ], [ 7.410659100576789, 13.103930125730242, 0.0 ], [ 7.416313340928991, 13.09825778537326, 0.0 ], [ 7.41701999240471, 13.093408881293396, 0.0 ], [ 7.420480007595599, 13.089924452039991, 0.0 ], [ 7.42118665907133, 13.085075547960066, 0.0 ], [ 7.425353325737939, 13.08087972005209, 0.0 ], [ 7.424646674262317, 13.072575547960076, 0.0 ], [ 7.420480007595597, 13.068379720052119, 0.0 ], [ 7.421186659071336, 13.060075547960141, 0.0 ], [ 7.424646674262306, 13.056591118706621, 0.0 ], [ 7.425353325737952, 13.051742214626803, 0.0 ], [ 7.432980007595662, 13.044091118706696, 0.0 ], [ 7.433333333333478, 13.041666666666718, 0.0 ], [ 7.426742214626922, 13.04131334092884, 0.0 ], [ 7.423257785373437, 13.037853325737858, 0.0 ], [ 7.42083333333352, 13.0375, 0.0 ], [ 7.418408881293598, 13.037853325737828, 0.0 ], [ 7.410757785373382, 13.045480007595545, 0.0 ], [ 7.368408881293554, 13.046186659071171, 0.0 ], [ 7.364924452040162, 13.049646674262188, 0.0 ], [ 7.360075547960309, 13.050353325737904, 0.0 ], [ 7.356250000000191, 13.054152086046091, 0.0 ], [ 7.352083333333497, 13.050014580620696, 0.0 ], [ 7.347916666666869, 13.054152086046113, 0.0 ], [ 7.344091118706779, 13.050353325737891, 0.0 ], [ 7.335075547960295, 13.049646674262178, 0.0 ], [ 7.32325778537347, 13.037853325737816, 0.0 ], [ 7.312500000000209, 13.0375, 0.0 ], [ 7.300909084744184, 13.036876424153661, 0.0 ], [ 7.299149237738995, 13.030017428928003, 0.0 ], [ 7.293622843424729, 13.028599378797814, 0.0 ], [ 7.285543823242461, 13.021400621202288, 0.0 ], [ 7.279166666666951, 13.0208333333333, 0.0 ], [ 7.268408881293698, 13.021186659071242, 0.0 ], [ 7.260757785373493, 13.028813340928838, 0.0 ], [ 7.260568441550833, 13.028819559685218, 0.0 ], [ 7.260405002170574, 13.027997775607625, 0.0 ], [ 7.253011745877179, 13.022262098524292, 0.0 ], [ 7.253017035590747, 13.020604248046872, 0.0 ], [ 7.253425292969136, 13.019852837456675, 0.0 ], [ 7.253940294054205, 13.019452311197936, 0.0 ], [ 7.258275417752172, 13.017237413194442, 0.0 ], [ 7.260680609809431, 13.016732042100752, 0.0 ], [ 7.261728515625412, 13.016356065538236, 0.0 ], [ 7.261148003472665, 13.011740993923597, 0.0 ], [ 7.259251832793614, 13.005339719673644, 0.0 ], [ 7.259027777778185, 13.004583333333336, 0.0 ], [ 7.253247205946598, 13.006471896701399, 0.0 ], [ 7.245587367805229, 13.009109195726454, 0.0 ], [ 7.234909396701819, 13.012785644531293, 0.0 ], [ 7.235019259983043, 13.014628092447934, 0.0 ], [ 7.235706433921409, 13.017275533562515, 0.0 ], [ 7.235843098958751, 13.017802056206602, 0.0 ], [ 7.23694703005295, 13.018677978696582, 0.0 ], [ 7.238067287869233, 13.023043823242217, 0.0 ], [ 7.245266045464673, 13.031122843424484, 0.0 ], [ 7.245833333333611, 13.033333333333387, 0.0 ], [ 7.235075547960339, 13.032980007595473, 0.0 ], [ 7.231591118706866, 13.029519992404559, 0.0 ], [ 7.222575547960401, 13.028813340928846, 0.0 ], [ 7.21909111870692, 13.025353325737889, 0.0 ], [ 7.202453613281582, 13.024646674262186, 0.0 ], [ 7.198257785373618, 13.028813340928838, 0.0 ], [ 7.189953613281622, 13.029519992404593, 0.0 ], [ 7.185757785373566, 13.025353325737848, 0.0 ], [ 7.17257554796048, 13.024646674262225, 0.0 ], [ 7.169091118707011, 13.021186659071244, 0.0 ], [ 7.160786946615001, 13.0204800075955, 0.0 ], [ 7.156591118706966, 13.024646674262195, 0.0 ], [ 7.147575547960483, 13.025353325737861, 0.0 ], [ 7.146014137146144, 13.026903796344078, 0.0 ], [ 7.152396144429932, 13.031319965774671, 0.0 ], [ 7.180012267585286, 13.059891026408485, 0.0 ], [ 7.187945309433762, 13.070227054723501, 0.0 ], [ 7.192274110510287, 13.075049979748091, 0.0 ], [ 7.193867337241818, 13.076825070110949, 0.0 ], [ 7.199416353524183, 13.07996106889642, 0.0 ], [ 7.209670401040602, 13.09127009492317, 0.0 ], [ 7.212697407384211, 13.092271090621422, 0.0 ], [ 7.213089416753363, 13.095045103617441, 0.0 ], [ 7.218334440536655, 13.100700116252385, 0.0 ], [ 7.222502452138198, 13.10288011443599, 0.0 ], [ 7.228647481522463, 13.1099501315067, 0.0 ], [ 7.24532049893067, 13.109920079473124, 0.0 ], [ 7.26138053400073, 13.108189520266407, 0.0 ], [ 7.272874518041629, 13.10695097876776, 0.0 ], [ 7.311012545877939, 13.103332842370479, 0.0 ], [ 7.33222955774986, 13.100195760998037, 0.0 ], [ 7.358101578953661, 13.098559673166077, 0.0 ], [ 7.371512589499998, 13.097520626762034, 0.0 ], [ 7.384178604228128, 13.098070590785683, 0.0 ] ] ] } },
{ "type": "Feature", "properties": { "Stra_Catch": "Rima", "State": "Katsina", "LGA": "Charanchi", "Population": 0, "Cleard_TOR": "Cleared", "Status": "Ogoing", "Start_Date": "2025-02-04T00:00:00", "End_Date": "2025-12-03T00:00:00", "Micr_Catch": "Charanchi", "Size_Ha": 54908.090435799997, "Comments": null, "OBJECTID_1": 0, "Shape_Leng": 0.0, "Shape_Area": 0.0, "parent_strategic_name": "Rima", "clipped_to_state": true }, "geometry": { "type": "Polygon", "coordinates": [ [ [ 7.823043823242254, 12.663067287868966, 0.0 ], [ 7.826956176757889, 12.666099378797762, 0.0 ], [ 7.831377156575604, 12.667233954535677, 0.0 ], [ 7.843622843424502, 12.678599378797754, 0.0 ], [ 7.84929165310332, 12.680054050021756, 0.0 ], [ 7.850567287868963, 12.689710489908952, 0.0 ], [ 7.853599378797793, 12.693622843424492, 0.0 ], [ 7.855054050021701, 12.699291653103316, 0.0 ], [ 7.864710489908888, 12.700567287868971, 0.0 ], [ 7.868622843424537, 12.703599378797781, 0.0 ], [ 7.881377156575581, 12.704733954535596, 0.0 ], [ 7.885289510091209, 12.707766045464513, 0.0 ], [ 7.889710489908907, 12.708900621202298, 0.0 ], [ 7.897789510091168, 12.716099378797736, 0.0 ], [ 7.9, 12.716666666666724, 0.0 ], [ 7.904166666666707, 12.716666666666695, 0.0 ], [ 7.904827880859441, 12.709232923719641, 0.0 ], [ 7.908333333333418, 12.708333333333384, 0.0 ], [ 7.907766045464475, 12.651956176757853, 0.0 ], [ 7.904733954535649, 12.648043823242245, 0.0 ], [ 7.903315904405446, 12.64251742892794, 0.0 ], [ 7.896541680230055, 12.640779283311621, 0.0 ], [ 7.895266045464492, 12.63112284342453, 0.0 ], [ 7.891099378797794, 12.625746663411464, 0.0 ], [ 7.892233954535688, 12.610289510091162, 0.0 ], [ 7.895266045464492, 12.606377156575608, 0.0 ], [ 7.895833333333377, 12.604166666666687, 0.0 ], [ 7.895266045464496, 12.601956176757877, 0.0 ], [ 7.888067287868969, 12.593877156575534, 0.0 ], [ 7.886932712131152, 12.589456176757823, 0.0 ], [ 7.87973395453561, 12.581377156575558, 0.0 ], [ 7.87859937879782, 12.560289510091199, 0.0 ], [ 7.875567287869011, 12.556377156575518, 0.0 ], [ 7.874032253689319, 12.550396050347283, 0.0 ], [ 7.868877156575592, 12.546400621202361, 0.0 ], [ 7.863350762261346, 12.544982571072111, 0.0 ], [ 7.8625, 12.541666666666648, 0.0 ], [ 7.866270616319518, 12.540698920355945, 0.0 ], [ 7.870266045464477, 12.535543823242209, 0.0 ], [ 7.871400621202278, 12.531122843424503, 0.0 ], [ 7.878599378797807, 12.523043823242231, 0.0 ], [ 7.88001742892803, 12.517517428927997, 0.0 ], [ 7.883333333333378, 12.516666666666747, 0.0 ], [ 7.883333333333386, 12.5125, 0.0 ], [ 7.882980007595475, 12.505908881293447, 0.0 ], [ 7.879519992404588, 12.502424452039993, 0.0 ], [ 7.87881334092885, 12.497575547960105, 0.0 ], [ 7.875353325737868, 12.494091118706621, 0.0 ], [ 7.875, 12.49166666666669, 0.0 ], [ 7.866666666666706, 12.491666666666699, 0.0 ], [ 7.835075547960122, 12.492019992404495, 0.0 ], [ 7.827424452040002, 12.499646674262213, 0.0 ], [ 7.81840888129344, 12.500353325737855, 0.0 ], [ 7.814924452039951, 12.503813340928831, 0.0 ], [ 7.810075547960106, 12.504519992404596, 0.0 ], [ 7.79409111870664, 12.520480007595516, 0.0 ], [ 7.783333333333365, 12.520833333333334, 0.0 ], [ 7.776956176757837, 12.520266045464519, 0.0 ], [ 7.771801079644129, 12.516270616319453, 0.0 ], [ 7.769945949978333, 12.509041680230077, 0.0 ], [ 7.76028951009117, 12.507766045464447, 0.0 ], [ 7.756377156575614, 12.504733954535618, 0.0 ], [ 7.747789510091213, 12.503599378797782, 0.0 ], [ 7.735543823242208, 12.492233954535639, 0.0 ], [ 7.726956176757874, 12.491099378797729, 0.0 ], [ 7.723043823242239, 12.488067287868912, 0.0 ], [ 7.720833333333438, 12.4875, 0.0 ], [ 7.720833333333441, 12.483333333333325, 0.0 ], [ 7.718408881293493, 12.482980007595499, 0.0 ], [ 7.706591118706668, 12.471186659071192, 0.0 ], [ 7.701742214626815, 12.47048000759556, 0.0 ], [ 7.692024400499195, 12.460788302951411, 0.0 ], [ 7.691666666666777, 12.458333333333409, 0.0 ], [ 7.689242214626756, 12.458686659071239, 0.0 ], [ 7.685757785373371, 12.462146674262225, 0.0 ], [ 7.670833333333376, 12.4625, 0.0 ], [ 7.670266045464525, 12.473043823242174, 0.0 ], [ 7.665747070312582, 12.478462388780406, 0.0 ], [ 7.656122843424532, 12.479733954535662, 0.0 ], [ 7.652210489908957, 12.482766045464507, 0.0 ], [ 7.646684095594709, 12.484184095594694, 0.0 ], [ 7.645266045464508, 12.489710489908877, 0.0 ], [ 7.642233954535672, 12.493622843424498, 0.0 ], [ 7.64109937879778, 12.498043823242206, 0.0 ], [ 7.638067287869046, 12.501956176757849, 0.0 ], [ 7.636932712131157, 12.506377156575528, 0.0 ], [ 7.632937282986218, 12.511532253689296, 0.0 ], [ 7.62916666666677, 12.5125, 0.0 ], [ 7.628523763020894, 12.514634874131973, 0.0 ], [ 7.624357096354271, 12.520511542426254, 0.0 ], [ 7.625642903645925, 12.522968207465295, 0.0 ], [ 7.628523763020884, 12.527031792534727, 0.0 ], [ 7.629905870225742, 12.545058525933163, 0.0 ], [ 7.644803195529588, 12.546578301323782, 0.0 ], [ 7.646476236979225, 12.552134874131951, 0.0 ], [ 7.649357096354281, 12.556198459201372, 0.0 ], [ 7.651209513346441, 12.562350124783011, 0.0 ], [ 7.660365125868176, 12.57019042968753, 0.0 ], [ 7.66463487413202, 12.571476236979189, 0.0 ], [ 7.668698459201498, 12.574357096354234, 0.0 ], [ 7.677134874132068, 12.575642903645885, 0.0 ], [ 7.681198459201479, 12.578523763020872, 0.0 ], [ 7.683333333333444, 12.579166666666744, 0.0 ], [ 7.6875, 12.579166666666747, 0.0 ], [ 7.688067287869004, 12.602210489908884, 0.0 ], [ 7.695266045464462, 12.610289510091155, 0.0 ], [ 7.696400621202349, 12.631377156575518, 0.0 ], [ 7.700396050347312, 12.636532253689261, 0.0 ], [ 7.707709757487041, 12.638409084743978, 0.0 ], [ 7.708333333333367, 12.65, 0.0 ], [ 7.7125, 12.65, 0.0 ], [ 7.714924452040022, 12.650353325737843, 0.0 ], [ 7.718408881293501, 12.653813340928874, 0.0 ], [ 7.729166666666764, 12.654166666666656, 0.0 ], [ 7.729733954535631, 12.656377156575557, 0.0 ], [ 7.741099378797809, 12.668622843424529, 0.0 ], [ 7.742327880859467, 12.682433742947048, 0.0 ], [ 7.749603949652806, 12.684301079644158, 0.0 ], [ 7.753698052300376, 12.689583333333351, 0.0 ], [ 7.750468614366431, 12.69375, 0.0 ], [ 7.753599378797767, 12.697789510091198, 0.0 ], [ 7.754733954535664, 12.702210489908902, 0.0 ], [ 7.77026604546446, 12.718622843424535, 0.0 ], [ 7.771400621202347, 12.723043823242227, 0.0 ], [ 7.778599378797786, 12.731122843424471, 0.0 ], [ 7.779733954535685, 12.735543823242205, 0.0 ], [ 7.782766045464509, 12.739456176757859, 0.0 ], [ 7.78390062120231, 12.743877156575532, 0.0 ], [ 7.786932712131136, 12.74778951009117, 0.0 ], [ 7.78806728786894, 12.756377156575565, 0.0 ], [ 7.795266045464487, 12.764456176757843, 0.0 ], [ 7.796736992730069, 12.770187717013954, 0.0 ], [ 7.810289510091218, 12.782766045464424, 0.0 ], [ 7.8125, 12.783333333333376, 0.0 ], [ 7.825, 12.78333333333336, 0.0 ], [ 7.829166666666711, 12.783333333333342, 0.0 ], [ 7.829166666666708, 12.779166666666741, 0.0 ], [ 7.82881334092887, 12.768408881293439, 0.0 ], [ 7.82464667426216, 12.764213053385507, 0.0 ], [ 7.825353325737907, 12.751742214626779, 0.0 ], [ 7.829519992404535, 12.747546386718795, 0.0 ], [ 7.828813340928892, 12.743408881293439, 0.0 ], [ 7.824646674262163, 12.739213053385468, 0.0 ], [ 7.825353325737903, 12.726742214626729, 0.0 ], [ 7.829519992404538, 12.722546386718783, 0.0 ], [ 7.828813340928889, 12.718408881293479, 0.0 ], [ 7.816680230034763, 12.706250678168388, 0.0 ], [ 7.820819430881101, 12.702082655164959, 0.0 ], [ 7.812146674262197, 12.69338243272575, 0.0 ], [ 7.812853325737926, 12.672575547960133, 0.0 ], [ 7.820480007595545, 12.664924452039916, 0.0 ], [ 7.820833333333373, 12.6625, 0.0 ], [ 7.823043823242254, 12.663067287868966, 0.0 ] ] ] } },
{ "type": "Feature", "properties": { "Stra_Catch": "Rima", "State": "Katsina", "LGA": "Batagarawa", "Population": 0, "Cleard_TOR": "Cleared", "Status": "Ongoing", "Start_Date": "2025-02-04T00:00:00", "End_Date": "2025-12-03T00:00:00", "Micr_Catch": "Batagarawa", "Size_Ha": 51114.653481699999, "Comments": null, "OBJECTID_1": 0, "Shape_Leng": 0.0, "Shape_Area": 0.0, "parent_strategic_name": "Rima", "clipped_to_state": true }, "geometry": { "type": "Polygon", "coordinates": [ [ [ 7.702424452039966, 12.95035332573786, 0.0 ], [ 7.706620279948011, 12.954519992404578, 0.0 ], [ 7.710757785373292, 12.953813340928825, 0.0 ], [ 7.718408881293493, 12.946186659071252, 0.0 ], [ 7.73992445203996, 12.945480007595521, 0.0 ], [ 7.743408881293443, 12.942019992404511, 0.0 ], [ 7.75, 12.941666666666693, 0.0 ], [ 7.754166666666704, 12.94166666666672, 0.0 ], [ 7.754166666666706, 12.9375, 0.0 ], [ 7.750768364800407, 12.936528184678892, 0.0 ], [ 7.749205864800439, 12.92579413519965, 0.0 ], [ 7.739506361219676, 12.924382527669332, 0.0 ], [ 7.730273098415831, 12.91636996799047, 0.0 ], [ 7.728549194335994, 12.910339694552988, 0.0 ], [ 7.725617472330832, 12.906326972113771, 0.0 ], [ 7.724382527669376, 12.897839694553024, 0.0 ], [ 7.716369967990508, 12.888606431749176, 0.0 ], [ 7.710339694553026, 12.886882527669313, 0.0 ], [ 7.696921454535605, 12.874639553493962, 0.0 ], [ 7.695215861002719, 12.86867302788634, 0.0 ], [ 7.691552734375077, 12.863658650716156, 0.0 ], [ 7.685339694553003, 12.861882527669291, 0.0 ], [ 7.680325317382895, 12.858219401041666, 0.0 ], [ 7.678549194336022, 12.852006361219654, 0.0 ], [ 7.675561523437541, 12.847916666666698, 0.0 ], [ 7.678549194336044, 12.843826972113742, 0.0 ], [ 7.679166666666722, 12.841666666666667, 0.0 ], [ 7.671732923719649, 12.841005452474038, 0.0 ], [ 7.669982571072116, 12.834184095594695, 0.0 ], [ 7.664456176757851, 12.832766045464457, 0.0 ], [ 7.660543823242289, 12.829733954535659, 0.0 ], [ 7.655017428928057, 12.828315904405448, 0.0 ], [ 7.65327928331171, 12.821541680230062, 0.0 ], [ 7.642554050021788, 12.820124986436662, 0.0 ], [ 7.641099378797776, 12.81445617675783, 0.0 ], [ 7.633900621202335, 12.80637715657557, 0.0 ], [ 7.632766045464525, 12.801956176757882, 0.0 ], [ 7.629733954535705, 12.798043823242219, 0.0 ], [ 7.62916666666677, 12.795833333333411, 0.0 ], [ 7.63390062120234, 12.794618394639755, 0.0 ], [ 7.632766045464527, 12.781122843424553, 0.0 ], [ 7.629733954535705, 12.777210489908935, 0.0 ], [ 7.629166666666763, 12.75833333333334, 0.0 ], [ 7.622789510091238, 12.757766045464455, 0.0 ], [ 7.618877156575591, 12.754733954535636, 0.0 ], [ 7.606122843424551, 12.753599378797752, 0.0 ], [ 7.602210489908912, 12.750567287868932, 0.0 ], [ 7.597789510091225, 12.74943271213113, 0.0 ], [ 7.593877156575584, 12.746400621202278, 0.0 ], [ 7.589456176757881, 12.745266045464403, 0.0 ], [ 7.585543823242332, 12.742233954535553, 0.0 ], [ 7.581122843424529, 12.741099378797784, 0.0 ], [ 7.575967746310819, 12.737103949652809, 0.0 ], [ 7.574112616645025, 12.729875013563456, 0.0 ], [ 7.564456176757931, 12.728599378797826, 0.0 ], [ 7.5605438232423, 12.725567287868984, 0.0 ], [ 7.556122843424603, 12.724432712131103, 0.0 ], [ 7.552210489908954, 12.721400621202282, 0.0 ], [ 7.545833333333435, 12.720833333333417, 0.0 ], [ 7.54548000759562, 12.705908881293411, 0.0 ], [ 7.537853325737903, 12.698257785373322, 0.0 ], [ 7.5375, 12.69583333333337, 0.0 ], [ 7.533333333333466, 12.695833333333372, 0.0 ], [ 7.52695617675796, 12.695266045464423, 0.0 ], [ 7.518877156575594, 12.688067287868986, 0.0 ], [ 7.514456176757888, 12.686932712131103, 0.0 ], [ 7.50637715657563, 12.679733954535644, 0.0 ], [ 7.500850762261368, 12.678315904405425, 0.0 ], [ 7.499149237738841, 12.671684095594623, 0.0 ], [ 7.495833333333479, 12.670833333333364, 0.0 ], [ 7.49548000759558, 12.660075547960082, 0.0 ], [ 7.492019992404684, 12.656591118706597, 0.0 ], [ 7.491666666666777, 12.65, 0.0 ], [ 7.489456176757958, 12.650567287868965, 0.0 ], [ 7.48554382324232, 12.653599378797807, 0.0 ], [ 7.481122843424635, 12.654733954535621, 0.0 ], [ 7.477210489908984, 12.657766045464427, 0.0 ], [ 7.468622843424664, 12.658900621202321, 0.0 ], [ 7.464710489909033, 12.661932712131156, 0.0 ], [ 7.459184095594766, 12.663350762261359, 0.0 ], [ 7.457766045464562, 12.668877156575528, 0.0 ], [ 7.454733954535742, 12.672789510091155, 0.0 ], [ 7.45359937879793, 12.677210489908857, 0.0 ], [ 7.429733954535723, 12.701956176757813, 0.0 ], [ 7.428315904405504, 12.707482571072074, 0.0 ], [ 7.42278951009134, 12.708900621202284, 0.0 ], [ 7.409236992730214, 12.721478949652846, 0.0 ], [ 7.408333333333474, 12.725, 0.0 ], [ 7.407482571072216, 12.728315904405388, 0.0 ], [ 7.40416666666684, 12.729166666666654, 0.0 ], [ 7.404784138997539, 12.735493638780431, 0.0 ], [ 7.408664279514049, 12.740805053711, 0.0 ], [ 7.420039198133856, 12.742460801866383, 0.0 ], [ 7.421450805664224, 12.752160305447118, 0.0 ], [ 7.424382527669446, 12.756173027886335, 0.0 ], [ 7.425617472330918, 12.7646603054471, 0.0 ], [ 7.432715861002809, 12.77283969455296, 0.0 ], [ 7.433950805664159, 12.783802625868065, 0.0 ], [ 7.429784138997543, 12.789506361219631, 0.0 ], [ 7.428240288628684, 12.794906955295135, 0.0 ], [ 7.421550496419417, 12.796819729275205, 0.0 ], [ 7.42083333333351, 12.804166666666669, 0.0 ], [ 7.421720716688496, 12.807624986436691, 0.0 ], [ 7.431377156575659, 12.808900621202334, 0.0 ], [ 7.436532253689385, 12.812896050347296, 0.0 ], [ 7.438067287869059, 12.818877156575525, 0.0 ], [ 7.445266045464585, 12.8269561767579, 0.0 ], [ 7.446400621202404, 12.831377156575579, 0.0 ], [ 7.449432712131218, 12.835289510091133, 0.0 ], [ 7.450000000000166, 12.8375, 0.0 ], [ 7.454166666666796, 12.8375, 0.0 ], [ 7.481616889106049, 12.837146335177961, 0.0 ], [ 7.499646674262276, 12.819091118706639, 0.0 ], [ 7.500000000000114, 12.816666666666729, 0.0 ], [ 7.506591118706755, 12.817019992404541, 0.0 ], [ 7.510786946614702, 12.821186659071188, 0.0 ], [ 7.514924452040098, 12.820480007595526, 0.0 ], [ 7.518750678168558, 12.81668056911899, 0.0 ], [ 7.526742214626831, 12.824646674262146, 0.0 ], [ 7.535757785373391, 12.825353325737906, 0.0 ], [ 7.539242214626876, 12.828813340928887, 0.0 ], [ 7.548257785373375, 12.82951999240449, 0.0 ], [ 7.551742214626851, 12.832980007595509, 0.0 ], [ 7.562500000000118, 12.833333333333352, 0.0 ], [ 7.562146674262296, 12.835757785373371, 0.0 ], [ 7.558686659071312, 12.83924221462674, 0.0 ], [ 7.558333333333405, 12.85, 0.0 ], [ 7.56164923773886, 12.850850762261338, 0.0 ], [ 7.563067287869064, 12.856377156575524, 0.0 ], [ 7.566099378797792, 12.860289510091167, 0.0 ], [ 7.567233954535697, 12.873043823242206, 0.0 ], [ 7.574432712131127, 12.881122843424492, 0.0 ], [ 7.575, 12.883333333333393, 0.0 ], [ 7.578315904405446, 12.884184095594629, 0.0 ], [ 7.579733954535665, 12.889710489908936, 0.0 ], [ 7.582766045464472, 12.893622843424565, 0.0 ], [ 7.583900621202367, 12.898043823242244, 0.0 ], [ 7.586932712131195, 12.90195617675781, 0.0 ], [ 7.588067287868995, 12.914710489908948, 0.0 ], [ 7.59109937879782, 12.918622843424478, 0.0 ], [ 7.592322455512221, 12.932373385959254, 0.0 ], [ 7.597789510091217, 12.93693271213116, 0.0 ], [ 7.608333333333446, 12.93750000000011, 0.0 ], [ 7.610757785373369, 12.937853325737885, 0.0 ], [ 7.635075547960174, 12.9621466742622, 0.0 ], [ 7.639924452040035, 12.962853325737928, 0.0 ], [ 7.645475260416709, 12.968376329210084, 0.0 ], [ 7.645833333333456, 12.970833333333349, 0.0 ], [ 7.660757785373347, 12.97048000759553, 0.0 ], [ 7.668408881293443, 12.962853325737949, 0.0 ], [ 7.673257785373299, 12.962146674262188, 0.0 ], [ 7.676742214626787, 12.958686659071201, 0.0 ], [ 7.681591118706649, 12.95798000759547, 0.0 ], [ 7.689950900607673, 12.949646674262253, 0.0 ], [ 7.702424452039966, 12.95035332573786, 0.0 ] ] ] } },
{ "type": "Feature", "properties": { "Stra_Catch": "Rima", "State": "Katsina", "LGA": "Katsina", "Population": 0, "Cleard_TOR": "Cleared", "Status": "Ongoin", "Start_Date": "2025-02-04T00:00:00", "End_Date": "2025-12-03T00:00:00", "Micr_Catch": "Katsina", "Size_Ha": 66626.181743699999, "Comments": null, "OBJECTID_1": 0, "Shape_Leng": 0.0, "Shape_Area": 0.0, "parent_strategic_name": "Rima", "clipped_to_state": true }, "geometry": { "type": "Polygon", "coordinates": [ [ [ 7.799646674262227, 13.255879550509981, 0.0 ], [ 7.800353325737864, 13.251742214626749, 0.0 ], [ 7.812146674262183, 13.239924452039931, 0.0 ], [ 7.812853325737922, 13.235075547960054, 0.0 ], [ 7.817019992404555, 13.23087955051002, 0.0 ], [ 7.816313340928904, 13.226742214626835, 0.0 ], [ 7.812146674262202, 13.222546217176687, 0.0 ], [ 7.812853325737925, 13.218408881293485, 0.0 ], [ 7.816313340928922, 13.214924452039991, 0.0 ], [ 7.816666666666749, 13.2125, 0.0 ], [ 7.819982571072104, 13.211649068196634, 0.0 ], [ 7.821400621202317, 13.206122843424529, 0.0 ], [ 7.824432712131127, 13.202210489908913, 0.0 ], [ 7.825, 13.1875, 0.0 ], [ 7.824094306098163, 13.183970981174088, 0.0 ], [ 7.806122843424516, 13.182766045464446, 0.0 ], [ 7.785543823242264, 13.163067287868945, 0.0 ], [ 7.775, 13.1625, 0.0 ], [ 7.775, 13.158333333333374, 0.0 ], [ 7.775353325737935, 13.155908881293447, 0.0 ], [ 7.778813340928895, 13.152424452039948, 0.0 ], [ 7.779519992404555, 13.147575547960107, 0.0 ], [ 7.782980007595539, 13.1440911187066, 0.0 ], [ 7.783686659071273, 13.122575547960057, 0.0 ], [ 7.787146674262165, 13.119091118706693, 0.0 ], [ 7.787853325737896, 13.114242214626817, 0.0 ], [ 7.791313340928882, 13.110757785373355, 0.0 ], [ 7.792019992404542, 13.105908881293479, 0.0 ], [ 7.795480007595504, 13.102424452039969, 0.0 ], [ 7.796186659071246, 13.093408881293396, 0.0 ], [ 7.803813340928849, 13.085757785373284, 0.0 ], [ 7.804519992404576, 13.080908881293437, 0.0 ], [ 7.807980007595576, 13.077424452039965, 0.0 ], [ 7.808333333333394, 13.066666666666665, 0.0 ], [ 7.80174221462675, 13.066313340928858, 0.0 ], [ 7.798257785373344, 13.062853325737878, 0.0 ], [ 7.794120279947956, 13.062146674262246, 0.0 ], [ 7.78992445204002, 13.066313340928856, 0.0 ], [ 7.764953613281309, 13.067019992404589, 0.0 ], [ 7.760757785373351, 13.06285332573788, 0.0 ], [ 7.75, 13.0625, 0.0 ], [ 7.741666666666745, 13.0625, 0.0 ], [ 7.7375, 13.0625, 0.0 ], [ 7.735289510091231, 13.061932712131117, 0.0 ], [ 7.731377156575581, 13.05890062120227, 0.0 ], [ 7.725850762261312, 13.057482571072081, 0.0 ], [ 7.725, 13.054166666666728, 0.0 ], [ 7.722575547960127, 13.053813340928876, 0.0 ], [ 7.719091118706635, 13.050353325737923, 0.0 ], [ 7.714242214626791, 13.049646674262174, 0.0 ], [ 7.704522026909751, 13.039952935112904, 0.0 ], [ 7.703813340928921, 13.030908881293458, 0.0 ], [ 7.698290337456677, 13.025358072916703, 0.0 ], [ 7.69340888129347, 13.024646674262211, 0.0 ], [ 7.683691067165856, 13.014954969618083, 0.0 ], [ 7.682980007595528, 13.01007554796014, 0.0 ], [ 7.669120958116383, 12.996191067165805, 0.0 ], [ 7.66424221462682, 12.995480007595489, 0.0 ], [ 7.64618801540809, 12.977451239691847, 0.0 ], [ 7.645833333333456, 12.970833333333349, 0.0 ], [ 7.645475260416709, 12.968376329210084, 0.0 ], [ 7.639924452040035, 12.962853325737928, 0.0 ], [ 7.635075547960174, 12.9621466742622, 0.0 ], [ 7.610757785373369, 12.937853325737885, 0.0 ], [ 7.608333333333446, 12.93750000000011, 0.0 ], [ 7.608333333333452, 12.95, 0.0 ], [ 7.606122843424551, 12.950567287868989, 0.0 ], [ 7.600655788845566, 12.955126614040816, 0.0 ], [ 7.599432712131157, 12.968877156575527, 0.0 ], [ 7.596400621202338, 12.972789510091198, 0.0 ], [ 7.59498257107212, 12.978315904405449, 0.0 ], [ 7.589456176757869, 12.979733954535673, 0.0 ], [ 7.58554382324231, 12.982766045464468, 0.0 ], [ 7.581122843424521, 12.98390062120229, 0.0 ], [ 7.571419949001869, 12.99270155164934, 0.0 ], [ 7.570833333333474, 13.020833333333341, 0.0 ], [ 7.574149237738813, 13.021684095594678, 0.0 ], [ 7.575567287869033, 13.027210489908851, 0.0 ], [ 7.586932712131187, 13.03945617675784, 0.0 ], [ 7.5875, 13.045833333333372, 0.0 ], [ 7.587146674262213, 13.048257785373298, 0.0 ], [ 7.579519992404623, 13.05590888129341, 0.0 ], [ 7.578813340928879, 13.06421305338541, 0.0 ], [ 7.583319430881172, 13.068750678168465, 0.0 ], [ 7.575353325737909, 13.076742214626821, 0.0 ], [ 7.574646674262241, 13.089924452039998, 0.0 ], [ 7.571186659071273, 13.093408881293426, 0.0 ], [ 7.570833333333456, 13.1, 0.0 ], [ 7.570480007595547, 13.102424452039982, 0.0 ], [ 7.556620958116395, 13.116308932834261, 0.0 ], [ 7.554166666666776, 13.116666666666775, 0.0 ], [ 7.554524739583415, 13.119123670790005, 0.0 ], [ 7.560075547960187, 13.124646674262165, 0.0 ], [ 7.562500000000124, 13.125, 0.0 ], [ 7.562146674262286, 13.14409111870661, 0.0 ], [ 7.558686659071308, 13.1475755479601, 0.0 ], [ 7.557980007595573, 13.160046217176671, 0.0 ], [ 7.562146674262289, 13.164242214626787, 0.0 ], [ 7.562781409001368, 13.187310741087067, 0.0 ], [ 7.579758109080597, 13.197319499114485, 0.0 ], [ 7.585349119719594, 13.199069491074804, 0.0 ], [ 7.593671146797454, 13.205209496914032, 0.0 ], [ 7.594131148364315, 13.205550497244946, 0.0 ], [ 7.595029151182379, 13.206210497862108, 0.0 ], [ 7.602921170102987, 13.209859492462011, 0.0 ], [ 7.614483202471646, 13.216819492681097, 0.0 ], [ 7.61955821839391, 13.220392495383518, 0.0 ], [ 7.622376221182003, 13.220461487258842, 0.0 ], [ 7.623757230450549, 13.223022495979668, 0.0 ], [ 7.632556249240847, 13.226465486841764, 0.0 ], [ 7.640841277645589, 13.233111495343175, 0.0 ], [ 7.64539443625413, 13.236123528797032, 0.0 ], [ 7.646614294910347, 13.236930497189134, 0.0 ], [ 7.650347301359737, 13.237940491057756, 0.0 ], [ 7.651226309494202, 13.240269500109962, 0.0 ], [ 7.654055310845765, 13.239880489671517, 0.0 ], [ 7.662119337317763, 13.246060496497897, 0.0 ], [ 7.710919474175823, 13.27601050049946, 0.0 ], [ 7.720387502561135, 13.282449504431897, 0.0 ], [ 7.735832667009421, 13.291545199105066, 0.0 ], [ 7.739924452039962, 13.291313340928859, 0.0 ], [ 7.744120279948004, 13.28714667426223, 0.0 ], [ 7.769091118706693, 13.287853325737888, 0.0 ], [ 7.772575547960092, 13.291313340928887, 0.0 ], [ 7.781591118706658, 13.292019992404621, 0.0 ], [ 7.785075547960155, 13.295480007595494, 0.0 ], [ 7.78992445204, 13.296186659071237, 0.0 ], [ 7.793408881293495, 13.299646674262208, 0.0 ], [ 7.795833333333428, 13.3, 0.0 ], [ 7.795833333333416, 13.295833333333421, 0.0 ], [ 7.8, 13.295833333333402, 0.0 ], [ 7.800353325737865, 13.293408881293463, 0.0 ], [ 7.804519992404586, 13.289212883843355, 0.0 ], [ 7.803813340928865, 13.260075547960103, 0.0 ], [ 7.799646674262227, 13.255879550509981, 0.0 ] ] ] } },
{ "type": "Feature", "properties": { "Stra_Catch": "Rima", "State": "Katsina", "LGA": "Daura", "Population": 0, "Cleard_TOR": "Cleared", "Status": "Ongoing", "Start_Date": "2025-02-04T00:00:00", "End_Date": "2025-02-04T00:00:00", "Micr_Catch": "Daura", "Size_Ha": 63446.811697700003, "Comments": null, "OBJECTID_1": 0, "Shape_Leng": 0.0, "Shape_Area": 0.0, "parent_strategic_name": "Rima", "clipped_to_state": true }, "geometry": { "type": "Polygon", "coordinates": [ [ [ 8.346684265136695, 13.100850762261315, 0.0 ], [ 8.353315734863283, 13.099149237738764, 0.0 ], [ 8.35473395453565, 13.093622843424521, 0.0 ], [ 8.3619327121311, 13.085543823242267, 0.0 ], [ 8.363467746310778, 13.079562717013939, 0.0 ], [ 8.368622843424509, 13.075567287868985, 0.0 ], [ 8.370833333333389, 13.075, 0.0 ], [ 8.371400621202259, 13.064456176757878, 0.0 ], [ 8.374432712131075, 13.060543823242217, 0.0 ], [ 8.375655958387638, 13.046793280707497, 0.0 ], [ 8.38112284342448, 13.042233954535581, 0.0 ], [ 8.386649068196666, 13.040815904405418, 0.0 ], [ 8.3875, 13.0375, 0.0 ], [ 8.388409254286083, 13.033956909179722, 0.0 ], [ 8.4, 13.033333333333402, 0.0 ], [ 8.400126145009292, 13.029135713004703, 0.0 ], [ 8.399787836025084, 13.0290271640641, 0.0 ], [ 8.399776842757962, 13.028431224617943, 0.0 ], [ 8.399788956900139, 13.02788871775928, 0.0 ], [ 8.39977178416704, 13.026941891229967, 0.0 ], [ 8.400198132880027, 13.026740233774509, 0.0 ], [ 8.400331083749952, 13.022316140600289, 0.0 ], [ 8.400083380318531, 13.022081518928811, 0.0 ], [ 8.400062796552787, 13.020979844525781, 0.0 ], [ 8.400362824251594, 13.020698806173689, 0.0 ], [ 8.400337950439713, 13.019358040865017, 0.0 ], [ 8.400422357205183, 13.019278911355322, 0.0 ], [ 8.400567287868917, 13.014456176757822, 0.0 ], [ 8.407766045464447, 13.006377156575532, 0.0 ], [ 8.409184265136737, 13.000850762261283, 0.0 ], [ 8.4125, 13.0, 0.0 ], [ 8.412715813417952, 12.989648308817751, 0.0 ], [ 8.412051611682347, 12.989019740949615, 0.0 ], [ 8.412040599658551, 12.988418632275373, 0.0 ], [ 8.412755424849074, 12.987748309706404, 0.0 ], [ 8.412831051594029, 12.984120802592154, 0.0 ], [ 8.412056590157219, 12.984375596850303, 0.0 ], [ 8.410981266903278, 12.984915700886916, 0.0 ], [ 8.410951407189071, 12.983830557823092, 0.0 ], [ 8.411782180099143, 12.983437456440171, 0.0 ], [ 8.411513230312224, 12.982475485383763, 0.0 ], [ 8.411157991149505, 12.981450005445335, 0.0 ], [ 8.411793658640216, 12.980853804916361, 0.0 ], [ 8.412066792981024, 12.98003531674226, 0.0 ], [ 8.412350067684947, 12.979498717662976, 0.0 ], [ 8.4126225616584, 12.978951496283399, 0.0 ], [ 8.41294513020746, 12.978648915866628, 0.0 ], [ 8.413015797242922, 12.97525930582804, 0.0 ], [ 8.412913484079391, 12.975154385757142, 0.0 ], [ 8.412447207004014, 12.974712785887663, 0.0 ], [ 8.413033332327888, 12.97441821917929, 0.0 ], [ 8.413067287868962, 12.97278951009117, 0.0 ], [ 8.413267845483288, 12.9725307275197, 0.0 ], [ 8.413197085364464, 12.972171064586867, 0.0 ], [ 8.412651573996074, 12.971654316765401, 0.0 ], [ 8.412635713726187, 12.970816101644038, 0.0 ], [ 8.412651350595265, 12.97013796389178, 0.0 ], [ 8.412628355366593, 12.968886471066257, 0.0 ], [ 8.414858864833233, 12.968935998926463, 0.0 ], [ 8.415536798172424, 12.967573227713411, 0.0 ], [ 8.416247771548846, 12.967560782901352, 0.0 ], [ 8.416436124966026, 12.967564953574971, 0.0 ], [ 8.417517598470079, 12.963350762261388, 0.0 ], [ 8.423484574182087, 12.961819604822139, 0.0 ], [ 8.423743776049044, 12.961328210548384, 0.0 ], [ 8.423729399542841, 12.960532648125783, 0.0 ], [ 8.423747435514889, 12.959737157364591, 0.0 ], [ 8.423455924997594, 12.959178342812937, 0.0 ], [ 8.423185999885517, 12.958629906621775, 0.0 ], [ 8.422645885088896, 12.958118755263186, 0.0 ], [ 8.422625721353421, 12.957022504323161, 0.0 ], [ 8.423186217536239, 12.95618847761159, 0.0 ], [ 8.423751954497106, 12.955657786162433, 0.0 ], [ 8.423195291675878, 12.954592667916794, 0.0 ], [ 8.423469041648941, 12.953476403497969, 0.0 ], [ 8.425130747490368, 12.952513939577615, 0.0 ], [ 8.424861085881775, 12.951851858753839, 0.0 ], [ 8.42375824060883, 12.950807788084918, 0.0 ], [ 8.423741920152972, 12.949917382006173, 0.0 ], [ 8.425470962366957, 12.948554516762437, 0.0 ], [ 8.425499183427673, 12.948555144618563, 0.0 ], [ 8.425567287868937, 12.947789510091173, 0.0 ], [ 8.428599378797763, 12.943877156575587, 0.0 ], [ 8.429166666666708, 12.925, 0.0 ], [ 8.425, 12.925, 0.0 ], [ 8.42257554796007, 12.924646674262206, 0.0 ], [ 8.41875, 12.920847913954008, 0.0 ], [ 8.414924452039967, 12.924646674262195, 0.0 ], [ 8.4, 12.925, 0.0 ], [ 8.399112616645002, 12.928458319770051, 0.0 ], [ 8.389456176757818, 12.9297339545356, 0.0 ], [ 8.373043823242192, 12.945266045464459, 0.0 ], [ 8.364456176757882, 12.946400621202297, 0.0 ], [ 8.360543823242224, 12.949432712131109, 0.0 ], [ 8.358333333333338, 12.95, 0.0 ], [ 8.357482401529996, 12.946684095594687, 0.0 ], [ 8.350582885742249, 12.944913736979247, 0.0 ], [ 8.342233954535603, 12.935543823242268, 0.0 ], [ 8.341666666666653, 12.933333333333376, 0.0 ], [ 8.34081573486332, 12.930017428928013, 0.0 ], [ 8.334184265136727, 12.928315904405393, 0.0 ], [ 8.332433742947035, 12.921494547526123, 0.0 ], [ 8.325, 12.920833333333382, 0.0 ], [ 8.32561764187291, 12.918673027886324, 0.0 ], [ 8.329784308539516, 12.912969292534752, 0.0 ], [ 8.328549024793825, 12.906173027886368, 0.0 ], [ 8.325617641872897, 12.902160305447058, 0.0 ], [ 8.324382358127217, 12.893673027886281, 0.0 ], [ 8.321450975206186, 12.88966030544708, 0.0 ], [ 8.320030721028637, 12.879901801215283, 0.0 ], [ 8.305152893066381, 12.878449503580795, 0.0 ], [ 8.303007846408407, 12.870947265625045, 0.0 ], [ 8.297993469238309, 12.867284138997382, 0.0 ], [ 8.293673197428397, 12.866049194336012, 0.0 ], [ 8.289660135904956, 12.863117472330769, 0.0 ], [ 8.285339864095061, 12.861882527669286, 0.0 ], [ 8.281326802571607, 12.85895080566414, 0.0 ], [ 8.2625, 12.858333333333366, 0.0 ], [ 8.25833333333339, 12.858333333333327, 0.0 ], [ 8.255908881293468, 12.858686659071191, 0.0 ], [ 8.252424452039971, 12.862146674262162, 0.0 ], [ 8.235784403483137, 12.862853325737886, 0.0 ], [ 8.227424452039946, 12.854519992404542, 0.0 ], [ 8.222575547960098, 12.853813340928809, 0.0 ], [ 8.208691067165839, 12.839954291449683, 0.0 ], [ 8.207980007595514, 12.835075547960122, 0.0 ], [ 8.202456834581172, 12.829524739583357, 0.0 ], [ 8.197575547960055, 12.828813340928878, 0.0 ], [ 8.189924452039955, 12.821186659071175, 0.0 ], [ 8.1875, 12.82083333333337, 0.0 ], [ 8.187853325737837, 12.844091118706588, 0.0 ], [ 8.191313340928827, 12.847575547960089, 0.0 ], [ 8.192019992404562, 12.869091118706622, 0.0 ], [ 8.195480007595556, 12.872575547960132, 0.0 ], [ 8.1961866590712, 12.885757785373331, 0.0 ], [ 8.199646674262159, 12.889242214626819, 0.0 ], [ 8.2, 12.895833333333343, 0.0 ], [ 8.203770785861588, 12.896801079644099, 0.0 ], [ 8.207766045464483, 12.901956176757825, 0.0 ], [ 8.208900621202275, 12.906377156575624, 0.0 ], [ 8.211932712131112, 12.910289510091161, 0.0 ], [ 8.213067287868922, 12.918877156575569, 0.0 ], [ 8.216099378797738, 12.922789510091224, 0.0 ], [ 8.217280917697524, 12.94908820258247, 0.0 ], [ 8.220833333333387, 12.95, 0.0 ], [ 8.227424452039957, 12.950353325737883, 0.0 ], [ 8.230908881293443, 12.95381334092885, 0.0 ], [ 8.2625, 12.954166666666673, 0.0 ], [ 8.261932712131079, 12.956377156575599, 0.0 ], [ 8.258900621202251, 12.960289510091208, 0.0 ], [ 8.257445949978321, 12.965958319770069, 0.0 ], [ 8.247789510091151, 12.96723395453559, 0.0 ], [ 8.243877156575518, 12.970266045464417, 0.0 ], [ 8.231122843424473, 12.971400621202294, 0.0 ], [ 8.227210489908916, 12.974432712131165, 0.0 ], [ 8.216666666666685, 12.975, 0.0 ], [ 8.2125, 12.975, 0.0 ], [ 8.2125, 12.970833333333355, 0.0 ], [ 8.212146674262138, 12.968408881293435, 0.0 ], [ 8.208686659071253, 12.964924452039936, 0.0 ], [ 8.207980007595513, 12.960075547960106, 0.0 ], [ 8.204519992404526, 12.95659111870664, 0.0 ], [ 8.204166666666705, 12.954166666666653, 0.0 ], [ 8.130908881293404, 12.953813340928846, 0.0 ], [ 8.127424452039913, 12.950353325737876, 0.0 ], [ 8.11840888129343, 12.949646674262219, 0.0 ], [ 8.106591118706607, 12.937853325737924, 0.0 ], [ 8.101742214626739, 12.937146674262175, 0.0 ], [ 8.098257785373253, 12.933686659071213, 0.0 ], [ 8.095833333333326, 12.933333333333357, 0.0 ], [ 8.096186659071233, 12.944091118706613, 0.0 ], [ 8.09964667426223, 12.947575547960112, 0.0 ], [ 8.100353325737871, 12.956591118706612, 0.0 ], [ 8.103813340928847, 12.960075547960109, 0.0 ], [ 8.104519992404494, 12.973257785373292, 0.0 ], [ 8.107980007595488, 12.976742214626796, 0.0 ], [ 8.108686659071223, 12.981591118706612, 0.0 ], [ 8.11214667426219, 12.985075547960092, 0.0 ], [ 8.112853325737834, 12.994091118706594, 0.0 ], [ 8.116313340928816, 12.997575547960116, 0.0 ], [ 8.117019992404547, 13.002424452039961, 0.0 ], [ 8.132980007595499, 13.018408881293395, 0.0 ], [ 8.133686659071248, 13.023257785373261, 0.0 ], [ 8.137146674262231, 13.026742214626758, 0.0 ], [ 8.137853325737868, 13.031591118706606, 0.0 ], [ 8.147544860839865, 13.041308932834234, 0.0 ], [ 8.152424452039943, 13.042019992404576, 0.0 ], [ 8.157978481716647, 13.047546386718823, 0.0 ], [ 8.158333333333367, 13.054166666666742, 0.0 ], [ 8.1625, 13.054166666666724, 0.0 ], [ 8.1625, 13.058333333333355, 0.0 ], [ 8.164924452039916, 13.058686659071265, 0.0 ], [ 8.1684088812934, 13.06214667426223, 0.0 ], [ 8.173257785373259, 13.06285332573789, 0.0 ], [ 8.18924221462682, 13.078813340928816, 0.0 ], [ 8.194091118706661, 13.079519992404556, 0.0 ], [ 8.201742214626792, 13.087146674262188, 0.0 ], [ 8.21075778537327, 13.087853325737894, 0.0 ], [ 8.222575547960092, 13.099646674262228, 0.0 ], [ 8.227424452039962, 13.100353325737871, 0.0 ], [ 8.232975260416721, 13.105876329210115, 0.0 ], [ 8.233333333333363, 13.108333333333404, 0.0 ], [ 8.241666666666697, 13.108333333333412, 0.0 ], [ 8.242517598470039, 13.111649237738749, 0.0 ], [ 8.248043823242229, 13.113067287868985, 0.0 ], [ 8.256122843424503, 13.120266045464417, 0.0 ], [ 8.265747239854633, 13.121537611219681, 0.0 ], [ 8.270266045464414, 13.126956176757803, 0.0 ], [ 8.271400621202316, 13.131377156575597, 0.0 ], [ 8.274432712131127, 13.13528951009115, 0.0 ], [ 8.275567287868938, 13.139710489908882, 0.0 ], [ 8.278599378797763, 13.143622843424522, 0.0 ], [ 8.280062188042519, 13.149322848849854, 0.0 ], [ 8.296762559811031, 13.16512750825339, 0.0 ], [ 8.30827262441424, 13.160096210951997, 0.0 ], [ 8.311948608383807, 13.153507168628522, 0.0 ], [ 8.315453593678253, 13.147487129567063, 0.0 ], [ 8.316842587860412, 13.145101114088776, 0.0 ], [ 8.317070587526938, 13.144844112205735, 0.0 ], [ 8.328658559211462, 13.131788016583322, 0.0 ], [ 8.33366567587799, 13.128578812853522, 0.0 ], [ 8.33390062120225, 13.122789510091188, 0.0 ], [ 8.33693271213108, 13.118877156575556, 0.0 ], [ 8.338208516438799, 13.109220716688355, 0.0 ], [ 8.34498240152994, 13.107482571072048, 0.0 ], [ 8.346684265136695, 13.100850762261315, 0.0 ] ] ] } },
{ "type": "Feature", "properties": { "Stra_Catch": "Hadejia-Jama'are", "State": "Jigawa", "LGA": "Kazaure", "Population": 200100, "Cleard_TOR": "No", "Status": "Not Yet Cleared", "Start_Date": "2024-12-20T00:00:00", "End_Date": "2024-03-01T00:00:00", "Micr_Catch": "Badori", "Size_Ha": 42220.940415999998, "Comments": null, "OBJECTID_1": 0, "Shape_Leng": 0.0, "Shape_Area": 0.0, "parent_strategic_name": "Rima", "clipped_to_state": true }, "geometry": { "type": "MultiPolygon", "coordinates": [ [ [ [ 8.13400392783803, 12.619410626881118, 0.0 ], [ 8.133936106264393, 12.618485431901853, 0.0 ], [ 8.133655407073769, 12.618218558880603, 0.0 ], [ 8.133636839178656, 12.618161760467036, 0.0 ], [ 8.133686658642411, 12.619091119178536, 0.0 ], [ 8.13400392783803, 12.619410626881118, 0.0 ] ] ], [ [ [ 8.129519991408497, 12.635075546982788, 0.0 ], [ 8.128813340650909, 12.64825778484712, 0.0 ], [ 8.125353325842331, 12.651742214051152, 0.0 ], [ 8.125224293882598, 12.660235788495742, 0.0 ], [ 8.126322033977042, 12.660608743692402, 0.0 ], [ 8.126343371813174, 12.659729338803514, 0.0 ], [ 8.126065168831937, 12.658877559621072, 0.0 ], [ 8.125755831847913, 12.657979585515269, 0.0 ], [ 8.126205822781079, 12.655755884598058, 0.0 ], [ 8.126632398848004, 12.654544561336126, 0.0 ], [ 8.126906026369069, 12.653726380034886, 0.0 ], [ 8.127462078491918, 12.652674951185661, 0.0 ], [ 8.126916953915313, 12.652098855942867, 0.0 ], [ 8.126372710914172, 12.651581571766078, 0.0 ], [ 8.126357787001545, 12.650734895093402, 0.0 ], [ 8.12739035579491, 12.650758942188766, 0.0 ], [ 8.129174624881015, 12.650423056292125, 0.0 ], [ 8.129686641217077, 12.649943136821776, 0.0 ], [ 8.129961171919643, 12.648853693884428, 0.0 ], [ 8.130249652235035, 12.648583375479701, 0.0 ], [ 8.130221171318231, 12.646955720679644, 0.0 ], [ 8.131082814268744, 12.646148194713769, 0.0 ], [ 8.130532308001168, 12.645091027216422, 0.0 ], [ 8.130520138861373, 12.644382372204847, 0.0 ], [ 8.130539616322841, 12.643568654544859, 0.0 ], [ 8.130505294178526, 12.641593692535926, 0.0 ], [ 8.131094422067092, 12.640480108023423, 0.0 ], [ 8.130825535220259, 12.639904921511894, 0.0 ], [ 8.130457159065868, 12.639555108996747, 0.0 ], [ 8.130951458709866, 12.63856306984524, 0.0 ], [ 8.131932325715901, 12.638546661908288, 0.0 ], [ 8.132899034102055, 12.638569145586766, 0.0 ], [ 8.133727753676265, 12.638555150450763, 0.0 ], [ 8.134415562442342, 12.638571158814731, 0.0 ], [ 8.134041051111559, 12.63779933981583, 0.0 ], [ 8.132493831865085, 12.637300796190944, 0.0 ], [ 8.132483005881669, 12.63667161616201, 0.0 ], [ 8.132901468303974, 12.636247013749427, 0.0 ], [ 8.133325232835677, 12.63584944719047, 0.0 ], [ 8.133610033207782, 12.633622802523327, 0.0 ], [ 8.135600754680612, 12.63201626500897, 0.0 ], [ 8.136368362428696, 12.63123702122963, 0.0 ], [ 8.136933362579967, 12.63070718882415, 0.0 ], [ 8.137206017990287, 12.630160249887275, 0.0 ], [ 8.139053588879042, 12.629724095012548, 0.0 ], [ 8.139690180991295, 12.629077663964306, 0.0 ], [ 8.140526839044664, 12.62829333162969, 0.0 ], [ 8.140261530396938, 12.626643716040247, 0.0 ], [ 8.139790355739311, 12.625738611662944, 0.0 ], [ 8.140634578268457, 12.624947150233767, 0.0 ], [ 8.140006062026446, 12.623664316262186, 0.0 ], [ 8.138884166390671, 12.623926662072826, 0.0 ], [ 8.138207612799416, 12.624266204536527, 0.0 ], [ 8.137366234904601, 12.623861935250192, 0.0 ], [ 8.137853325978327, 12.626715766505429, 0.0 ], [ 8.129519991408497, 12.635075546982788, 0.0 ] ] ], [ [ [ 8.125976746396285, 12.667730561731824, 0.0 ], [ 8.125129219951837, 12.666494063657341, 0.0 ], [ 8.125104176697043, 12.668142544772978, 0.0 ], [ 8.125976746396285, 12.667730561731824, 0.0 ] ] ], [ [ [ 8.125456853378854, 12.669400119783036, 0.0 ], [ 8.125095615276257, 12.668706103328228, 0.0 ], [ 8.125077670603984, 12.669887317735395, 0.0 ], [ 8.125456853378854, 12.669400119783036, 0.0 ] ] ], [ [ [ 8.125286848671117, 12.673683553229054, 0.0 ], [ 8.125027569983573, 12.673185208816513, 0.0 ], [ 8.125003743937365, 12.674753566745828, 0.0 ], [ 8.125286848671117, 12.673683553229054, 0.0 ] ] ], [ [ [ 8.135095268223559, 12.682783241477807, 0.0 ], [ 8.134704326800129, 12.681586729929597, 0.0 ], [ 8.134017654738734, 12.680880648277938, 0.0 ], [ 8.13296013449186, 12.680539715596709, 0.0 ], [ 8.132625281402566, 12.679514775551169, 0.0 ], [ 8.131515726896357, 12.679245191732178, 0.0 ], [ 8.131246714534573, 12.678696494624022, 0.0 ], [ 8.13068969292995, 12.678428712646429, 0.0 ], [ 8.130314721541803, 12.678237624054264, 0.0 ], [ 8.135213657962876, 12.683126440233973, 0.0 ], [ 8.135095268223559, 12.682783241477807, 0.0 ] ] ], [ [ [ 8.138404961364751, 12.686043814542733, 0.0 ], [ 8.13770302789877, 12.685376897922335, 0.0 ], [ 8.13651785937245, 12.684158206855034, 0.0 ], [ 8.135996529910805, 12.683907694922079, 0.0 ], [ 8.138661260766513, 12.686566920966717, 0.0 ], [ 8.138404961364751, 12.686043814542733, 0.0 ] ] ], [ [ [ 8.13951783233358, 12.687155726557041, 0.0 ], [ 8.139506406657505, 12.687132424460536, 0.0 ], [ 8.138969512440609, 12.686874535853342, 0.0 ], [ 8.139242214166241, 12.68714667423072, 0.0 ], [ 8.13951783233358, 12.687155726557041, 0.0 ] ] ], [ [ [ 8.144434899132989, 12.687206090748528, 0.0 ], [ 8.144320372403321, 12.687313459845466, 0.0 ], [ 8.144609252284292, 12.687322947735815, 0.0 ], [ 8.144434899132989, 12.687206090748528, 0.0 ] ] ], [ [ [ 8.1582808, 12.6863167, 0.0 ], [ 8.1600235, 12.6839655, 0.0 ], [ 8.160026438125994, 12.683844150516302, 0.0 ], [ 8.159172104350271, 12.683408591594432, 0.0 ], [ 8.156924552881842, 12.68311908347793, 0.0 ], [ 8.156382767677886, 12.683128225519727, 0.0 ], [ 8.155290227942086, 12.682757334564061, 0.0 ], [ 8.153859445624187, 12.684486045843638, 0.0 ], [ 8.15388212142323, 12.68578917764466, 0.0 ], [ 8.151660674087942, 12.686086468178138, 0.0 ], [ 8.150923723063865, 12.687181873492589, 0.0 ], [ 8.149745856361159, 12.687154530425659, 0.0 ], [ 8.149445982062325, 12.687435691715837, 0.0 ], [ 8.14943073366025, 12.687481303127226, 0.0 ], [ 8.156419786167033, 12.687710849621135, 0.0 ], [ 8.1582808, 12.6863167, 0.0 ] ] ] ] } },
{ "type": "Feature", "properties": { "Stra_Catch": "Rima", "State": "Katsina", "LGA": "Daura", "Population": 0, "Cleard_TOR": "Cleared", "Status": "Ongoing", "Start_Date": "2025-02-04T00:00:00", "End_Date": "2025-02-04T00:00:00", "Micr_Catch": "Daura", "Size_Ha": 63446.811697700003, "Comments": null, "OBJECTID_1": 0, "Shape_Leng": 0.0, "Shape_Area": 0.0, "parent_strategic_name": "Hadejia", "clipped_to_state": true }, "geometry": { "type": "MultiPolygon", "coordinates": [ [ [ [ 8.39977178416704, 13.026941891229967, 0.0 ], [ 8.399788956900139, 13.02788871775928, 0.0 ], [ 8.399776842757962, 13.028431224617943, 0.0 ], [ 8.399787836025084, 13.0290271640641, 0.0 ], [ 8.400126145009292, 13.029135713004703, 0.0 ], [ 8.400198132880027, 13.026740233774509, 0.0 ], [ 8.39977178416704, 13.026941891229967, 0.0 ] ] ], [ [ [ 8.400337950439713, 13.019358040865017, 0.0 ], [ 8.400362824251594, 13.020698806173689, 0.0 ], [ 8.400062796552787, 13.020979844525781, 0.0 ], [ 8.400083380318531, 13.022081518928811, 0.0 ], [ 8.400331083749952, 13.022316140600289, 0.0 ], [ 8.400422357205183, 13.019278911355322, 0.0 ], [ 8.400337950439713, 13.019358040865017, 0.0 ] ] ], [ [ [ 8.412040599658551, 12.988418632275373, 0.0 ], [ 8.412051611682347, 12.989019740949615, 0.0 ], [ 8.412715813417952, 12.989648308817751, 0.0 ], [ 8.412755424849074, 12.987748309706404, 0.0 ], [ 8.412040599658551, 12.988418632275373, 0.0 ] ] ], [ [ [ 8.4126225616584, 12.978951496283399, 0.0 ], [ 8.412350067684947, 12.979498717662976, 0.0 ], [ 8.412066792981024, 12.98003531674226, 0.0 ], [ 8.411793658640216, 12.980853804916361, 0.0 ], [ 8.411157991149505, 12.981450005445335, 0.0 ], [ 8.411513230312224, 12.982475485383763, 0.0 ], [ 8.411782180099143, 12.983437456440171, 0.0 ], [ 8.410951407189071, 12.983830557823092, 0.0 ], [ 8.410981266903278, 12.984915700886916, 0.0 ], [ 8.412056590157219, 12.984375596850303, 0.0 ], [ 8.412831051594029, 12.984120802592154, 0.0 ], [ 8.41294513020746, 12.978648915866628, 0.0 ], [ 8.4126225616584, 12.978951496283399, 0.0 ] ] ], [ [ [ 8.412447207004014, 12.974712785887663, 0.0 ], [ 8.412913484079391, 12.975154385757142, 0.0 ], [ 8.413015797242922, 12.97525930582804, 0.0 ], [ 8.413033332327888, 12.97441821917929, 0.0 ], [ 8.412447207004014, 12.974712785887663, 0.0 ] ] ], [ [ [ 8.416436124966026, 12.967564953574971, 0.0 ], [ 8.416247771548846, 12.967560782901352, 0.0 ], [ 8.415536798172424, 12.967573227713411, 0.0 ], [ 8.414858864833233, 12.968935998926463, 0.0 ], [ 8.412628355366593, 12.968886471066257, 0.0 ], [ 8.412651350595265, 12.97013796389178, 0.0 ], [ 8.412635713726187, 12.970816101644038, 0.0 ], [ 8.412651573996074, 12.971654316765401, 0.0 ], [ 8.413197085364464, 12.972171064586867, 0.0 ], [ 8.413267845483288, 12.9725307275197, 0.0 ], [ 8.416099378797789, 12.968877156575552, 0.0 ], [ 8.416436124966026, 12.967564953574971, 0.0 ] ] ], [ [ [ 8.425499183427673, 12.948555144618563, 0.0 ], [ 8.425470962366957, 12.948554516762437, 0.0 ], [ 8.423741920152972, 12.949917382006173, 0.0 ], [ 8.42375824060883, 12.950807788084918, 0.0 ], [ 8.424861085881775, 12.951851858753839, 0.0 ], [ 8.425130747490368, 12.952513939577615, 0.0 ], [ 8.423469041648941, 12.953476403497969, 0.0 ], [ 8.423195291675878, 12.954592667916794, 0.0 ], [ 8.423751954497106, 12.955657786162433, 0.0 ], [ 8.423186217536239, 12.95618847761159, 0.0 ], [ 8.422625721353421, 12.957022504323161, 0.0 ], [ 8.422645885088896, 12.958118755263186, 0.0 ], [ 8.423185999885517, 12.958629906621775, 0.0 ], [ 8.423455924997594, 12.959178342812937, 0.0 ], [ 8.423747435514889, 12.959737157364591, 0.0 ], [ 8.423729399542841, 12.960532648125783, 0.0 ], [ 8.423743776049044, 12.961328210548384, 0.0 ], [ 8.423484574182087, 12.961819604822139, 0.0 ], [ 8.424338785807349, 12.961600409613739, 0.0 ], [ 8.425499183427673, 12.948555144618563, 0.0 ] ] ] ] } },
{ "type": "Feature", "properties": { "Stra_Catch": "Hadejia-Jama'are", "State": "Jigawa", "LGA": "Kazaure", "Population": 200100, "Cleard_TOR": "No", "Status": "Not Yet Cleared", "Start_Date": "2024-12-20T00:00:00", "End_Date": "2024-03-01T00:00:00", "Micr_Catch": "Badori", "Size_Ha": 42220.940415999998, "Comments": null, "OBJECTID_1": 0, "Shape_Leng": 0.0, "Shape_Area": 0.0, "parent_strategic_name": "Hadejia", "clipped_to_state": true }, "geometry": { "type": "Polygon", "coordinates": [ [ [ 8.210543823382988, 12.586932711834733, 0.0 ], [ 8.201956176012249, 12.58806728780403, 0.0 ], [ 8.19804382357006, 12.591099378267455, 0.0 ], [ 8.187500000121888, 12.591666666478062, 0.0 ], [ 8.180908881063701, 12.591313340729437, 0.0 ], [ 8.177424451511422, 12.587853325783653, 0.0 ], [ 8.168408881366863, 12.587146674076489, 0.0 ], [ 8.160417005263382, 12.579180229474257, 0.0 ], [ 8.154524738818202, 12.585042995505001, 0.0 ], [ 8.154166665731825, 12.587500000540674, 0.0 ], [ 8.153813340678315, 12.598257784897099, 0.0 ], [ 8.148287794353815, 12.603810966761761, 0.0 ], [ 8.139242214521973, 12.60451999199997, 0.0 ], [ 8.133691406042265, 12.610042995176071, 0.0 ], [ 8.133333333240435, 12.612499999652579, 0.0 ], [ 8.133636839178656, 12.618161760467036, 0.0 ], [ 8.133655407073769, 12.618218558880603, 0.0 ], [ 8.133936106264393, 12.618485431901853, 0.0 ], [ 8.13400392783803, 12.619410626881118, 0.0 ], [ 8.137146674615485, 12.622575547448641, 0.0 ], [ 8.137366234904601, 12.623861935250192, 0.0 ], [ 8.138207612799416, 12.624266204536527, 0.0 ], [ 8.138884166390671, 12.623926662072826, 0.0 ], [ 8.140006062026446, 12.623664316262186, 0.0 ], [ 8.140634578268457, 12.624947150233767, 0.0 ], [ 8.139790355739311, 12.625738611662944, 0.0 ], [ 8.140261530396938, 12.626643716040247, 0.0 ], [ 8.140526839044664, 12.62829333162969, 0.0 ], [ 8.139690180991295, 12.629077663964306, 0.0 ], [ 8.139053588879042, 12.629724095012548, 0.0 ], [ 8.137206017990287, 12.630160249887275, 0.0 ], [ 8.136933362579967, 12.63070718882415, 0.0 ], [ 8.136368362428696, 12.63123702122963, 0.0 ], [ 8.135600754680612, 12.63201626500897, 0.0 ], [ 8.133610033207782, 12.633622802523327, 0.0 ], [ 8.133325232835677, 12.63584944719047, 0.0 ], [ 8.132901468303974, 12.636247013749427, 0.0 ], [ 8.132483005881669, 12.63667161616201, 0.0 ], [ 8.132493831865085, 12.637300796190944, 0.0 ], [ 8.134041051111559, 12.63779933981583, 0.0 ], [ 8.134415562442342, 12.638571158814731, 0.0 ], [ 8.133727753676265, 12.638555150450763, 0.0 ], [ 8.132899034102055, 12.638569145586766, 0.0 ], [ 8.131932325715901, 12.638546661908288, 0.0 ], [ 8.130951458709866, 12.63856306984524, 0.0 ], [ 8.130457159065868, 12.639555108996747, 0.0 ], [ 8.130825535220259, 12.639904921511894, 0.0 ], [ 8.131094422067092, 12.640480108023423, 0.0 ], [ 8.130505294178526, 12.641593692535926, 0.0 ], [ 8.130539616322841, 12.643568654544859, 0.0 ], [ 8.130520138861373, 12.644382372204847, 0.0 ], [ 8.130532308001168, 12.645091027216422, 0.0 ], [ 8.131082814268744, 12.646148194713769, 0.0 ], [ 8.130221171318231, 12.646955720679644, 0.0 ], [ 8.130249652235035, 12.648583375479701, 0.0 ], [ 8.129961171919643, 12.648853693884428, 0.0 ], [ 8.129686641217077, 12.649943136821776, 0.0 ], [ 8.129174624881015, 12.650423056292125, 0.0 ], [ 8.12739035579491, 12.650758942188766, 0.0 ], [ 8.126357787001545, 12.650734895093402, 0.0 ], [ 8.126372710914172, 12.651581571766078, 0.0 ], [ 8.126916953915313, 12.652098855942867, 0.0 ], [ 8.127462078491918, 12.652674951185661, 0.0 ], [ 8.126906026369069, 12.653726380034886, 0.0 ], [ 8.126632398848004, 12.654544561336126, 0.0 ], [ 8.126205822781079, 12.655755884598058, 0.0 ], [ 8.125755831847913, 12.657979585515269, 0.0 ], [ 8.126065168831937, 12.658877559621072, 0.0 ], [ 8.126343371813174, 12.659729338803514, 0.0 ], [ 8.126322033977042, 12.660608743692402, 0.0 ], [ 8.125224293882598, 12.660235788495742, 0.0 ], [ 8.125129219951837, 12.666494063657341, 0.0 ], [ 8.125976746396285, 12.667730561731824, 0.0 ], [ 8.125104176697043, 12.668142544772978, 0.0 ], [ 8.125095615276257, 12.668706103328228, 0.0 ], [ 8.125456853378854, 12.669400119783036, 0.0 ], [ 8.125077670603984, 12.669887317735395, 0.0 ], [ 8.125027569983573, 12.673185208816513, 0.0 ], [ 8.125286848671117, 12.673683553229054, 0.0 ], [ 8.125003743937365, 12.674753566745828, 0.0 ], [ 8.12500000019315, 12.675000000034588, 0.0 ], [ 8.127424452005984, 12.675353325248169, 0.0 ], [ 8.130314721541803, 12.678237624054264, 0.0 ], [ 8.13068969292995, 12.678428712646429, 0.0 ], [ 8.131246714534573, 12.678696494624022, 0.0 ], [ 8.131515726896357, 12.679245191732178, 0.0 ], [ 8.132625281402566, 12.679514775551169, 0.0 ], [ 8.13296013449186, 12.680539715596709, 0.0 ], [ 8.134017654738734, 12.680880648277938, 0.0 ], [ 8.134704326800129, 12.681586729929597, 0.0 ], [ 8.135095268223559, 12.682783241477807, 0.0 ], [ 8.135213657962876, 12.683126440233973, 0.0 ], [ 8.135996529910805, 12.683907694922079, 0.0 ], [ 8.13651785937245, 12.684158206855034, 0.0 ], [ 8.13770302789877, 12.685376897922335, 0.0 ], [ 8.138404961364751, 12.686043814542733, 0.0 ], [ 8.138661260766513, 12.686566920966717, 0.0 ], [ 8.138969512440609, 12.686874535853342, 0.0 ], [ 8.139506406657505, 12.687132424460536, 0.0 ], [ 8.13951783233358, 12.687155726557041, 0.0 ], [ 8.144320372403321, 12.687313459845466, 0.0 ], [ 8.144434899132989, 12.687206090748528, 0.0 ], [ 8.144609252284292, 12.687322947735815, 0.0 ], [ 8.14943073366025, 12.687481303127226, 0.0 ], [ 8.149445982062325, 12.687435691715837, 0.0 ], [ 8.149745856361159, 12.687154530425659, 0.0 ], [ 8.150923723063865, 12.687181873492589, 0.0 ], [ 8.151660674087942, 12.686086468178138, 0.0 ], [ 8.15388212142323, 12.68578917764466, 0.0 ], [ 8.153859445624187, 12.684486045843638, 0.0 ], [ 8.155290227942086, 12.682757334564061, 0.0 ], [ 8.156382767677886, 12.683128225519727, 0.0 ], [ 8.156924552881842, 12.68311908347793, 0.0 ], [ 8.159172104350271, 12.683408591594432, 0.0 ], [ 8.160026438125994, 12.683844150516302, 0.0 ], [ 8.1604329, 12.6670566, 0.0 ], [ 8.1592308, 12.6656064, 0.0 ], [ 8.1584545, 12.6631687, 0.0 ], [ 8.1532426, 12.6554016, 0.0 ], [ 8.1821347, 12.6517827, 0.0 ], [ 8.1834605, 12.6352488, 0.0 ], [ 8.1852689, 12.6299364, 0.0 ], [ 8.1859182, 12.629855, 0.0 ], [ 8.186455, 12.6297179, 0.0 ], [ 8.1871288, 12.6297865, 0.0 ], [ 8.187757, 12.630152, 0.0 ], [ 8.1881225, 12.6287586, 0.0 ], [ 8.1889563, 12.6288842, 0.0 ], [ 8.1903954, 12.6287243, 0.0 ], [ 8.1912406, 12.6271938, 0.0 ], [ 8.1911949, 12.6262915, 0.0 ], [ 8.190983, 12.6255504, 0.0 ], [ 8.1903951, 12.6240094, 0.0 ], [ 8.1967654, 12.6228822, 0.0 ], [ 8.2035393, 12.6216297, 0.0 ], [ 8.2082454, 12.6196119, 0.0 ], [ 8.2199392, 12.6162719, 0.0 ], [ 8.2267131, 12.6135582, 0.0 ], [ 8.2304922, 12.6125145, 0.0 ], [ 8.2370132, 12.6089539, 0.0 ], [ 8.240168, 12.6048823, 0.0 ], [ 8.2461996, 12.5944157, 0.0 ], [ 8.236084, 12.5912059, 0.0 ], [ 8.2323549, 12.584922, 0.0 ], [ 8.2282763, 12.5847341, 0.0 ], [ 8.224837455968126, 12.582977189191352, 0.0 ], [ 8.214456176116952, 12.583900621043366, 0.0 ], [ 8.210543823382988, 12.586932711834733, 0.0 ] ] ] } },
{ "type": "Feature", "properties": { "Stra_Catch": "Sarkin-Powa-Kaduna", "State": "Kaduna", "LGA": "Kudan", "Population": 0, "Cleard_TOR": "Not Cleared", "Status": "Ongoing", "Start_Date": "1899-12-30T00:00:00", "End_Date": "1899-12-30T00:00:00", "Micr_Catch": "Kudan", "Size_Ha": 17056.239926800001, "Comments": null, "OBJECTID_1": 0, "Shape_Leng": 0.0, "Shape_Area": 0.0, "parent_strategic_name": "Hadejia", "clipped_to_state": true }, "geometry": { "type": "MultiPolygon", "coordinates": [ [ [ [ 7.734795900410552, 11.370617300448089, 0.0 ], [ 7.735167108877951, 11.370594802492246, 0.0 ], [ 7.7347959, 11.3706173, 0.0 ], [ 7.7336265, 11.3705754, 0.0 ], [ 7.733523099547657, 11.370594014448919, 0.0 ], [ 7.73352309963748, 11.370594014633653, 0.0 ], [ 7.733626500262837, 11.370575400134671, 0.0 ], [ 7.734795900410552, 11.370617300448089, 0.0 ] ] ], [ [ [ 7.736823699853948, 11.369777800405188, 0.0 ], [ 7.737254215615635, 11.369706118594658, 0.0 ], [ 7.7368237, 11.3697778, 0.0 ], [ 7.736452900247389, 11.370048099819662, 0.0 ], [ 7.73645290038113, 11.370048099740075, 0.0 ], [ 7.736823699853948, 11.369777800405188, 0.0 ] ] ], [ [ [ 7.737821899661047, 11.369395600226824, 0.0 ], [ 7.73782189966892, 11.369395600210204, 0.0 ], [ 7.7376603, 11.3694982, 0.0 ], [ 7.737578190634644, 11.369546498174934, 0.0 ], [ 7.737660299583217, 11.369498200281782, 0.0 ], [ 7.737821899661047, 11.369395600226824, 0.0 ] ] ] ] } }
]
}
