{
"type": "FeatureCollection",
"name": "Bauchi_state_boundary",
"crs": { "type": "name", "properties": { "name": "urn:ogc:def:crs:OGC:1.3:CRS84" } },
"features": [
{ "type": "Feature", "properties": { "state_code": "BA", "state_name": "Bauchi", "cap_city": "Bauchi", "geo_zone": "NEZ" }, "geometry": { "type": "Polygon", "coordinates": [ [ [ 8.8183184, 10.3804462 ], [ 8.8169228, 10.3803434 ], [ 8.8155443, 10.3804369 ], [ 8.8144985, 10.3801096 ], [ 8.8131199, 10.3797823 ], [ 8.8119315, 10.3802966 ], [ 8.8107348, 10.3807401 ], [ 8.8103069, 10.3812311 ], [ 8.8102356, 10.3820026 ], [ 8.8099861, 10.3826338 ], [ 8.8094869, 10.3834754 ], [ 8.8090514, 10.3844486 ], [ 8.8090948, 10.3854392 ], [ 8.8088938, 10.3862573 ], [ 8.8082748, 10.3868069 ], [ 8.8075974, 10.387368 ], [ 8.8069726, 10.3873661 ], [ 8.8058504, 10.3876485 ], [ 8.8053157, 10.3880693 ], [ 8.8056722, 10.3887356 ], [ 8.8061, 10.3892967 ], [ 8.8067417, 10.3894019 ], [ 8.8068844, 10.3897876 ], [ 8.8068844, 10.3903487 ], [ 8.8073478, 10.3908747 ], [ 8.8074191, 10.3913657 ], [ 8.8075974, 10.392067 ], [ 8.8069913, 10.3924527 ], [ 8.8065991, 10.3932242 ], [ 8.8062068, 10.3931864 ], [ 8.805387, 10.3931891 ], [ 8.8051018, 10.3928034 ], [ 8.8043531, 10.3930489 ], [ 8.803747, 10.3928385 ], [ 8.8033548, 10.3933294 ], [ 8.8028557, 10.3942412 ], [ 8.8022139, 10.3944516 ], [ 8.8016792, 10.3949776 ], [ 8.8010731, 10.3956438 ], [ 8.8002531, 10.3958542 ], [ 8.7998988, 10.3962278 ], [ 8.7993618, 10.3966257 ], [ 8.7990766, 10.3975024 ], [ 8.7982209, 10.3981686 ], [ 8.7978644, 10.398905 ], [ 8.7973611, 10.3987715 ], [ 8.7964383, 10.398905 ], [ 8.795547, 10.3993959 ], [ 8.7959392, 10.3998167 ], [ 8.7962244, 10.4002375 ], [ 8.7966522, 10.4003778 ], [ 8.7971514, 10.4009038 ], [ 8.798114, 10.4012194 ], [ 8.7983279, 10.4017103 ], [ 8.7976861, 10.4023415 ], [ 8.7969018, 10.4030428 ], [ 8.796367, 10.4025168 ], [ 8.795547, 10.4022012 ], [ 8.7944984, 10.4021857 ], [ 8.7936931, 10.4024116 ], [ 8.7936218, 10.4030078 ], [ 8.7942279, 10.4036039 ], [ 8.7937644, 10.4038143 ], [ 8.7930157, 10.4042351 ], [ 8.793087, 10.404761 ], [ 8.7935505, 10.4051818 ], [ 8.794121, 10.4057429 ], [ 8.7933366, 10.4060935 ], [ 8.7930157, 10.4067949 ], [ 8.7927305, 10.4076014 ], [ 8.7933723, 10.4078819 ], [ 8.793907, 10.408478 ], [ 8.7930862, 10.4107178 ], [ 8.782257, 10.4241601 ], [ 8.7780382, 10.4242186 ], [ 8.7765407, 10.4258924 ], [ 8.7751266, 10.426673 ], [ 8.7743034, 10.4269169 ], [ 8.7736933, 10.4270976 ], [ 8.7701948, 10.428134 ], [ 8.7672832, 10.4277249 ], [ 8.7650252, 10.4304131 ], [ 8.7649758, 10.4317265 ], [ 8.7625341, 10.4321263 ], [ 8.7615475, 10.4322878 ], [ 8.7575597, 10.4350022 ], [ 8.756975, 10.4357135 ], [ 8.7552209, 10.4391202 ], [ 8.7536166, 10.4396462 ], [ 8.7516229, 10.4401231 ], [ 8.7503245, 10.4404337 ], [ 8.7492195, 10.440698 ], [ 8.7493978, 10.4451975 ], [ 8.7528461, 10.454558 ], [ 8.758337, 10.4578626 ], [ 8.7617547, 10.4627048 ], [ 8.7639451, 10.4654313 ], [ 8.767081, 10.4683765 ], [ 8.7714919, 10.4725191 ], [ 8.7716449, 10.4726627 ], [ 8.7726529, 10.4740068 ], [ 8.7767493, 10.4794686 ], [ 8.7761097, 10.4962574 ], [ 8.7741624, 10.5010969 ], [ 8.77305, 10.5044621 ], [ 8.773012, 10.5101829 ], [ 8.7736632, 10.5137865 ], [ 8.774614, 10.5172217 ], [ 8.7752688, 10.5191147 ], [ 8.7821352, 10.5258843 ], [ 8.7819093, 10.5266742 ], [ 8.7828622, 10.5333263 ], [ 8.7842861, 10.543265 ], [ 8.7882724, 10.5533272 ], [ 8.7909801, 10.5601616 ], [ 8.7930802, 10.5654626 ], [ 8.7831768, 10.5969687 ], [ 8.7819053, 10.6010138 ], [ 8.8218802, 10.6722549 ], [ 8.8247466, 10.6752787 ], [ 8.8481753, 10.6799404 ], [ 8.852459, 10.6863298 ], [ 8.8544207, 10.6968803 ], [ 8.8548286, 10.7022563 ], [ 8.8552189, 10.7074003 ], [ 8.8512783, 10.7200899 ], [ 8.8464594, 10.7245903 ], [ 8.8379841, 10.7336397 ], [ 8.8341665, 10.7428398 ], [ 8.8320837, 10.7495388 ], [ 8.8311827, 10.7528238 ], [ 8.8308548, 10.7535677 ], [ 8.8289804, 10.7578201 ], [ 8.8215895, 10.7692404 ], [ 8.8156042, 10.7736998 ], [ 8.8072109, 10.7804203 ], [ 8.7976532, 10.7870998 ], [ 8.7921696, 10.7913713 ], [ 8.791317, 10.7920356 ], [ 8.7856445, 10.7972002 ], [ 8.779417, 10.80865 ], [ 8.776845, 10.8155603 ], [ 8.774354, 10.8201399 ], [ 8.769371, 10.8292999 ], [ 8.7678814, 10.8385801 ], [ 8.7663097, 10.8501797 ], [ 8.7661695, 10.8511366 ], [ 8.7457867, 10.857211 ], [ 8.7450736, 10.8594519 ], [ 8.7454302, 10.8618328 ], [ 8.7471415, 10.8635834 ], [ 8.7489415, 10.8643947 ], [ 8.7496986, 10.8656419 ], [ 8.7501362, 10.8668746 ], [ 8.7496512, 10.869854 ], [ 8.7493541, 10.876127 ], [ 8.7499483, 10.8856091 ], [ 8.7523251, 10.8966955 ], [ 8.7539591, 10.903989 ], [ 8.7560388, 10.9076357 ], [ 8.7576729, 10.9162417 ], [ 8.759604, 10.9235347 ], [ 8.7624265, 10.9245557 ], [ 8.7652489, 10.9265977 ], [ 8.7671801, 10.9300982 ], [ 8.7679228, 10.9363699 ], [ 8.7667174, 10.9417247 ], [ 8.7707475, 10.9418211 ], [ 8.7732706, 10.938266 ], [ 8.7772815, 10.9368075 ], [ 8.7886972, 10.9422503 ], [ 8.7897072, 10.9476805 ], [ 8.7882586, 10.9557896 ], [ 8.787074, 10.96322 ], [ 8.7865464, 10.9640241 ], [ 8.7841148, 10.9743099 ], [ 8.7848612, 10.9855788 ], [ 8.7868221, 10.9938617 ], [ 8.7829004, 10.9998112 ], [ 8.7798105, 11.011535 ], [ 8.7803753, 11.0192603 ], [ 8.781712, 11.025008 ], [ 8.7823955, 11.0276589 ], [ 8.7842445, 11.0372496 ], [ 8.7860649, 11.0428542 ], [ 8.7868453, 11.0452569 ], [ 8.7875558, 11.0474446 ], [ 8.7884541, 11.05021 ], [ 8.7919628, 11.0555351 ], [ 8.7938127, 11.0614994 ], [ 8.7918638, 11.0642052 ], [ 8.7904377, 11.0682173 ], [ 8.7942457, 11.0687565 ], [ 8.7933605, 11.0746621 ], [ 8.7931001, 11.0766703 ], [ 8.7926446, 11.0819793 ], [ 8.7926891, 11.0829005 ], [ 8.7940095, 11.0832883 ], [ 8.795526, 11.0836798 ], [ 8.7977107, 11.0779673 ], [ 8.7984664, 11.0744871 ], [ 8.8007463, 11.0742228 ], [ 8.8014364, 11.0742228 ], [ 8.8023538, 11.0743124 ], [ 8.8044176, 11.0791258 ], [ 8.8129181, 11.0918492 ], [ 8.811894, 11.0971261 ], [ 8.8098343, 11.0984964 ], [ 8.8050569, 11.1001057 ], [ 8.8052708, 11.1036742 ], [ 8.8086934, 11.104094 ], [ 8.8106721, 11.1032894 ], [ 8.8111712, 11.1027296 ], [ 8.8116703, 11.1019599 ], [ 8.8123834, 11.1009454 ], [ 8.8133816, 11.0998958 ], [ 8.8142016, 11.0991262 ], [ 8.8157947, 11.0987942 ], [ 8.8171964, 11.0977267 ], [ 8.8177668, 11.0968521 ], [ 8.8190503, 11.0964673 ], [ 8.8207614, 11.0964507 ], [ 8.8225442, 11.0966772 ], [ 8.8245763, 11.0958375 ], [ 8.8273465, 11.096387 ], [ 8.8326349, 11.0976115 ], [ 8.836716, 11.0984461 ], [ 8.8456338, 11.1008296 ], [ 8.8559811, 11.0993514 ], [ 8.8561807, 11.0984837 ], [ 8.8688515, 11.1025373 ], [ 8.8727447, 11.1066422 ], [ 8.8764168, 11.1098957 ], [ 8.8795305, 11.1109436 ], [ 8.8814129, 11.112119 ], [ 8.8826679, 11.1123429 ], [ 8.8832288, 11.1118765 ], [ 8.8837517, 11.1109902 ], [ 8.8848925, 11.1109436 ], [ 8.8864137, 11.1120164 ], [ 8.8876496, 11.1135557 ], [ 8.8885528, 11.1143486 ], [ 8.8889331, 11.1143486 ], [ 8.8910247, 11.1161678 ], [ 8.8933539, 11.117054 ], [ 8.8936392, 11.1194328 ], [ 8.8940194, 11.1213919 ], [ 8.8949297, 11.1228619 ], [ 8.8969191, 11.1244236 ], [ 8.8984467, 11.1264525 ], [ 8.8984848, 11.1286032 ], [ 8.8998781, 11.1308533 ], [ 8.9011498, 11.13142 ], [ 8.9016225, 11.1336704 ], [ 8.9009977, 11.1353752 ], [ 8.902148, 11.1369595 ], [ 8.9033365, 11.1376139 ], [ 8.9048769, 11.1386194 ], [ 8.9055432, 11.1396492 ], [ 8.9059773, 11.1398915 ], [ 8.9068658, 11.1407799 ], [ 8.9080711, 11.1422033 ], [ 8.9097824, 11.1435466 ], [ 8.9101874, 11.1454645 ], [ 8.9106999, 11.1461754 ], [ 8.9111263, 11.1464236 ], [ 8.911689, 11.1464424 ], [ 8.91195, 11.1465128 ], [ 8.912247, 11.1466861 ], [ 8.9123479, 11.1473423 ], [ 8.9123378, 11.1478067 ], [ 8.9125208, 11.1480789 ], [ 8.9131354, 11.1497654 ], [ 8.9129941, 11.1503206 ], [ 8.9129638, 11.1508355 ], [ 8.9131817, 11.1513376 ], [ 8.9137553, 11.1515087 ], [ 8.9141248, 11.1517442 ], [ 8.9142514, 11.1519097 ], [ 8.9143873, 11.1520875 ], [ 8.9146094, 11.1523399 ], [ 8.914771, 11.1525721 ], [ 8.9148517, 11.1527538 ], [ 8.9147508, 11.1530567 ], [ 8.9142926, 11.1534867 ], [ 8.9145287, 11.1537937 ], [ 8.9146629, 11.1541965 ], [ 8.9146692, 11.1543985 ], [ 8.9148719, 11.1545408 ], [ 8.9155282, 11.1546014 ], [ 8.9159394, 11.1548522 ], [ 8.9174603, 11.1563444 ], [ 8.9185901, 11.1576234 ], [ 8.9195431, 11.1585373 ], [ 8.9196978, 11.158771 ], [ 8.9195565, 11.1589931 ], [ 8.9189204, 11.1590335 ], [ 8.9183349, 11.1593667 ], [ 8.9179613, 11.1597099 ], [ 8.9179916, 11.1600936 ], [ 8.918244, 11.1605075 ], [ 8.9188845, 11.1611713 ], [ 8.918456, 11.1617191 ], [ 8.918195, 11.1621385 ], [ 8.9181733, 11.1621734 ], [ 8.9181127, 11.1628498 ], [ 8.9182743, 11.1633445 ], [ 8.9186771, 11.1637625 ], [ 8.9195363, 11.1650305 ], [ 8.9201545, 11.1666614 ], [ 8.9204587, 11.1676846 ], [ 8.9201111, 11.1686651 ], [ 8.9194158, 11.1693472 ], [ 8.9191877, 11.1702504 ], [ 8.9202849, 11.1710951 ], [ 8.9210236, 11.1722035 ], [ 8.9209367, 11.1738235 ], [ 8.9198938, 11.1774897 ], [ 8.9226314, 11.1788538 ], [ 8.9243261, 11.1800475 ], [ 8.9257601, 11.1802606 ], [ 8.9278355, 11.1819262 ], [ 8.9326159, 11.1857624 ], [ 8.9349724, 11.1885733 ], [ 8.9381582, 11.19021 ], [ 8.9402384, 11.1918793 ], [ 8.9418382, 11.1911736 ], [ 8.9433591, 11.1916425 ], [ 8.9446628, 11.1932198 ], [ 8.9464444, 11.1939444 ], [ 8.948704, 11.1943707 ], [ 8.9491386, 11.1934329 ], [ 8.9488344, 11.1921967 ], [ 8.9503988, 11.1919409 ], [ 8.9517893, 11.1921114 ], [ 8.9526584, 11.1924951 ], [ 8.9527887, 11.193646 ], [ 8.9522238, 11.1941149 ], [ 8.9523542, 11.195138 ], [ 8.9532233, 11.1956922 ], [ 8.953962, 11.1973546 ], [ 8.9547876, 11.1987613 ], [ 8.955874, 11.2002959 ], [ 8.9576122, 11.2013616 ], [ 8.9595242, 11.2014468 ], [ 8.9613058, 11.202001 ], [ 8.9632613, 11.2023846 ], [ 8.9641777, 11.2033171 ], [ 8.9653725, 11.2045329 ], [ 8.9667829, 11.205968 ], [ 8.9668245, 11.207926 ], [ 8.9675198, 11.2083096 ], [ 8.9688234, 11.2087359 ], [ 8.9703443, 11.208608 ], [ 8.9718982, 11.2102401 ], [ 8.9736401, 11.2120697 ], [ 8.9732558, 11.213723 ], [ 8.9740379, 11.2158542 ], [ 8.9749939, 11.217474 ], [ 8.9766945, 11.2193443 ], [ 8.9778619, 11.2206281 ], [ 8.9798174, 11.2216937 ], [ 8.9813383, 11.2214806 ], [ 8.9822943, 11.2208413 ], [ 8.9834241, 11.2205429 ], [ 8.9842063, 11.2208839 ], [ 8.984467, 11.2223331 ], [ 8.9847277, 11.2237823 ], [ 8.9852492, 11.2246774 ], [ 8.9868135, 11.2251036 ], [ 8.9882041, 11.2249331 ], [ 8.9897684, 11.2248052 ], [ 8.9918977, 11.2259134 ], [ 8.9937662, 11.2268511 ], [ 8.9956348, 11.2274905 ], [ 8.9955044, 11.2293233 ], [ 8.9956348, 11.2309429 ], [ 8.9957651, 11.2329461 ], [ 8.9965039, 11.2332871 ], [ 8.9978509, 11.233415 ], [ 8.9988504, 11.234651 ], [ 8.9998498, 11.2359297 ], [ 9.0003131, 11.2400838 ], [ 9.0026719, 11.2423674 ], [ 9.0035869, 11.2442834 ], [ 9.0056464, 11.2452469 ], [ 9.0080193, 11.2465422 ], [ 9.0093208, 11.2488043 ], [ 9.0099747, 11.2508468 ], [ 9.0122057, 11.251597 ], [ 9.0140648, 11.2533969 ], [ 9.0150154, 11.2554923 ], [ 9.0172853, 11.2565146 ], [ 9.0193869, 11.2577422 ], [ 9.0186257, 11.2590026 ], [ 9.0182312, 11.2596558 ], [ 9.018971, 11.2621129 ], [ 9.0187333, 11.2652597 ], [ 9.0214072, 11.2695138 ], [ 9.0266956, 11.2771476 ], [ 9.0286543, 11.2776182 ], [ 9.0318651, 11.277439 ], [ 9.0347767, 11.2769145 ], [ 9.0378071, 11.27808 ], [ 9.0403028, 11.2802943 ], [ 9.0420259, 11.2831496 ], [ 9.0448187, 11.2859467 ], [ 9.0475818, 11.2862753 ], [ 9.0511172, 11.2872869 ], [ 9.0536722, 11.2885688 ], [ 9.0558281, 11.2909144 ], [ 9.0625852, 11.2929974 ], [ 9.0655417, 11.2963789 ], [ 9.068737, 11.2977957 ], [ 9.0700463, 11.2996019 ], [ 9.0725412, 11.3017022 ], [ 9.074022, 11.3041562 ], [ 9.0752854, 11.3062498 ], [ 9.0773974, 11.3067966 ], [ 9.0799693, 11.3074626 ], [ 9.0819918, 11.309324 ], [ 9.0825131, 11.3106021 ], [ 9.08299, 11.3117712 ], [ 9.0831326, 11.3138687 ], [ 9.0849152, 11.3149175 ], [ 9.088623, 11.3142183 ], [ 9.0918317, 11.3132395 ], [ 9.0958247, 11.3116313 ], [ 9.0992473, 11.3104427 ], [ 9.1005308, 11.308415 ], [ 9.1018143, 11.3068069 ], [ 9.1068769, 11.3102329 ], [ 9.1112264, 11.3143581 ], [ 9.1148629, 11.3169451 ], [ 9.1162034, 11.318886 ], [ 9.1164316, 11.3218393 ], [ 9.1178577, 11.3238669 ], [ 9.1206385, 11.3247058 ], [ 9.1235794, 11.3263052 ], [ 9.1240754, 11.3277234 ], [ 9.1264286, 11.3278546 ], [ 9.1286959, 11.3274996 ], [ 9.1295767, 11.3289536 ], [ 9.1302393, 11.3288097 ], [ 9.1422262, 11.3262063 ], [ 9.1415306, 11.3241437 ], [ 9.1403897, 11.3231369 ], [ 9.1403327, 11.3215708 ], [ 9.1413024, 11.3202843 ], [ 9.1414165, 11.318886 ], [ 9.1411313, 11.3175436 ], [ 9.1415306, 11.316369 ], [ 9.1429566, 11.3156418 ], [ 9.1614368, 11.3145925 ], [ 9.1694936, 11.3081632 ], [ 9.174776, 11.3062596 ], [ 9.1787402, 11.308501 ], [ 9.1787969, 11.3084323 ], [ 9.1804263, 11.3085237 ], [ 9.180609, 11.3089501 ], [ 9.1818425, 11.3096963 ], [ 9.1813762, 11.3104722 ], [ 9.1823953, 11.3110527 ], [ 9.178146, 11.3183151 ], [ 9.179179, 11.3192216 ], [ 9.1867658, 11.320564 ], [ 9.1887017, 11.3228929 ], [ 9.1946377, 11.3266047 ], [ 9.1949717, 11.3266488 ], [ 9.2024164, 11.3276308 ], [ 9.2114148, 11.3288178 ], [ 9.2302897, 11.3351622 ], [ 9.2381616, 11.3372316 ], [ 9.2541761, 11.3403831 ], [ 9.2627991, 11.3424968 ], [ 9.2665354, 11.3434126 ], [ 9.2871232, 11.3493948 ], [ 9.2893657, 11.3488283 ], [ 9.290244, 11.3484951 ], [ 9.2910218, 11.3482001 ], [ 9.2925637, 11.3457445 ], [ 9.293249, 11.3419183 ], [ 9.294334, 11.3394056 ], [ 9.2977033, 11.3382064 ], [ 9.3037567, 11.3377495 ], [ 9.3046212, 11.3385525 ], [ 9.3085184, 11.3421726 ], [ 9.311731, 11.3447196 ], [ 9.312807, 11.3452876 ], [ 9.3130264, 11.345539 ], [ 9.313638, 11.3462398 ], [ 9.3143863, 11.3463454 ], [ 9.3148283, 11.345884 ], [ 9.3148764, 11.3454232 ], [ 9.3150137, 11.3441083 ], [ 9.3162881, 11.3432474 ], [ 9.3167845, 11.3433343 ], [ 9.3176191, 11.3434805 ], [ 9.3182846, 11.3431076 ], [ 9.3192829, 11.3426881 ], [ 9.3200148, 11.3416322 ], [ 9.3208515, 11.3402179 ], [ 9.3219924, 11.339379 ], [ 9.3233234, 11.339612 ], [ 9.3239414, 11.3409637 ], [ 9.3237512, 11.3426881 ], [ 9.323161, 11.3436945 ], [ 9.3234265, 11.3435151 ], [ 9.3247575, 11.3437481 ], [ 9.325423, 11.3433753 ], [ 9.3264212, 11.3429558 ], [ 9.3271532, 11.3418999 ], [ 9.3279899, 11.3404856 ], [ 9.3291308, 11.3396467 ], [ 9.3304618, 11.3398797 ], [ 9.3310798, 11.3412313 ], [ 9.3308896, 11.3429558 ], [ 9.3298534, 11.3447225 ], [ 9.3301242, 11.3448394 ], [ 9.3322697, 11.3437557 ], [ 9.3338384, 11.3427071 ], [ 9.3345514, 11.3415186 ], [ 9.3354784, 11.3404699 ], [ 9.3370471, 11.3413787 ], [ 9.3369044, 11.3428469 ], [ 9.3374749, 11.3444548 ], [ 9.3377668, 11.3448524 ], [ 9.3394081, 11.3440234 ], [ 9.3409768, 11.3429747 ], [ 9.3416898, 11.3417863 ], [ 9.3426168, 11.3407376 ], [ 9.3441854, 11.3416464 ], [ 9.3440428, 11.3431146 ], [ 9.3446133, 11.3447225 ], [ 9.3458967, 11.3464703 ], [ 9.3461443, 11.3467461 ], [ 9.3513605, 11.3431974 ], [ 9.3638188, 11.3385637 ], [ 9.37957, 11.3312679 ], [ 9.3837115, 11.3268665 ], [ 9.3849865, 11.3259498 ], [ 9.3919908, 11.3209132 ], [ 9.3979723, 11.3166121 ], [ 9.4051027, 11.3082219 ], [ 9.4078554, 11.3048997 ], [ 9.4081925, 11.3044928 ], [ 9.4116395, 11.2999958 ], [ 9.4211777, 11.2988376 ], [ 9.4262392, 11.295044 ], [ 9.4324769, 11.2948561 ], [ 9.4361847, 11.2946463 ], [ 9.4409621, 11.2932479 ], [ 9.4438856, 11.2914998 ], [ 9.4452403, 11.29129 ], [ 9.4464525, 11.2900314 ], [ 9.447736, 11.288493 ], [ 9.4490908, 11.2873742 ], [ 9.4528774, 11.2861235 ], [ 9.4640646, 11.2815005 ], [ 9.465562, 11.2820599 ], [ 9.466734, 11.283615 ], [ 9.471203, 11.2817682 ], [ 9.4727003, 11.2823276 ], [ 9.4739125, 11.2839359 ], [ 9.4753386, 11.2845652 ], [ 9.4753158, 11.2861399 ], [ 9.4785043, 11.2865056 ], [ 9.478766, 11.2865015 ], [ 9.4837217, 11.284194 ], [ 9.4898181, 11.2819563 ], [ 9.4975194, 11.2780857 ], [ 9.4993372, 11.2801033 ], [ 9.4996365, 11.2808771 ], [ 9.4997294, 11.2811172 ], [ 9.5011911, 11.282236 ], [ 9.5016902, 11.2834598 ], [ 9.5021894, 11.2848233 ], [ 9.5034728, 11.2853827 ], [ 9.5041146, 11.2862218 ], [ 9.5042215, 11.2872008 ], [ 9.5046494, 11.2877252 ], [ 9.5051128, 11.2893334 ], [ 9.5057546, 11.2898579 ], [ 9.505612, 11.2911165 ], [ 9.504685, 11.2926548 ], [ 9.5049702, 11.2938435 ], [ 9.5052198, 11.2953818 ], [ 9.5059685, 11.2971299 ], [ 9.5068241, 11.2973746 ], [ 9.5077154, 11.2976543 ], [ 9.5079538, 11.2997843 ], [ 9.507858, 11.3008008 ], [ 9.5075015, 11.3019545 ], [ 9.5080006, 11.3027936 ], [ 9.508322, 11.3050659 ], [ 9.5101398, 11.3060449 ], [ 9.5114232, 11.3078977 ], [ 9.5113519, 11.3096807 ], [ 9.5109597, 11.3113587 ], [ 9.5117441, 11.311988 ], [ 9.5117937, 11.3131306 ], [ 9.5144609, 11.3138683 ], [ 9.5162784, 11.314371 ], [ 9.5202612, 11.3153879 ], [ 9.5255552, 11.3164832 ], [ 9.5277424, 11.3166321 ], [ 9.5378782, 11.317322 ], [ 9.5387356, 11.3171622 ], [ 9.540934, 11.3167524 ], [ 9.5417034, 11.3164524 ], [ 9.5448674, 11.3165702 ], [ 9.5590331, 11.3169297 ], [ 9.5591042, 11.3154671 ], [ 9.5908933, 11.3158827 ], [ 9.5925554, 11.3159044 ], [ 9.609397, 11.3154679 ], [ 9.6096424, 11.3091302 ], [ 9.6072738, 11.3025983 ], [ 9.6016408, 11.2982632 ], [ 9.5984322, 11.292949 ], [ 9.5969848, 11.2688646 ], [ 9.5948197, 11.2620578 ], [ 9.5935362, 11.2571626 ], [ 9.594582, 11.2511017 ], [ 9.5956241, 11.2475706 ], [ 9.5967208, 11.2469797 ], [ 9.5989599, 11.2457732 ], [ 9.6006559, 11.2448594 ], [ 9.6033577, 11.2434036 ], [ 9.614066, 11.2404407 ], [ 9.6154265, 11.2402502 ], [ 9.6182137, 11.2398605 ], [ 9.6250589, 11.2370779 ], [ 9.6259234, 11.2367264 ], [ 9.6301134, 11.2360426 ], [ 9.6375245, 11.234833 ], [ 9.637806, 11.234787 ], [ 9.6460356, 11.2341964 ], [ 9.6475509, 11.2340876 ], [ 9.6524797, 11.2318559 ], [ 9.6620059, 11.2284429 ], [ 9.6633179, 11.2291982 ], [ 9.6640309, 11.2299676 ], [ 9.6656709, 11.2298277 ], [ 9.6658713, 11.2309977 ], [ 9.6675961, 11.2314363 ], [ 9.6686657, 11.2310166 ], [ 9.6688796, 11.2301074 ], [ 9.6695926, 11.2287087 ], [ 9.6705196, 11.2273099 ], [ 9.6708761, 11.2258412 ], [ 9.6705909, 11.2245123 ], [ 9.6724448, 11.2229736 ], [ 9.6742987, 11.2221343 ], [ 9.6761526, 11.2221343 ], [ 9.67765, 11.221295 ], [ 9.6795551, 11.2219784 ], [ 9.6826412, 11.2218546 ], [ 9.6840673, 11.2219245 ], [ 9.6848517, 11.2229736 ], [ 9.6846377, 11.2240927 ], [ 9.6852082, 11.2243724 ], [ 9.6864916, 11.2232534 ], [ 9.6879457, 11.2238454 ], [ 9.6892725, 11.2246522 ], [ 9.6895577, 11.2258412 ], [ 9.6910907, 11.2263718 ], [ 9.6926199, 11.2269011 ], [ 9.6939072, 11.22717 ], [ 9.6949055, 11.2262608 ], [ 9.6959326, 11.2267049 ], [ 9.6959751, 11.2276596 ], [ 9.6966168, 11.2287087 ], [ 9.6983538, 11.2292604 ], [ 9.6996829, 11.2289185 ], [ 9.701052, 11.2294419 ], [ 9.7011802, 11.2304571 ], [ 9.7005385, 11.2310166 ], [ 9.7016855, 11.2312698 ], [ 9.704175, 11.2315062 ], [ 9.7057437, 11.230667 ], [ 9.7074657, 11.2312667 ], [ 9.7091663, 11.2309467 ], [ 9.7101645, 11.2299676 ], [ 9.7118045, 11.2301074 ], [ 9.7131593, 11.2298976 ], [ 9.7137297, 11.2305271 ], [ 9.7139437, 11.231716 ], [ 9.7124463, 11.2315062 ], [ 9.7118045, 11.2323455 ], [ 9.7124932, 11.2330178 ], [ 9.7129517, 11.2341332 ], [ 9.7122324, 11.235143 ], [ 9.7131593, 11.2356325 ], [ 9.7143002, 11.2359822 ], [ 9.713801, 11.2366816 ], [ 9.713801, 11.2380104 ], [ 9.7141578, 11.2387738 ], [ 9.7148706, 11.2394791 ], [ 9.7152561, 11.2403658 ], [ 9.7157117, 11.2414136 ], [ 9.7152984, 11.2421366 ], [ 9.7152271, 11.2430458 ], [ 9.7157127, 11.2438829 ], [ 9.7155123, 11.2446543 ], [ 9.7161147, 11.2455427 ], [ 9.717081, 11.2462628 ], [ 9.7183645, 11.2467524 ], [ 9.7200758, 11.2469622 ], [ 9.7208601, 11.2475216 ], [ 9.7222862, 11.2468922 ], [ 9.7232845, 11.2462628 ], [ 9.7245679, 11.2459831 ], [ 9.7256375, 11.2459831 ], [ 9.7255662, 11.2468223 ], [ 9.7247818, 11.2475916 ], [ 9.7260085, 11.2484099 ], [ 9.7267071, 11.2493399 ], [ 9.7257801, 11.2501092 ], [ 9.7263505, 11.2508785 ], [ 9.7273047, 11.2512262 ], [ 9.7282044, 11.2510883 ], [ 9.7296305, 11.2501791 ], [ 9.7304149, 11.2493399 ], [ 9.7313418, 11.2490602 ], [ 9.7321469, 11.2498116 ], [ 9.7338052, 11.2502306 ], [ 9.7354043, 11.2492058 ], [ 9.7376147, 11.2484365 ], [ 9.7396184, 11.2482204 ], [ 9.7414651, 11.2486463 ], [ 9.7428199, 11.2492757 ], [ 9.7438895, 11.2485763 ], [ 9.7448163, 11.2484357 ], [ 9.7455294, 11.2475973 ], [ 9.7446025, 11.2472476 ], [ 9.7455294, 11.2461986 ], [ 9.7455294, 11.2449397 ], [ 9.7474546, 11.2452195 ], [ 9.7503794, 11.2453234 ], [ 9.7624938, 11.245754 ], [ 9.7642111, 11.2482267 ], [ 9.7652806, 11.2502548 ], [ 9.7671345, 11.2503946 ], [ 9.767705, 11.2522828 ], [ 9.7675624, 11.2533318 ], [ 9.7687745, 11.2543808 ], [ 9.7713415, 11.2557795 ], [ 9.7729815, 11.2559193 ], [ 9.7754771, 11.2564788 ], [ 9.7764753, 11.2570383 ], [ 9.7769032, 11.258367 ], [ 9.7785432, 11.2606048 ], [ 9.7791136, 11.2615838 ], [ 9.7811814, 11.2619335 ], [ 9.7828214, 11.2624929 ], [ 9.7848892, 11.2610244 ], [ 9.7873135, 11.2606048 ], [ 9.7888822, 11.2606747 ], [ 9.7899966, 11.2634124 ], [ 9.7920196, 11.263402 ], [ 9.7931605, 11.2653601 ], [ 9.7943013, 11.2666188 ], [ 9.7938735, 11.2688565 ], [ 9.7940874, 11.2703251 ], [ 9.7963691, 11.2722831 ], [ 9.7981517, 11.2732621 ], [ 9.8007187, 11.2744508 ], [ 9.8021938, 11.2738539 ], [ 9.803173, 11.2742801 ], [ 9.8044564, 11.2748388 ], [ 9.8057813, 11.276269 ], [ 9.808063, 11.2764088 ], [ 9.8092038, 11.2776675 ], [ 9.8108438, 11.2782968 ], [ 9.8118421, 11.2774577 ], [ 9.813696, 11.2770382 ], [ 9.8146638, 11.2779815 ], [ 9.8162629, 11.2785765 ], [ 9.817689, 11.2778074 ], [ 9.8198858, 11.2776439 ], [ 9.8226803, 11.2784367 ], [ 9.8249224, 11.2795559 ], [ 9.8249302, 11.2788296 ], [ 9.8255188, 11.2779951 ], [ 9.8261242, 11.2765398 ], [ 9.8261614, 11.2730904 ], [ 9.8285513, 11.2685099 ], [ 9.8297462, 11.2662201 ], [ 9.8297567, 11.2652529 ], [ 9.829771, 11.2639198 ], [ 9.8309774, 11.2604799 ], [ 9.8321733, 11.2581902 ], [ 9.8345871, 11.2513103 ], [ 9.836977, 11.2467299 ], [ 9.8381552, 11.2413047 ], [ 9.8385427, 11.2395203 ], [ 9.8387423, 11.2386011 ], [ 9.8397947, 11.2355534 ], [ 9.8407307, 11.2328429 ], [ 9.8418618, 11.2295675 ], [ 9.8485928, 11.2277161 ], [ 9.8517666, 11.220235 ], [ 9.8519039, 11.2198432 ], [ 9.8525009, 11.2181396 ], [ 9.8548918, 11.2135601 ], [ 9.8560867, 11.2112703 ], [ 9.8596716, 11.2044096 ], [ 9.8602224, 11.2028402 ], [ 9.8608789, 11.2009697 ], [ 9.8614706, 11.1982067 ], [ 9.8643191, 11.198301 ], [ 9.86628, 11.197893 ], [ 9.8679437, 11.1981844 ], [ 9.8702252, 11.1983605 ], [ 9.8719843, 11.1985924 ], [ 9.872564, 11.1981375 ], [ 9.8731133, 11.1975432 ], [ 9.8737669, 11.1965523 ], [ 9.8757277, 11.1971352 ], [ 9.8773321, 11.1965523 ], [ 9.8792335, 11.1966689 ], [ 9.8809567, 11.1961443 ], [ 9.8802587, 11.1949859 ], [ 9.8792485, 11.1945196 ], [ 9.8787137, 11.193995 ], [ 9.8787732, 11.1930624 ], [ 9.8787137, 11.1915468 ], [ 9.8787732, 11.1907308 ], [ 9.8782978, 11.1892735 ], [ 9.8777036, 11.188574 ], [ 9.8766935, 11.1884574 ], [ 9.875208, 11.188166 ], [ 9.8743167, 11.1874665 ], [ 9.8737819, 11.186767 ], [ 9.8741978, 11.1859509 ], [ 9.8749109, 11.1847268 ], [ 9.8756239, 11.1833278 ], [ 9.8762775, 11.1816956 ], [ 9.8768123, 11.1802966 ], [ 9.8774659, 11.1789559 ], [ 9.8776442, 11.1774986 ], [ 9.8780601, 11.1762161 ], [ 9.8782978, 11.1745256 ], [ 9.8787137, 11.1733598 ], [ 9.8790108, 11.1720773 ], [ 9.8799403, 11.1702668 ], [ 9.8799554, 11.1695058 ], [ 9.880269, 11.1677589 ], [ 9.8814098, 11.16608 ], [ 9.881695, 11.1652405 ], [ 9.8826648, 11.1638414 ], [ 9.8828929, 11.1621625 ], [ 9.88295, 11.1600918 ], [ 9.8832922, 11.1575734 ], [ 9.8836915, 11.1556706 ], [ 9.8839197, 11.1541595 ], [ 9.8836345, 11.1515851 ], [ 9.8833493, 11.1485629 ], [ 9.8833493, 11.1473317 ], [ 9.8827218, 11.1454847 ], [ 9.8822084, 11.1435819 ], [ 9.8812387, 11.1417909 ], [ 9.8799837, 11.1396641 ], [ 9.8792422, 11.1377052 ], [ 9.8785577, 11.1356343 ], [ 9.8781584, 11.1345709 ], [ 9.8780584, 11.1325273 ], [ 9.8788429, 11.130765 ], [ 9.8792422, 11.1299254 ], [ 9.8804401, 11.1279665 ], [ 9.8811246, 11.1255037 ], [ 9.8822655, 11.1224813 ], [ 9.8843411, 11.1181521 ], [ 9.8875019, 11.1134319 ], [ 9.8903487, 11.1065656 ], [ 9.8889891, 11.09395 ], [ 9.8551645, 11.07654 ], [ 9.8542436, 11.0727576 ], [ 9.8540421, 11.0719299 ], [ 9.852932, 11.0661602 ], [ 9.8591822, 11.0555475 ], [ 9.8543205, 11.0454502 ], [ 9.8543692, 11.0408401 ], [ 9.8544064, 11.0373898 ], [ 9.8556252, 11.0327997 ], [ 9.8568687, 11.0258999 ], [ 9.8578197, 11.0231904 ], [ 9.8580846, 11.0216546 ], [ 9.8593321, 11.0144196 ], [ 9.8609165, 11.0108873 ], [ 9.8629293, 11.0064001 ], [ 9.8688564, 10.9995699 ], [ 9.8699854, 10.9990854 ], [ 9.874032, 10.9973488 ], [ 9.8814961, 10.9892732 ], [ 9.8903933, 10.9910202 ], [ 9.9291534, 10.9915675 ], [ 9.9671146, 10.9708386 ], [ 9.9855266, 10.9582158 ], [ 10.0063127, 10.9556632 ], [ 10.0103256, 10.9700772 ], [ 10.0253638, 10.9729326 ], [ 10.0462119, 10.9659074 ], [ 10.0602809, 10.9700137 ], [ 10.088015, 10.9900409 ], [ 10.1012638, 10.9912274 ], [ 10.1116147, 10.9921543 ], [ 10.1119286, 10.9921824 ], [ 10.1112553, 10.9632835 ], [ 10.1112391, 10.9625897 ], [ 10.1140003, 10.9599304 ], [ 10.1175499, 10.9565201 ], [ 10.1199198, 10.9542398 ], [ 10.12463, 10.9519997 ], [ 10.1269798, 10.9508696 ], [ 10.1340399, 10.9475002 ], [ 10.1434202, 10.9464703 ], [ 10.1457596, 10.9464998 ], [ 10.1481199, 10.9453697 ], [ 10.1510906, 10.9472485 ], [ 10.1540001, 10.9462572 ], [ 10.1541586, 10.9462032 ], [ 10.1563196, 10.9443197 ], [ 10.156701, 10.9443241 ], [ 10.1633501, 10.9443998 ], [ 10.1657, 10.9432802 ], [ 10.1680403, 10.9433098 ], [ 10.1681653, 10.9432805 ], [ 10.17274, 10.9422102 ], [ 10.1750803, 10.9422398 ], [ 10.1785803, 10.9434404 ], [ 10.1820898, 10.9434795 ], [ 10.1867599, 10.9446898 ], [ 10.1890802, 10.9470196 ], [ 10.1911112, 10.9480488 ], [ 10.1914101, 10.9482002 ], [ 10.2081661, 10.946591 ], [ 10.2202974, 10.9467658 ], [ 10.2218202, 10.9528572 ], [ 10.2214228, 10.9533575 ], [ 10.2215133, 10.9537175 ], [ 10.2064609, 10.9727238 ], [ 10.204273, 10.9754863 ], [ 10.1953426, 10.9818487 ], [ 10.1845066, 10.985973 ], [ 10.1772291, 10.9873073 ], [ 10.1704206, 10.9885556 ], [ 10.1691036, 10.9887971 ], [ 10.1613184, 10.9977715 ], [ 10.1556294, 11.0056145 ], [ 10.1535949, 11.0136029 ], [ 10.157778, 11.0210685 ], [ 10.1617711, 11.0296537 ], [ 10.1587837, 11.0327189 ], [ 10.1610622, 11.0373069 ], [ 10.1617547, 11.040009 ], [ 10.1639532, 11.042925 ], [ 10.1665677, 11.0479405 ], [ 10.1678155, 11.0530141 ], [ 10.1688257, 11.0581461 ], [ 10.1698358, 11.0597206 ], [ 10.1716184, 11.0614701 ], [ 10.1748271, 11.0628114 ], [ 10.1761343, 11.0643859 ], [ 10.1772039, 11.0669517 ], [ 10.1788082, 11.070159 ], [ 10.1806502, 11.0719085 ], [ 10.183027, 11.0740661 ], [ 10.1848577, 11.0764769 ], [ 10.1874567, 11.0798314 ], [ 10.1892155, 11.0816973 ], [ 10.1933987, 11.0847762 ], [ 10.1965836, 11.0864089 ], [ 10.2006717, 11.0870154 ], [ 10.201155, 11.0873615 ], [ 10.2041893, 11.0895344 ], [ 10.206994, 11.0904673 ], [ 10.2098461, 11.0922866 ], [ 10.2138391, 11.0931263 ], [ 10.2184977, 11.0946656 ], [ 10.222871, 11.0950388 ], [ 10.2262936, 11.0943391 ], [ 10.2279573, 11.0931729 ], [ 10.2300489, 11.0914936 ], [ 10.2313799, 11.0895344 ], [ 10.2322008, 11.0893218 ], [ 10.2334995, 11.0889854 ], [ 10.2352303, 11.0882282 ], [ 10.2371317, 11.0861757 ], [ 10.2377525, 11.0856342 ], [ 10.2401265, 11.0835633 ], [ 10.243454, 11.0814175 ], [ 10.2458308, 11.0799247 ], [ 10.248065, 11.0793182 ], [ 10.2506795, 11.081744 ], [ 10.2538644, 11.0823038 ], [ 10.2580476, 11.0830968 ], [ 10.2637519, 11.0865489 ], [ 10.2666516, 11.0870154 ], [ 10.2695513, 11.087995 ], [ 10.270502, 11.0896277 ], [ 10.2714527, 11.0928464 ], [ 10.2717379, 11.0940126 ], [ 10.2712054, 11.0954429 ], [ 10.2708347, 11.0964383 ], [ 10.270502, 11.0981642 ], [ 10.2744333, 11.1015249 ], [ 10.2756834, 11.1052078 ], [ 10.2773472, 11.1071203 ], [ 10.279106, 11.1073069 ], [ 10.2809124, 11.1062807 ], [ 10.2813499, 11.1058053 ], [ 10.2822434, 11.1048346 ], [ 10.2852381, 11.1041349 ], [ 10.2856897, 11.1068357 ], [ 10.2866167, 11.1078853 ], [ 10.2869383, 11.1097906 ], [ 10.2880427, 11.1106653 ], [ 10.2885415, 11.1136015 ], [ 10.289041, 11.1165425 ], [ 10.2895639, 11.1186415 ], [ 10.2901343, 11.1207405 ], [ 10.2916555, 11.1223263 ], [ 10.2943175, 11.1226528 ], [ 10.2971696, 11.12172 ], [ 10.2998792, 11.1201807 ], [ 10.3000375, 11.120169 ], [ 10.3023986, 11.1199942 ], [ 10.3057272, 11.1215046 ], [ 10.3059686, 11.1216142 ], [ 10.3068257, 11.1220031 ], [ 10.3070957, 11.1222684 ], [ 10.3088635, 11.1240055 ], [ 10.3108125, 11.1272704 ], [ 10.3118583, 11.1290895 ], [ 10.313522, 11.1305354 ], [ 10.3167069, 11.1304421 ], [ 10.3202246, 11.1281567 ], [ 10.3235046, 11.1259645 ], [ 10.3258443, 11.1248342 ], [ 10.3298582, 11.1257531 ], [ 10.3310628, 11.1244253 ], [ 10.3318709, 11.1217666 ], [ 10.3311578, 11.1187348 ], [ 10.3323462, 11.1174288 ], [ 10.33401, 11.1180818 ], [ 10.3355312, 11.1204606 ], [ 10.3373375, 11.1249383 ], [ 10.3382407, 11.1276902 ], [ 10.3384784, 11.1306287 ], [ 10.3364638, 11.1375218 ], [ 10.3357601, 11.1399298 ], [ 10.3357201, 11.1433802 ], [ 10.3380203, 11.1480103 ], [ 10.33916, 11.1503296 ], [ 10.3403101, 11.1526499 ], [ 10.3437901, 11.1561403 ], [ 10.3460903, 11.1596298 ], [ 10.3464441, 11.1628456 ], [ 10.3495166, 11.1655484 ], [ 10.3507004, 11.1665897 ], [ 10.3541803, 11.1700897 ], [ 10.3588104, 11.1747503 ], [ 10.3611403, 11.17593 ], [ 10.3646202, 11.1794205 ], [ 10.3633604, 11.1874704 ], [ 10.3645, 11.1909399 ], [ 10.3644695, 11.1932402 ], [ 10.3656197, 11.19555 ], [ 10.3655796, 11.1990099 ], [ 10.3667202, 11.2024803 ], [ 10.365951, 11.2046668 ], [ 10.3659108, 11.204781 ], [ 10.36551, 11.2059202 ], [ 10.3631601, 11.2070398 ], [ 10.3606313, 11.2076264 ], [ 10.3584604, 11.2081299 ], [ 10.3563459, 11.2081047 ], [ 10.3526096, 11.2080603 ], [ 10.3467503, 11.2079897 ], [ 10.3420801, 11.2067804 ], [ 10.3385696, 11.2067404 ], [ 10.3335224, 11.2056853 ], [ 10.3327303, 11.2055197 ], [ 10.33039, 11.2054901 ], [ 10.322196, 11.2041979 ], [ 10.3189554, 11.204484 ], [ 10.3140507, 11.204792 ], [ 10.3093834, 11.2050858 ], [ 10.3076543, 11.2051945 ], [ 10.3035603, 11.205452 ], [ 10.29881, 11.2057505 ], [ 10.2794525, 11.2031702 ], [ 10.2636442, 11.2104996 ], [ 10.2532785, 11.2153055 ], [ 10.2506104, 11.2194996 ], [ 10.2480808, 11.2202905 ], [ 10.2470903, 11.2206001 ], [ 10.2423897, 11.2216997 ], [ 10.2386899, 11.2228661 ], [ 10.2381182, 11.2230463 ], [ 10.2353401, 11.2239199 ], [ 10.2329998, 11.2238903 ], [ 10.2294798, 11.2250004 ], [ 10.2259703, 11.2249498 ], [ 10.2236204, 11.2249298 ], [ 10.2218827, 11.2257581 ], [ 10.2212696, 11.2260504 ], [ 10.2177601, 11.2260103 ], [ 10.2154198, 11.2259798 ], [ 10.2130604, 11.2271004 ], [ 10.2107201, 11.2270699 ], [ 10.2083797, 11.2270498 ], [ 10.2022972, 11.2256832 ], [ 10.2000256, 11.2260952 ], [ 10.1955204, 11.2245903 ], [ 10.1945242, 11.2241836 ], [ 10.1896896, 11.2222099 ], [ 10.1873398, 11.22334 ], [ 10.1838303, 11.2232904 ], [ 10.1756201, 11.22435 ], [ 10.1732702, 11.2254696 ], [ 10.1697397, 11.2265797 ], [ 10.1650496, 11.2276697 ], [ 10.1591597, 11.23106 ], [ 10.1517912, 11.2391239 ], [ 10.1456664, 11.2409662 ], [ 10.1414899, 11.2383828 ], [ 10.1396664, 11.2370308 ], [ 10.1365148, 11.2362195 ], [ 10.133192, 11.236849 ], [ 10.1307819, 11.2376183 ], [ 10.1298122, 11.237856 ], [ 10.119932, 11.2373834 ], [ 10.1220546, 11.2470096 ], [ 10.1156673, 11.2500323 ], [ 10.108177, 11.2535771 ], [ 10.1029658, 11.2577531 ], [ 10.0984321, 11.2613862 ], [ 10.092981, 11.2652961 ], [ 10.0904699, 11.2670972 ], [ 10.0841713, 11.2696612 ], [ 10.074783, 11.2676799 ], [ 10.0696729, 11.2670972 ], [ 10.0628245, 11.2661393 ], [ 10.0519657, 11.2660482 ], [ 10.049885, 11.2658256 ], [ 10.0454295, 11.2653489 ], [ 10.0316236, 11.265258 ], [ 10.0277224, 11.2652324 ], [ 10.0118569, 11.2613684 ], [ 9.9985357, 11.2646285 ], [ 9.994713, 11.2676493 ], [ 9.9915476, 11.2701507 ], [ 9.9820869, 11.2747963 ], [ 9.9803524, 11.275648 ], [ 9.9771709, 11.2772102 ], [ 9.9694536, 11.2788358 ], [ 9.9688913, 11.2803855 ], [ 9.9684154, 11.281461 ], [ 9.9682746, 11.2829958 ], [ 9.9677225, 11.283091 ], [ 9.9671245, 11.2830949 ], [ 9.9660737, 11.2827828 ], [ 9.9655484, 11.2824097 ], [ 9.9650077, 11.2820289 ], [ 9.9646118, 11.2818462 ], [ 9.9640027, 11.2823131 ], [ 9.9636429, 11.2828385 ], [ 9.9632431, 11.2832097 ], [ 9.9622977, 11.2834059 ], [ 9.961384, 11.283958 ], [ 9.9603465, 11.2847955 ], [ 9.9593595, 11.2851997 ], [ 9.9584601, 11.2860563 ], [ 9.9582269, 11.286556 ], [ 9.9576553, 11.2862938 ], [ 9.9484054, 11.2963008 ], [ 9.9414708, 11.313945 ], [ 9.913985, 11.3164622 ], [ 9.9136, 11.3161 ], [ 9.9134, 11.3166 ], [ 9.913, 11.3164 ], [ 9.9127, 11.3168 ], [ 9.9121366, 11.3170692 ], [ 9.9119173, 11.3183066 ], [ 9.9136974, 11.3199387 ], [ 9.918283, 11.3473739 ], [ 9.916708, 11.3478699 ], [ 9.9120235, 11.3478098 ], [ 9.909106, 11.3478671 ], [ 9.9035205, 11.3474593 ], [ 9.8990046, 11.3499062 ], [ 9.89476, 11.3516199 ], [ 9.8850295, 11.3566842 ], [ 9.8826332, 11.3589697 ], [ 9.882172, 11.3612232 ], [ 9.8827424, 11.3625095 ], [ 9.8831417, 11.3633484 ], [ 9.8840544, 11.3645787 ], [ 9.8841114, 11.3659768 ], [ 9.883484, 11.3675987 ], [ 9.8845678, 11.3684375 ], [ 9.8846819, 11.3695001 ], [ 9.8856516, 11.3703389 ], [ 9.8873629, 11.3705626 ], [ 9.8894735, 11.3714015 ], [ 9.8891883, 11.3735265 ], [ 9.8889031, 11.376099 ], [ 9.888789, 11.3794543 ], [ 9.8883897, 11.3810201 ], [ 9.8873629, 11.3816353 ], [ 9.8860509, 11.3816353 ], [ 9.8844537, 11.3812997 ], [ 9.8837121, 11.3821945 ], [ 9.8823431, 11.3840958 ], [ 9.88086, 11.3863885 ], [ 9.8799763, 11.3888798 ], [ 9.8841465, 11.3945967 ], [ 9.8851447, 11.3963442 ], [ 9.8848595, 11.3987207 ], [ 9.8856148, 11.4017323 ], [ 9.8855583, 11.4064175 ], [ 9.8842805, 11.4081415 ], [ 9.8820868, 11.41078 ], [ 9.8791691, 11.4131619 ], [ 9.8761648, 11.415382 ], [ 9.8761285, 11.4188324 ], [ 9.8761037, 11.4211422 ], [ 9.8760799, 11.4234425 ], [ 9.8768402, 11.4258536 ], [ 9.8786941, 11.4306993 ], [ 9.8795033, 11.4337797 ], [ 9.880075, 11.4355242 ], [ 9.8790268, 11.4374553 ], [ 9.8782663, 11.4393655 ], [ 9.8777434, 11.4417883 ], [ 9.8772205, 11.4439781 ], [ 9.8768877, 11.4458883 ], [ 9.8771729, 11.4474258 ], [ 9.8780011, 11.4484996 ], [ 9.8748452, 11.4526972 ], [ 9.8688708, 11.4582679 ], [ 9.8681934, 11.4584077 ], [ 9.8675636, 11.4583983 ], [ 9.8670502, 11.4584636 ], [ 9.8663847, 11.4584077 ], [ 9.8657464, 11.4584976 ], [ 9.8645593, 11.4584077 ], [ 9.8634617, 11.4605263 ], [ 9.8557127, 11.4659701 ], [ 9.8194147, 11.4508459 ], [ 9.8014382, 11.4433557 ], [ 9.7880038, 11.4633257 ], [ 9.7847035, 11.4682315 ], [ 9.7864876, 11.4821596 ], [ 9.785615, 11.4846463 ], [ 9.7852802, 11.4856005 ], [ 9.785243, 11.4890604 ], [ 9.784049, 11.4913397 ], [ 9.784523, 11.4928837 ], [ 9.785183, 11.4948101 ], [ 9.7851467, 11.49827 ], [ 9.7878695, 11.5047161 ], [ 9.7921385, 11.5065216 ], [ 9.7977853, 11.5127796 ], [ 9.7986173, 11.5137018 ], [ 9.8055768, 11.5214147 ], [ 9.8153764, 11.5292543 ], [ 9.8158797, 11.5295563 ], [ 9.8199947, 11.5320253 ], [ 9.8296988, 11.5378478 ], [ 9.8307836, 11.5403427 ], [ 9.819568, 11.5798758 ], [ 9.8294665, 11.5880611 ], [ 9.8349086, 11.5988795 ], [ 9.8171968, 11.6041367 ], [ 9.8179722, 11.6057396 ], [ 9.8202772, 11.60923 ], [ 9.8205165, 11.6095913 ], [ 9.8225822, 11.61271 ], [ 9.8228178, 11.6134303 ], [ 9.8224707, 11.6142834 ], [ 9.8215823, 11.6150273 ], [ 9.8215526, 11.6153167 ], [ 9.8216135, 11.615568 ], [ 9.8214917, 11.6157393 ], [ 9.8211491, 11.6158802 ], [ 9.8208414, 11.615883 ], [ 9.8206274, 11.6159494 ], [ 9.8203498, 11.6159897 ], [ 9.82015, 11.6159826 ], [ 9.8199311, 11.6158945 ], [ 9.8196598, 11.6159017 ], [ 9.8195028, 11.6161539 ], [ 9.8195075, 11.6164799 ], [ 9.8194069, 11.6169823 ], [ 9.8193073, 11.6172834 ], [ 9.8191243, 11.6179103 ], [ 9.8187731, 11.6192913 ], [ 9.8186512, 11.6196263 ], [ 9.8182705, 11.6198319 ], [ 9.8175395, 11.6199766 ], [ 9.8169621, 11.619995 ], [ 9.8165005, 11.6200997 ], [ 9.815287, 11.6198903 ], [ 9.8145779, 11.6197523 ], [ 9.8140211, 11.6192764 ], [ 9.8135976, 11.6192098 ], [ 9.8115077, 11.6208265 ], [ 9.8108541, 11.6224561 ], [ 9.8106758, 11.6248133 ], [ 9.8109729, 11.6262683 ], [ 9.8125475, 11.6276069 ], [ 9.8259164, 11.6267645 ], [ 9.8270712, 11.6311798 ], [ 9.8282061, 11.6346502 ], [ 9.8270102, 11.63694 ], [ 9.8269625, 11.6415501 ], [ 9.8257189, 11.6484404 ], [ 9.824523, 11.6507301 ], [ 9.8233042, 11.6553202 ], [ 9.8221092, 11.6576099 ], [ 9.822073, 11.6610603 ], [ 9.8211889, 11.6635791 ], [ 9.8208656, 11.6645002 ], [ 9.8208046, 11.6702604 ], [ 9.8207908, 11.6715782 ], [ 9.8278244, 11.6824296 ], [ 9.8306461, 11.6845984 ], [ 9.8277776, 11.6922765 ], [ 9.8019821, 11.6914725 ], [ 9.7982803, 11.6982438 ], [ 9.7842543, 11.7239009 ], [ 9.7848249, 11.7272395 ], [ 9.7795675, 11.7365051 ], [ 9.7597446, 11.732023 ], [ 9.7512413, 11.7302709 ], [ 9.7443678, 11.7288545 ], [ 9.7348687, 11.7268971 ], [ 9.7125559, 11.7208666 ], [ 9.7037252, 11.7207272 ], [ 9.6923917, 11.7221629 ], [ 9.6849044, 11.7253407 ], [ 9.6808498, 11.7256023 ], [ 9.6715628, 11.7262014 ], [ 9.6644313, 11.7268067 ], [ 9.6612454, 11.7270771 ], [ 9.6582521, 11.7278983 ], [ 9.6438632, 11.7318456 ], [ 9.6437564, 11.7318749 ], [ 9.6403895, 11.7327986 ], [ 9.6397351, 11.7329781 ], [ 9.6371166, 11.7348541 ], [ 9.6320098, 11.7385127 ], [ 9.6321148, 11.7397244 ], [ 9.6320768, 11.7404691 ], [ 9.632305, 11.7407669 ], [ 9.6328184, 11.7405994 ], [ 9.6339212, 11.7406366 ], [ 9.6346247, 11.741102 ], [ 9.6342444, 11.7415116 ], [ 9.633655, 11.7418281 ], [ 9.6328184, 11.7418653 ], [ 9.6320388, 11.7419584 ], [ 9.6315634, 11.7422749 ], [ 9.6306507, 11.7423866 ], [ 9.6300233, 11.7420887 ], [ 9.6298141, 11.7417164 ], [ 9.6301564, 11.7413254 ], [ 9.6309169, 11.7411579 ], [ 9.6311641, 11.7407669 ], [ 9.6308789, 11.7400967 ], [ 9.6306699, 11.7394726 ], [ 9.6299662, 11.7391287 ], [ 9.6291296, 11.7390356 ], [ 9.6285257, 11.7391756 ], [ 9.6280267, 11.7394265 ], [ 9.6277225, 11.7398919 ], [ 9.6279697, 11.740376 ], [ 9.6276723, 11.7407216 ], [ 9.627, 11.7411393 ], [ 9.6262964, 11.7411579 ], [ 9.625745, 11.74086 ], [ 9.6253267, 11.7410462 ], [ 9.6246232, 11.7414185 ], [ 9.6240718, 11.741102 ], [ 9.6233872, 11.7411765 ], [ 9.6228929, 11.7416419 ], [ 9.623045, 11.7420328 ], [ 9.6236154, 11.7422562 ], [ 9.6236534, 11.7426844 ], [ 9.6235774, 11.7434105 ], [ 9.6233492, 11.743969 ], [ 9.6228738, 11.744304 ], [ 9.62179, 11.7448812 ], [ 9.6208773, 11.7452721 ], [ 9.6197044, 11.7453481 ], [ 9.619147, 11.7454769 ], [ 9.6189569, 11.7459237 ], [ 9.6193182, 11.7463518 ], [ 9.6196034, 11.7469103 ], [ 9.6194893, 11.7473571 ], [ 9.6193591, 11.7479094 ], [ 9.6192611, 11.7483251 ], [ 9.619128, 11.7493118 ], [ 9.6196557, 11.7508604 ], [ 9.6197317, 11.7516888 ], [ 9.6199504, 11.7523124 ], [ 9.6199694, 11.7527871 ], [ 9.6200455, 11.7532805 ], [ 9.620055, 11.7536807 ], [ 9.6203402, 11.7539413 ], [ 9.6205969, 11.7542671 ], [ 9.6208916, 11.7544533 ], [ 9.6211388, 11.7543695 ], [ 9.621462, 11.7542392 ], [ 9.6216664, 11.7538948 ], [ 9.6218471, 11.7533596 ], [ 9.6221798, 11.7530664 ], [ 9.6224698, 11.7529407 ], [ 9.6228073, 11.7528849 ], [ 9.6230497, 11.7529175 ], [ 9.6231543, 11.7529826 ], [ 9.6232399, 11.7531387 ], [ 9.6231068, 11.7534179 ], [ 9.6230687, 11.7538089 ], [ 9.6232114, 11.754023 ], [ 9.6235821, 11.7542557 ], [ 9.6242001, 11.7546373 ], [ 9.6245043, 11.7550189 ], [ 9.624685, 11.7553633 ], [ 9.6247515, 11.7556891 ], [ 9.6247515, 11.7560428 ], [ 9.624742, 11.7564244 ], [ 9.6248656, 11.7566757 ], [ 9.6251508, 11.7569456 ], [ 9.6254741, 11.7571318 ], [ 9.6257403, 11.7573645 ], [ 9.6259684, 11.757411 ], [ 9.6261206, 11.7572807 ], [ 9.6261491, 11.757048 ], [ 9.6260849, 11.7567455 ], [ 9.6261414, 11.7565863 ], [ 9.6263464, 11.756008 ], [ 9.6265555, 11.755774 ], [ 9.6269206, 11.755778 ], [ 9.6273969, 11.7565593 ], [ 9.6278913, 11.7576204 ], [ 9.6281194, 11.7584023 ], [ 9.6278152, 11.758607 ], [ 9.6272068, 11.758365 ], [ 9.6266686, 11.7583078 ], [ 9.626199, 11.7585326 ], [ 9.6260279, 11.7589607 ], [ 9.6255715, 11.7592958 ], [ 9.6254004, 11.7598915 ], [ 9.6254955, 11.7608222 ], [ 9.6257807, 11.7613807 ], [ 9.6260469, 11.7613621 ], [ 9.6262941, 11.7607106 ], [ 9.6266508, 11.7600203 ], [ 9.6271877, 11.7597426 ], [ 9.6279103, 11.7594075 ], [ 9.6287557, 11.7592742 ], [ 9.6289554, 11.7594975 ], [ 9.6288555, 11.7599722 ], [ 9.6288128, 11.7606284 ], [ 9.6288698, 11.7609356 ], [ 9.6291122, 11.7612567 ], [ 9.6296399, 11.7614801 ], [ 9.6300962, 11.7619129 ], [ 9.6302959, 11.7626389 ], [ 9.6303529, 11.763295 ], [ 9.6303814, 11.7638256 ], [ 9.6306524, 11.7640629 ], [ 9.6309233, 11.7641187 ], [ 9.6316506, 11.7638814 ], [ 9.6320214, 11.7639652 ], [ 9.6322211, 11.7642025 ], [ 9.6333477, 11.7653334 ], [ 9.6341605, 11.7661222 ], [ 9.634731, 11.7667155 ], [ 9.6351231, 11.7673438 ], [ 9.6352016, 11.7678534 ], [ 9.6349877, 11.768335 ], [ 9.634624, 11.7690051 ], [ 9.6343745, 11.7698777 ], [ 9.6344529, 11.7701779 ], [ 9.6346169, 11.7702826 ], [ 9.6348451, 11.7702965 ], [ 9.6350977, 11.7701828 ], [ 9.6353656, 11.7700243 ], [ 9.6356793, 11.7699196 ], [ 9.6360002, 11.7699824 ], [ 9.6363211, 11.770129 ], [ 9.636699, 11.7704501 ], [ 9.6369913, 11.7707991 ], [ 9.6379468, 11.7717205 ], [ 9.6384673, 11.7720486 ], [ 9.6388381, 11.7722301 ], [ 9.6393515, 11.7723488 ], [ 9.6398292, 11.7724116 ], [ 9.6400574, 11.7725233 ], [ 9.6401394, 11.7727341 ], [ 9.6399683, 11.7729994 ], [ 9.6397401, 11.7734601 ], [ 9.6397116, 11.7739068 ], [ 9.6399255, 11.7742139 ], [ 9.6403248, 11.7744932 ], [ 9.6407526, 11.7747165 ], [ 9.6413088, 11.7748003 ], [ 9.6419362, 11.7746328 ], [ 9.642578, 11.7747444 ], [ 9.6430771, 11.7750097 ], [ 9.6433623, 11.7754983 ], [ 9.6434194, 11.7760428 ], [ 9.6431627, 11.7765314 ], [ 9.6427491, 11.7767827 ], [ 9.6422357, 11.7772574 ], [ 9.6416368, 11.7775086 ], [ 9.6410093, 11.7775645 ], [ 9.6406956, 11.7778716 ], [ 9.6407383, 11.7782067 ], [ 9.6413515, 11.7787372 ], [ 9.641979, 11.7788349 ], [ 9.6427919, 11.7790583 ], [ 9.6436048, 11.7792677 ], [ 9.6443178, 11.7793375 ], [ 9.6446743, 11.7795329 ], [ 9.6449595, 11.7797423 ], [ 9.6454016, 11.7797004 ], [ 9.6456726, 11.7795329 ], [ 9.6464426, 11.7792258 ], [ 9.6467706, 11.7789885 ], [ 9.6467849, 11.7786674 ], [ 9.6468562, 11.778109 ], [ 9.6472127, 11.7777041 ], [ 9.6475835, 11.7774947 ], [ 9.6480399, 11.7775086 ], [ 9.6484819, 11.7778297 ], [ 9.6490096, 11.7782486 ], [ 9.6494491, 11.7784138 ], [ 9.650047, 11.7783234 ], [ 9.6504499, 11.7782625 ], [ 9.6508492, 11.7782765 ], [ 9.6509918, 11.7786953 ], [ 9.6511487, 11.7789605 ], [ 9.651491, 11.7790303 ], [ 9.6515908, 11.7787791 ], [ 9.6517477, 11.778458 ], [ 9.6521184, 11.7782346 ], [ 9.6524464, 11.7781648 ], [ 9.6528883, 11.7783444 ], [ 9.6550562, 11.7780671 ], [ 9.655541, 11.778095 ], [ 9.6557407, 11.7784719 ], [ 9.6559403, 11.7790583 ], [ 9.6559546, 11.7797144 ], [ 9.656197, 11.7799517 ], [ 9.6565108, 11.7800774 ], [ 9.6572095, 11.7800076 ], [ 9.65778, 11.7800076 ], [ 9.6580652, 11.7801891 ], [ 9.658108, 11.7807475 ], [ 9.6583361, 11.7810686 ], [ 9.6587212, 11.7812082 ], [ 9.659092, 11.7810406 ], [ 9.6597907, 11.7808871 ], [ 9.6607177, 11.7807196 ], [ 9.6611598, 11.7808731 ], [ 9.6614022, 11.7812221 ], [ 9.6616732, 11.7823529 ], [ 9.66183, 11.7832045 ], [ 9.6622579, 11.7834697 ], [ 9.6629424, 11.7834139 ], [ 9.6636824, 11.7828578 ], [ 9.6647223, 11.7830323 ], [ 9.6655905, 11.7839578 ], [ 9.669523, 11.7843405 ], [ 9.6730882, 11.7921581 ], [ 9.6733684, 11.7941175 ], [ 9.6754534, 11.8086951 ], [ 9.6760829, 11.813097 ], [ 9.6757977, 11.8204951 ], [ 9.6758404, 11.8212013 ], [ 9.6764365, 11.8310703 ], [ 9.6773956, 11.8396712 ], [ 9.6776092, 11.8415871 ], [ 9.6777942, 11.8432463 ], [ 9.6758246, 11.8451331 ], [ 9.6750924, 11.8457334 ], [ 9.6734568, 11.8470746 ], [ 9.6736832, 11.8527002 ], [ 9.6737683, 11.8593073 ], [ 9.6791521, 11.8649049 ], [ 9.6825525, 11.8667537 ], [ 9.6861599, 11.8679267 ], [ 9.6873008, 11.8671592 ], [ 9.6881564, 11.8656938 ], [ 9.6877983, 11.8642227 ], [ 9.6889408, 11.8636004 ], [ 9.6905808, 11.864019 ], [ 9.6916503, 11.8631119 ], [ 9.6917929, 11.8617163 ], [ 9.6934329, 11.8614371 ], [ 9.6937848, 11.8606275 ], [ 9.693932, 11.8594833 ], [ 9.6952868, 11.858925 ], [ 9.6967129, 11.8600415 ], [ 9.6980677, 11.8592041 ], [ 9.6992085, 11.8602509 ], [ 9.7004207, 11.8601811 ], [ 9.7009911, 11.8591343 ], [ 9.7022527, 11.8588874 ], [ 9.7031302, 11.8587157 ], [ 9.7023459, 11.85732 ], [ 9.7020473, 11.8562577 ], [ 9.7019032, 11.8558211 ], [ 9.7017547, 11.8549779 ], [ 9.7021112, 11.8544836 ], [ 9.7029163, 11.8541798 ], [ 9.7033381, 11.8531588 ], [ 9.7036561, 11.8522738 ], [ 9.7038592, 11.8511665 ], [ 9.7038641, 11.8511398 ], [ 9.7046365, 11.8505583 ], [ 9.7053588, 11.8507929 ], [ 9.7055759, 11.8513793 ], [ 9.7056635, 11.8516158 ], [ 9.7060718, 11.8518118 ], [ 9.7065275, 11.8516931 ], [ 9.7067471, 11.8515859 ], [ 9.7068562, 11.8515327 ], [ 9.7070986, 11.8512256 ], [ 9.7070558, 11.8507092 ], [ 9.707341, 11.8501788 ], [ 9.7079257, 11.8498718 ], [ 9.7087101, 11.8502626 ], [ 9.7094374, 11.8504719 ], [ 9.7102075, 11.8508767 ], [ 9.7107641, 11.8510912 ], [ 9.7114054, 11.851407 ], [ 9.7119758, 11.8515187 ], [ 9.7124749, 11.851421 ], [ 9.7130881, 11.8514908 ], [ 9.7137441, 11.8516443 ], [ 9.7147139, 11.852077 ], [ 9.7154554, 11.8523561 ], [ 9.7161399, 11.8526631 ], [ 9.7166961, 11.8529981 ], [ 9.7173093, 11.8533191 ], [ 9.7181507, 11.8535006 ], [ 9.718821, 11.8535145 ], [ 9.7198335, 11.8538634 ], [ 9.7220466, 11.8545106 ], [ 9.7226143, 11.8545054 ], [ 9.7234272, 11.8545613 ], [ 9.7241545, 11.8548683 ], [ 9.7247782, 11.8554164 ], [ 9.7248533, 11.8554824 ], [ 9.725167, 11.8559011 ], [ 9.7255948, 11.8560825 ], [ 9.7262651, 11.8559569 ], [ 9.7272412, 11.8560441 ], [ 9.7279193, 11.8561802 ], [ 9.7280852, 11.8563014 ], [ 9.7282965, 11.8564559 ], [ 9.728596, 11.856742 ], [ 9.7291807, 11.8568885 ], [ 9.729687, 11.8569653 ], [ 9.7299041, 11.856925 ], [ 9.7303644, 11.8568397 ], [ 9.730671, 11.8570211 ], [ 9.7309001, 11.8572665 ], [ 9.7310489, 11.8574258 ], [ 9.7312842, 11.857691 ], [ 9.7316478, 11.8579283 ], [ 9.7319666, 11.8579937 ], [ 9.7323609, 11.8579283 ], [ 9.7326897, 11.8578801 ], [ 9.7330953, 11.8579841 ], [ 9.7333377, 11.8578655 ], [ 9.7336158, 11.8576631 ], [ 9.7339652, 11.8577957 ], [ 9.7341007, 11.8580539 ], [ 9.7344572, 11.8582144 ], [ 9.7348351, 11.858347 ], [ 9.7351631, 11.8584516 ], [ 9.7355054, 11.8585563 ], [ 9.735976, 11.8587029 ], [ 9.7373094, 11.8589401 ], [ 9.7383147, 11.8591425 ], [ 9.7391134, 11.8594984 ], [ 9.7398335, 11.8598682 ], [ 9.7406963, 11.8600148 ], [ 9.7413523, 11.8600217 ], [ 9.7418657, 11.8601055 ], [ 9.7425645, 11.860259 ], [ 9.7433345, 11.8604195 ], [ 9.7439264, 11.860573 ], [ 9.7442187, 11.8605032 ], [ 9.7445253, 11.8603497 ], [ 9.7448533, 11.8603009 ], [ 9.7453382, 11.8606288 ], [ 9.7458159, 11.8609149 ], [ 9.7462366, 11.8611731 ], [ 9.746479, 11.8612499 ], [ 9.7468926, 11.8611243 ], [ 9.7472919, 11.8610894 ], [ 9.7475985, 11.8611243 ], [ 9.747791, 11.8613755 ], [ 9.7480263, 11.8621082 ], [ 9.747898, 11.8624432 ], [ 9.7479194, 11.8627851 ], [ 9.7480976, 11.8630712 ], [ 9.7483615, 11.8632456 ], [ 9.7486895, 11.8633154 ], [ 9.749046, 11.8632038 ], [ 9.749267, 11.8630293 ], [ 9.749538, 11.8630851 ], [ 9.7496521, 11.8633712 ], [ 9.7496307, 11.8637201 ], [ 9.7497162, 11.8639225 ], [ 9.7498731, 11.8639783 ], [ 9.7500086, 11.8639086 ], [ 9.7502653, 11.8638039 ], [ 9.7510244, 11.8638649 ], [ 9.7513535, 11.8640108 ], [ 9.7517841, 11.8640551 ], [ 9.7520122, 11.8639155 ], [ 9.7522547, 11.8637271 ], [ 9.7525042, 11.8637411 ], [ 9.7527467, 11.8636364 ], [ 9.7532173, 11.8633712 ], [ 9.753424, 11.8631898 ], [ 9.7534954, 11.8629805 ], [ 9.7533242, 11.8627921 ], [ 9.7533527, 11.8625897 ], [ 9.7536094, 11.8624571 ], [ 9.7540016, 11.8626595 ], [ 9.7544722, 11.8629735 ], [ 9.7547432, 11.8633363 ], [ 9.755036, 11.8635941 ], [ 9.7553493, 11.8637481 ], [ 9.7555865, 11.8639634 ], [ 9.7558056, 11.8643203 ], [ 9.755991, 11.8645436 ], [ 9.756376, 11.8646971 ], [ 9.7566684, 11.8646761 ], [ 9.756975, 11.8645924 ], [ 9.7573529, 11.8645854 ], [ 9.7576322, 11.8646874 ], [ 9.7579732, 11.8649134 ], [ 9.758508, 11.8651576 ], [ 9.7590856, 11.8654298 ], [ 9.7595633, 11.8656391 ], [ 9.7601195, 11.8660438 ], [ 9.7602478, 11.8662253 ], [ 9.7605117, 11.8663718 ], [ 9.760861, 11.8663439 ], [ 9.7612176, 11.8664835 ], [ 9.7616882, 11.8667975 ], [ 9.7622443, 11.8668184 ], [ 9.7624939, 11.866958 ], [ 9.7626508, 11.8673487 ], [ 9.7627292, 11.8676697 ], [ 9.7629503, 11.8677883 ], [ 9.7631998, 11.8677604 ], [ 9.7634636, 11.8676697 ], [ 9.7638986, 11.8677814 ], [ 9.7643122, 11.8679419 ], [ 9.764904, 11.8681233 ], [ 9.7654245, 11.8683466 ], [ 9.7655742, 11.8685489 ], [ 9.7657525, 11.8685768 ], [ 9.7659379, 11.868521 ], [ 9.7660876, 11.8684443 ], [ 9.7664299, 11.868542 ], [ 9.7669647, 11.8687094 ], [ 9.7674424, 11.8687932 ], [ 9.7677936, 11.8690137 ], [ 9.7680271, 11.8690793 ], [ 9.7682767, 11.8690234 ], [ 9.768626, 11.8691769 ], [ 9.7689041, 11.8691839 ], [ 9.7692535, 11.8690862 ], [ 9.7695744, 11.869163 ], [ 9.7699095, 11.8694142 ], [ 9.7702304, 11.8695328 ], [ 9.7706439, 11.8697352 ], [ 9.7708079, 11.8696863 ], [ 9.7709862, 11.8696096 ], [ 9.7712643, 11.8697352 ], [ 9.7715709, 11.8698538 ], [ 9.7717135, 11.8699166 ], [ 9.7718846, 11.8699724 ], [ 9.7720058, 11.870105 ], [ 9.7719916, 11.870412 ], [ 9.7720351, 11.8705795 ], [ 9.7721778, 11.8706127 ], [ 9.772341, 11.8704539 ], [ 9.7724907, 11.870412 ], [ 9.7726761, 11.8705656 ], [ 9.7728544, 11.8706981 ], [ 9.7730597, 11.8708486 ], [ 9.7733036, 11.8708307 ], [ 9.773382, 11.87074 ], [ 9.7735389, 11.8706842 ], [ 9.7737248, 11.8706702 ], [ 9.7739382, 11.8706842 ], [ 9.7742163, 11.8707819 ], [ 9.774473, 11.8708237 ], [ 9.7746156, 11.8710052 ], [ 9.7747225, 11.8711377 ], [ 9.7748833, 11.8712604 ], [ 9.7750772, 11.8714083 ], [ 9.7753429, 11.8714727 ], [ 9.7756184, 11.8717047 ], [ 9.7759982, 11.8718853 ], [ 9.7769472, 11.8721007 ], [ 9.777211, 11.8721426 ], [ 9.7773822, 11.8722263 ], [ 9.7776032, 11.8724496 ], [ 9.7778149, 11.8725517 ], [ 9.7780382, 11.8724426 ], [ 9.7782093, 11.8722961 ], [ 9.7784303, 11.8723379 ], [ 9.7785943, 11.8723728 ], [ 9.7787655, 11.872303 ], [ 9.7789274, 11.8725139 ], [ 9.7793644, 11.872645 ], [ 9.7795498, 11.8727008 ], [ 9.7797172, 11.872811 ], [ 9.7800347, 11.8727915 ], [ 9.780327, 11.8727706 ], [ 9.7803841, 11.8725961 ], [ 9.7802486, 11.8724077 ], [ 9.7802771, 11.8722402 ], [ 9.7805267, 11.8722123 ], [ 9.7807121, 11.8723938 ], [ 9.7808538, 11.8726628 ], [ 9.7811256, 11.8727566 ], [ 9.7811256, 11.8729939 ], [ 9.7811969, 11.8731404 ], [ 9.7813823, 11.8731543 ], [ 9.7815321, 11.8729799 ], [ 9.7817531, 11.8729799 ], [ 9.7820433, 11.8731851 ], [ 9.7821809, 11.8734544 ], [ 9.7821453, 11.8736637 ], [ 9.7822594, 11.8739638 ], [ 9.7821953, 11.8742289 ], [ 9.7821667, 11.8743476 ], [ 9.7823021, 11.8746197 ], [ 9.7825018, 11.8746197 ], [ 9.7826515, 11.8745569 ], [ 9.782592, 11.8743531 ], [ 9.782566, 11.8742638 ], [ 9.7826373, 11.8741103 ], [ 9.7828013, 11.8741312 ], [ 9.7829938, 11.8743824 ], [ 9.7831304, 11.8745215 ], [ 9.783172, 11.8745639 ], [ 9.7833301, 11.874584 ], [ 9.7838851, 11.8746546 ], [ 9.7843343, 11.87485 ], [ 9.7845126, 11.87485 ], [ 9.7846409, 11.8747732 ], [ 9.7847122, 11.8746127 ], [ 9.7850259, 11.8745569 ], [ 9.7852541, 11.8744034 ], [ 9.7853397, 11.8741661 ], [ 9.7855037, 11.8740336 ], [ 9.7857176, 11.8740824 ], [ 9.7858745, 11.8743057 ], [ 9.7859529, 11.874522 ], [ 9.7861739, 11.8746476 ], [ 9.7865091, 11.8746964 ], [ 9.7867729, 11.874522 ], [ 9.7870581, 11.8744941 ], [ 9.7872578, 11.8746267 ], [ 9.7873005, 11.8749058 ], [ 9.7872435, 11.875464 ], [ 9.7872254, 11.8758027 ], [ 9.7872104, 11.8760842 ], [ 9.7873647, 11.8762734 ], [ 9.7876149, 11.8763036 ], [ 9.7877987, 11.8764347 ], [ 9.7880136, 11.8765804 ], [ 9.7883701, 11.8764828 ], [ 9.7888835, 11.8763432 ], [ 9.7889437, 11.8763403 ], [ 9.789461, 11.8763153 ], [ 9.7895486, 11.8765295 ], [ 9.7895751, 11.8765944 ], [ 9.7896037, 11.8769642 ], [ 9.7895038, 11.8775713 ], [ 9.7896108, 11.8779202 ], [ 9.7899031, 11.87829 ], [ 9.7902597, 11.8784575 ], [ 9.7909299, 11.8785133 ], [ 9.7915805, 11.8786446 ], [ 9.7922704, 11.8788691 ], [ 9.7929621, 11.8790854 ], [ 9.7938748, 11.8793366 ], [ 9.7945236, 11.879546 ], [ 9.7955148, 11.8796158 ], [ 9.796021, 11.8796716 ], [ 9.7965629, 11.8798321 ], [ 9.7970335, 11.8800205 ], [ 9.797932, 11.880174 ], [ 9.7986379, 11.8803205 ], [ 9.7991299, 11.8802647 ], [ 9.7996535, 11.8801366 ], [ 9.7997859, 11.8801042 ], [ 9.8001994, 11.8801391 ], [ 9.8007057, 11.8804112 ], [ 9.8008573, 11.8805433 ], [ 9.801162, 11.8808089 ], [ 9.8019392, 11.8813951 ], [ 9.8026024, 11.8819672 ], [ 9.8033154, 11.8822673 ], [ 9.8039999, 11.8824068 ], [ 9.8047985, 11.8824487 ], [ 9.8055829, 11.8816462 ], [ 9.806249, 11.8815386 ], [ 9.8086619, 11.8820158 ], [ 9.8122227, 11.8845931 ], [ 9.8141583, 11.8856413 ], [ 9.816191, 11.8867421 ], [ 9.8205519, 11.8876612 ], [ 9.8281026, 11.8892525 ], [ 9.8335083, 11.8903918 ], [ 9.8343269, 11.8910788 ], [ 9.8417641, 11.8973204 ], [ 9.8474903, 11.9021263 ], [ 9.8558955, 11.9091803 ], [ 9.860047, 11.9126645 ], [ 9.8698542, 11.9205636 ], [ 9.8704896, 11.9210754 ], [ 9.8730142, 11.9231088 ], [ 9.8801948, 11.9305846 ], [ 9.8827171, 11.9332107 ], [ 9.8887639, 11.9366307 ], [ 9.8909442, 11.9356955 ], [ 9.8915523, 11.9354346 ], [ 9.8933943, 11.9361322 ], [ 9.8948798, 11.9365392 ], [ 9.8962465, 11.9371205 ], [ 9.8972566, 11.9372949 ], [ 9.8987421, 11.9380507 ], [ 9.9005247, 11.9381088 ], [ 9.9020696, 11.9388646 ], [ 9.9021596, 11.9399849 ], [ 9.902169, 11.9401027 ], [ 9.9023182, 11.9400747 ], [ 9.9034957, 11.9398529 ], [ 9.9049812, 11.9406667 ], [ 9.9055072, 11.9418796 ], [ 9.9055827, 11.9420537 ], [ 9.9058671, 11.9420833 ], [ 9.9078928, 11.9422945 ], [ 9.9087247, 11.9431665 ], [ 9.9097348, 11.9429921 ], [ 9.9118145, 11.9436316 ], [ 9.9134783, 11.9435734 ], [ 9.9152015, 11.9441548 ], [ 9.9165681, 11.9435734 ], [ 9.9172811, 11.944271 ], [ 9.9188855, 11.9439222 ], [ 9.9212623, 11.9437478 ], [ 9.9234014, 11.943806 ], [ 9.9236391, 11.9449105 ], [ 9.9235797, 11.9466545 ], [ 9.926313, 11.9479334 ], [ 9.9266695, 11.9496774 ], [ 9.9279735, 11.9501599 ], [ 9.9303535, 11.9500843 ], [ 9.9306506, 11.9514795 ], [ 9.9314825, 11.9518283 ], [ 9.9326709, 11.9513632 ], [ 9.9326769, 11.9499256 ], [ 9.933681, 11.9495611 ], [ 9.9343347, 11.950375 ], [ 9.9345129, 11.9520027 ], [ 9.9363549, 11.9520027 ], [ 9.9385528, 11.9518822 ], [ 9.9396825, 11.95084 ], [ 9.940752, 11.9514214 ], [ 9.9414056, 11.9536304 ], [ 9.9429409, 11.9537482 ], [ 9.9450897, 11.9533978 ], [ 9.9450303, 11.9546767 ], [ 9.946694, 11.9547349 ], [ 9.9488926, 11.9553743 ], [ 9.9503186, 11.9551999 ], [ 9.9516853, 11.9559556 ], [ 9.951507, 11.9577577 ], [ 9.9526954, 11.9579902 ], [ 9.9543592, 11.9585715 ], [ 9.95632, 11.9594434 ], [ 9.959707, 11.9603735 ], [ 9.9604794, 11.9595597 ], [ 9.9605389, 11.9585715 ], [ 9.9595287, 11.9576414 ], [ 9.9594693, 11.9560719 ], [ 9.9605389, 11.9551418 ], [ 9.9626567, 11.9539207 ], [ 9.9649529, 11.9541186 ], [ 9.9678081, 11.9543647 ], [ 9.96912, 11.9556482 ], [ 9.9696334, 11.9575456 ], [ 9.9698046, 11.9598894 ], [ 9.970432, 11.961731 ], [ 9.9712306, 11.962568 ], [ 9.9727708, 11.9633493 ], [ 9.9733412, 11.9641306 ], [ 9.9741398, 11.9640748 ], [ 9.9746532, 11.9630145 ], [ 9.9763075, 11.9627355 ], [ 9.9776765, 11.9640748 ], [ 9.978304, 11.964856 ], [ 9.9802435, 11.9673114 ], [ 9.9816125, 11.9685948 ], [ 9.983552, 11.9691529 ], [ 9.9839618, 11.9701649 ], [ 9.986263, 11.9711051 ], [ 9.9889633, 11.9722083 ], [ 9.992724, 11.9727316 ], [ 9.9965806, 11.9751338 ], [ 10.0039734, 11.9766304 ], [ 10.0104906, 11.978428 ], [ 10.0122138, 11.9790093 ], [ 10.0138899, 11.9799769 ], [ 10.0154259, 11.9808636 ], [ 10.0166648, 11.982665 ], [ 10.0200796, 11.9835501 ], [ 10.0215427, 11.9832524 ], [ 10.0228499, 11.9813343 ], [ 10.0236818, 11.9804624 ], [ 10.024989, 11.9801718 ], [ 10.0289702, 11.9787187 ], [ 10.0312281, 11.9787187 ], [ 10.0372112, 11.9745989 ], [ 10.0378625, 11.976182 ], [ 10.0405571, 11.9760448 ], [ 10.0412701, 11.9763355 ], [ 10.0410324, 11.9771492 ], [ 10.0426368, 11.9795324 ], [ 10.0438846, 11.9808693 ], [ 10.0445976, 11.9811018 ], [ 10.045073, 11.9802299 ], [ 10.045786, 11.9801137 ], [ 10.0461425, 11.9812762 ], [ 10.0481034, 11.9811599 ], [ 10.0474498, 11.9796487 ], [ 10.047628, 11.977498 ], [ 10.0485193, 11.9774399 ], [ 10.0486976, 11.9786024 ], [ 10.051015, 11.9790093 ], [ 10.052197, 11.9786748 ], [ 10.0529164, 11.9779049 ], [ 10.0540454, 11.9780793 ], [ 10.0541048, 11.9789512 ], [ 10.0543425, 11.9800555 ], [ 10.0537483, 11.9809274 ], [ 10.0541642, 11.9817412 ], [ 10.0561845, 11.9823224 ], [ 10.0557091, 11.9832524 ], [ 10.0560657, 11.9840081 ], [ 10.057373, 11.9844146 ], [ 10.05767, 11.9853449 ], [ 10.0590961, 11.9858681 ], [ 10.0598685, 11.9855774 ], [ 10.0605222, 11.9863331 ], [ 10.0612946, 11.9863331 ], [ 10.0617106, 11.9855774 ], [ 10.062899, 11.9853449 ], [ 10.0634337, 11.9845893 ], [ 10.0633743, 11.9836012 ], [ 10.0642062, 11.9834268 ], [ 10.0652163, 11.9840081 ], [ 10.0664047, 11.9836012 ], [ 10.0669989, 11.9849962 ], [ 10.0653352, 11.9851706 ], [ 10.0636315, 11.9862821 ], [ 10.0652758, 11.9883674 ], [ 10.0645627, 11.9892974 ], [ 10.0656323, 11.9898205 ], [ 10.0671198, 11.9899008 ], [ 10.0682468, 11.9890068 ], [ 10.0681873, 11.9877862 ], [ 10.0701482, 11.9885999 ], [ 10.0697525, 11.9901828 ], [ 10.0694946, 11.9919129 ], [ 10.0705641, 11.9916805 ], [ 10.0715149, 11.9919711 ], [ 10.0726438, 11.9927267 ], [ 10.0739511, 11.9930173 ], [ 10.0747829, 11.9937729 ], [ 10.0754366, 11.9932498 ], [ 10.0759119, 11.9921454 ], [ 10.0772786, 11.9921454 ], [ 10.0777539, 11.9935404 ], [ 10.0783481, 11.9948772 ], [ 10.0776945, 11.9962721 ], [ 10.0789423, 11.9984227 ], [ 10.0798336, 11.9984808 ], [ 10.0801902, 11.9973183 ], [ 10.0795254, 11.9961669 ], [ 10.07934, 11.9955671 ], [ 10.0797148, 11.9952841 ], [ 10.0803525, 11.9954973 ], [ 10.0813191, 11.9965628 ], [ 10.0821494, 11.9975339 ], [ 10.0830423, 11.997609 ], [ 10.0847728, 11.996938 ], [ 10.0848412, 11.9961024 ], [ 10.0848843, 11.9955747 ], [ 10.0857756, 11.9943541 ], [ 10.086251, 11.9923198 ], [ 10.0866075, 11.9917386 ], [ 10.0879742, 11.9920292 ], [ 10.0891032, 11.9922036 ], [ 10.0896974, 11.9939472 ], [ 10.0904104, 11.9953422 ], [ 10.0914799, 11.9954003 ], [ 10.0927278, 11.9941797 ], [ 10.0938887, 11.9957088 ], [ 10.0942133, 11.9975508 ], [ 10.0941538, 11.9988295 ], [ 10.0954017, 11.9997013 ], [ 10.0948075, 12.0006313 ], [ 10.0935002, 12.0006894 ], [ 10.0920147, 12.0027236 ], [ 10.0920147, 12.0059784 ], [ 10.0923118, 12.0070246 ], [ 10.0932031, 12.0073733 ], [ 10.0949263, 12.0085938 ], [ 10.0970602, 12.0121098 ], [ 10.09587, 12.0143995 ], [ 10.09583, 12.0178499 ], [ 10.0965901, 12.0187064 ], [ 10.098055, 12.0185024 ], [ 10.0987886, 12.0168466 ], [ 10.1003929, 12.0163817 ], [ 10.1025321, 12.017021 ], [ 10.1047306, 12.0171372 ], [ 10.1055031, 12.0155099 ], [ 10.1071074, 12.0148706 ], [ 10.1086523, 12.0155099 ], [ 10.1098407, 12.0138826 ], [ 10.1110885, 12.0138826 ], [ 10.1119204, 12.0148706 ], [ 10.1126929, 12.0148125 ], [ 10.1133465, 12.0134758 ], [ 10.1156044, 12.0131852 ], [ 10.1181595, 12.0133014 ], [ 10.1199421, 12.0142313 ], [ 10.1210117, 12.0152193 ], [ 10.1226754, 12.0145219 ], [ 10.1246363, 12.0144057 ], [ 10.1265377, 12.0149288 ], [ 10.1271913, 12.0161492 ], [ 10.1249334, 12.0171372 ], [ 10.1253493, 12.0183577 ], [ 10.1273102, 12.0188808 ], [ 10.1291522, 12.0190551 ], [ 10.1303406, 12.0185902 ], [ 10.1313507, 12.0198688 ], [ 10.1321232, 12.0213798 ], [ 10.1310536, 12.0232395 ], [ 10.1294493, 12.0244019 ], [ 10.1300435, 12.0259129 ], [ 10.130327, 12.0271815 ], [ 10.1319579, 12.0282484 ], [ 10.1343811, 12.0282956 ], [ 10.1354608, 12.0272373 ], [ 10.1351536, 12.0261453 ], [ 10.1358666, 12.0253898 ], [ 10.1371739, 12.0255061 ], [ 10.1391347, 12.0232976 ], [ 10.1406202, 12.0239369 ], [ 10.1427593, 12.0245762 ], [ 10.1437695, 12.026959 ], [ 10.1446608, 12.0275401 ], [ 10.1454927, 12.0269008 ], [ 10.1453144, 12.0251574 ], [ 10.14781, 12.024983 ], [ 10.1504839, 12.0242856 ], [ 10.1529796, 12.0235301 ], [ 10.1549999, 12.0232976 ], [ 10.1554111, 12.0249561 ], [ 10.1571984, 12.025971 ], [ 10.1576705, 12.027465 ], [ 10.1579709, 12.0290511 ], [ 10.1563071, 12.0294579 ], [ 10.1567825, 12.0302134 ], [ 10.1590998, 12.031027 ], [ 10.1617399, 12.0361871 ], [ 10.1622873, 12.0367402 ], [ 10.1641055, 12.0367053 ], [ 10.1649255, 12.0368796 ], [ 10.1647473, 12.0378908 ], [ 10.1635783, 12.038758 ], [ 10.162109, 12.0397388 ], [ 10.1619422, 12.0404975 ], [ 10.1624273, 12.0416618 ], [ 10.1645665, 12.0424173 ], [ 10.1667056, 12.0418943 ], [ 10.1672404, 12.0406739 ], [ 10.1703896, 12.0402671 ], [ 10.1713403, 12.040209 ], [ 10.1718751, 12.0393373 ], [ 10.1744896, 12.0394535 ], [ 10.1759157, 12.0411969 ], [ 10.1762722, 12.0427078 ], [ 10.1753215, 12.0436376 ], [ 10.1753215, 12.045381 ], [ 10.1749055, 12.0461945 ], [ 10.1731229, 12.0474149 ], [ 10.1707461, 12.0484609 ], [ 10.1695616, 12.050931 ], [ 10.1689041, 12.0515408 ], [ 10.1677751, 12.0510178 ], [ 10.1662896, 12.0502623 ], [ 10.1657549, 12.0524124 ], [ 10.1656954, 12.0539814 ], [ 10.1672998, 12.0550273 ], [ 10.1681911, 12.0570031 ], [ 10.1683099, 12.0579328 ], [ 10.167478, 12.0592112 ], [ 10.1663454, 12.0609227 ], [ 10.1642538, 12.0626427 ], [ 10.1625901, 12.0657108 ], [ 10.161782, 12.0675702 ], [ 10.152493, 12.0898723 ], [ 10.1527406, 12.0974773 ], [ 10.1527977, 12.1023856 ], [ 10.1538353, 12.1080828 ], [ 10.1553646, 12.1128154 ], [ 10.1568477, 12.1197312 ], [ 10.1573041, 12.1293795 ], [ 10.1624899, 12.1372499 ], [ 10.1639993, 12.1389524 ], [ 10.1658497, 12.1511097 ], [ 10.1669998, 12.15343 ], [ 10.1681204, 12.1580496 ], [ 10.1681421, 12.1581157 ], [ 10.1692156, 12.1613846 ], [ 10.16926, 12.16152 ], [ 10.1699265, 12.1637636 ], [ 10.1703901, 12.1649799 ], [ 10.1622191, 12.1832364 ], [ 10.1515115, 12.2022721 ], [ 10.1490528, 12.2245057 ], [ 10.1475361, 12.2382204 ], [ 10.1521629, 12.2441499 ], [ 10.1750189, 12.2734414 ], [ 10.1798494, 12.287963 ], [ 10.1962409, 12.3110249 ], [ 10.1970015, 12.3112803 ], [ 10.1978096, 12.3119537 ], [ 10.1984276, 12.3129058 ], [ 10.1993783, 12.3134863 ], [ 10.200234, 12.3134863 ], [ 10.2008044, 12.313347 ], [ 10.2013035, 12.3130683 ], [ 10.2016125, 12.3126968 ], [ 10.201969, 12.3120698 ], [ 10.2023493, 12.311559 ], [ 10.2030861, 12.3113964 ], [ 10.2042745, 12.3112339 ], [ 10.2051777, 12.31135 ], [ 10.2060571, 12.3114429 ], [ 10.2066275, 12.3118608 ], [ 10.2069128, 12.3125575 ], [ 10.2065325, 12.3132077 ], [ 10.2059145, 12.3136257 ], [ 10.2055342, 12.3142294 ], [ 10.2058432, 12.3147867 ], [ 10.2060809, 12.3155762 ], [ 10.2061522, 12.316389 ], [ 10.2060096, 12.3172481 ], [ 10.2063186, 12.3179448 ], [ 10.2064612, 12.3187575 ], [ 10.2061522, 12.3192916 ], [ 10.2054154, 12.3191522 ], [ 10.2048212, 12.3184556 ], [ 10.204322, 12.3172714 ], [ 10.2035615, 12.3168302 ], [ 10.2026821, 12.3167837 ], [ 10.2019928, 12.3171785 ], [ 10.2018739, 12.3180144 ], [ 10.2027771, 12.3194309 ], [ 10.2033, 12.3204526 ], [ 10.2041319, 12.3211492 ], [ 10.204227, 12.3226818 ], [ 10.2045122, 12.3242607 ], [ 10.2037516, 12.3244697 ], [ 10.2032525, 12.3241214 ], [ 10.2030623, 12.3235177 ], [ 10.2026583, 12.3227979 ], [ 10.201969, 12.3231694 ], [ 10.2011371, 12.3233551 ], [ 10.199925, 12.3231694 ], [ 10.1988792, 12.3227282 ], [ 10.1983801, 12.3221245 ], [ 10.197976, 12.3214279 ], [ 10.1971441, 12.3210563 ], [ 10.1963835, 12.3213118 ], [ 10.1962486, 12.322304 ], [ 10.1967448, 12.3226307 ], [ 10.1972202, 12.3232623 ], [ 10.1974864, 12.324061 ], [ 10.1975054, 12.3247298 ], [ 10.1971061, 12.3251756 ], [ 10.1966307, 12.3255471 ], [ 10.1960793, 12.325993 ], [ 10.195623, 12.3261601 ], [ 10.1955089, 12.3271261 ], [ 10.1949955, 12.3281292 ], [ 10.1960495, 12.3285893 ], [ 10.1965, 12.329 ], [ 10.1971754, 12.3295065 ], [ 10.1979077, 12.3301205 ], [ 10.1982, 12.3304 ], [ 10.1989, 12.3306 ], [ 10.1987, 12.3315 ], [ 10.2001, 12.3332 ], [ 10.2004, 12.334 ], [ 10.201, 12.3349 ], [ 10.2011521, 12.3353901 ], [ 10.2017, 12.3361 ], [ 10.2020218, 12.3373783 ], [ 10.2011749, 12.3419187 ], [ 10.2076829, 12.3542483 ], [ 10.2084294, 12.3551842 ], [ 10.2096191, 12.3556839 ], [ 10.2163054, 12.3553032 ], [ 10.2205408, 12.3563025 ], [ 10.223182, 12.3599907 ], [ 10.2258232, 12.3639882 ], [ 10.2265568, 12.3686338 ], [ 10.2361597, 12.3754642 ], [ 10.2428979, 12.3799216 ], [ 10.2540569, 12.3910299 ], [ 10.225001, 12.4338529 ], [ 10.2404653, 12.4340423 ], [ 10.2580734, 12.4596215 ], [ 10.2870406, 12.4550785 ], [ 10.288055, 12.4554576 ], [ 10.3027063, 12.4485568 ], [ 10.3062851, 12.4476614 ], [ 10.307883, 12.4472617 ], [ 10.3228787, 12.4435101 ], [ 10.3257137, 12.4428008 ], [ 10.3341482, 12.4418728 ], [ 10.3392139, 12.4413154 ], [ 10.3442587, 12.4446649 ], [ 10.3477327, 12.4449029 ], [ 10.3497728, 12.4433677 ], [ 10.3522, 12.445217 ], [ 10.3577619, 12.4459158 ], [ 10.3621464, 12.4509151 ], [ 10.3631721, 12.4520845 ], [ 10.372136, 12.4585365 ], [ 10.3811502, 12.4637317 ], [ 10.3888748, 12.4648225 ], [ 10.393866, 12.4651706 ], [ 10.399808, 12.463546 ], [ 10.4077703, 12.460413 ], [ 10.410979, 12.4594846 ], [ 10.4145442, 12.4592525 ], [ 10.4181094, 12.4587884 ], [ 10.4208427, 12.4589044 ], [ 10.4239325, 12.45786 ], [ 10.4259528, 12.45786 ], [ 10.4296198, 12.4559698 ], [ 10.4311344, 12.4509648 ], [ 10.4320498, 12.4479399 ], [ 10.4320698, 12.4456396 ], [ 10.4332705, 12.4433498 ], [ 10.4378368, 12.4409174 ], [ 10.4425904, 12.439989 ], [ 10.447344, 12.4392927 ], [ 10.4519787, 12.4392927 ], [ 10.4588714, 12.4406853 ], [ 10.4623178, 12.4418458 ], [ 10.4658126, 12.4435746 ], [ 10.47478, 12.4488307 ], [ 10.4847127, 12.4538708 ], [ 10.4867161, 12.4548873 ], [ 10.4908176, 12.4569685 ], [ 10.5125475, 12.4684056 ], [ 10.5156867, 12.4681947 ], [ 10.5195846, 12.4704226 ], [ 10.5339405, 12.4747855 ], [ 10.5335602, 12.4760851 ], [ 10.5367926, 12.4770134 ], [ 10.5389976, 12.4778492 ], [ 10.5545711, 12.4808193 ], [ 10.5543244, 12.4792766 ], [ 10.5543244, 12.4767007 ], [ 10.5548236, 12.4748906 ], [ 10.5549662, 12.4726627 ], [ 10.5547414, 12.4724591 ], [ 10.5552896, 12.4716596 ], [ 10.5558455, 12.4704337 ], [ 10.5565003, 12.4690555 ], [ 10.5566373, 12.4685834 ], [ 10.5570771, 12.4677516 ], [ 10.5577148, 12.4671424 ], [ 10.5587535, 12.4675723 ], [ 10.5595826, 12.4676151 ], [ 10.5619838, 12.4697925 ], [ 10.562593, 12.4709778 ], [ 10.5643871, 12.4707073 ], [ 10.5657331, 12.4705044 ], [ 10.5686565, 12.4695993 ], [ 10.5700826, 12.4699475 ], [ 10.5710095, 12.4712006 ], [ 10.5715087, 12.47315 ], [ 10.5716513, 12.4749602 ], [ 10.5718652, 12.4762133 ], [ 10.5726495, 12.4771184 ], [ 10.5737191, 12.477188 ], [ 10.5745034, 12.4766311 ], [ 10.5749313, 12.4755171 ], [ 10.5757869, 12.4748209 ], [ 10.5771417, 12.4747513 ], [ 10.5786391, 12.4752387 ], [ 10.5798512, 12.4757956 ], [ 10.581206, 12.4769095 ], [ 10.5817764, 12.4784412 ], [ 10.582133, 12.480112 ], [ 10.5826697, 12.4808531 ], [ 10.5837729, 12.4817133 ], [ 10.585199, 12.4817829 ], [ 10.5872668, 12.4816437 ], [ 10.5891207, 12.4819221 ], [ 10.5907607, 12.4822702 ], [ 10.5922581, 12.4831753 ], [ 10.5936842, 12.4843588 ], [ 10.5947538, 12.4855423 ], [ 10.5949467, 12.485627 ], [ 10.5951964, 12.4854723 ], [ 10.5953773, 12.4852058 ], [ 10.5964147, 12.4852915 ], [ 10.5971744, 12.4853893 ], [ 10.5984991, 12.4848727 ], [ 10.5992225, 12.4846823 ], [ 10.5998126, 12.4846538 ], [ 10.6006692, 12.4848156 ], [ 10.6016781, 12.4851106 ], [ 10.6024585, 12.4859482 ], [ 10.6032295, 12.4870713 ], [ 10.6028392, 12.4875567 ], [ 10.6025442, 12.4879565 ], [ 10.60244, 12.4881281 ], [ 10.60243, 12.4882325 ], [ 10.6025108, 12.4883448 ], [ 10.6033102, 12.488675 ], [ 10.6055919, 12.4889535 ], [ 10.5965034, 12.4978482 ], [ 10.595933, 12.4997278 ], [ 10.5945782, 12.5013289 ], [ 10.5922965, 12.50293 ], [ 10.5905139, 12.5049487 ], [ 10.5928527, 12.5101 ], [ 10.5949062, 12.5113252 ], [ 10.5970168, 12.511715 ], [ 10.5992415, 12.5115479 ], [ 10.6010098, 12.5113809 ], [ 10.60255, 12.5106569 ], [ 10.6046606, 12.5106569 ], [ 10.605231, 12.511715 ], [ 10.6052881, 12.5129401 ], [ 10.6056303, 12.5145551 ], [ 10.6043754, 12.5150006 ], [ 10.6023789, 12.5150006 ], [ 10.6008387, 12.5141096 ], [ 10.5987281, 12.5141653 ], [ 10.5967887, 12.5144994 ], [ 10.5945069, 12.5147221 ], [ 10.5924889, 12.5156016 ], [ 10.5917829, 12.5161299 ], [ 10.5916548, 12.5162257 ], [ 10.5911559, 12.5175615 ], [ 10.5911984, 12.5183975 ], [ 10.5925104, 12.5198454 ], [ 10.5939365, 12.5206807 ], [ 10.59522, 12.5210287 ], [ 10.5970497, 12.5201502 ], [ 10.5982147, 12.5220032 ], [ 10.605502, 12.5280637 ], [ 10.6142465, 12.5324657 ], [ 10.6423836, 12.531157 ], [ 10.6512846, 12.5293524 ], [ 10.6912596, 12.5143618 ], [ 10.7151732, 12.5007989 ], [ 10.7397555, 12.4836657 ], [ 10.7505082, 12.4761714 ], [ 10.760716, 12.3970967 ], [ 10.7642615, 12.3696319 ], [ 10.766092, 12.3602418 ], [ 10.7679236, 12.3508479 ], [ 10.7720705, 12.3295754 ], [ 10.7759387, 12.3097315 ], [ 10.7816637, 12.2908568 ], [ 10.7850188, 12.2872162 ], [ 10.7879455, 12.2821479 ], [ 10.7890163, 12.2783646 ], [ 10.7894446, 12.2750095 ], [ 10.7893916, 12.2749783 ], [ 10.7895081, 12.253186 ], [ 10.7895081, 12.2410793 ], [ 10.7921168, 12.2303491 ], [ 10.7949017, 12.1847422 ], [ 10.8031515, 12.1447638 ], [ 10.7994953, 12.1280418 ], [ 10.8044189, 12.117057 ], [ 10.8192051, 12.1121382 ], [ 10.8232204, 12.1094316 ], [ 10.8237558, 12.10845 ], [ 10.8244101, 12.1032747 ], [ 10.8266863, 12.0958846 ], [ 10.8217918, 12.0656049 ], [ 10.8223629, 12.0607508 ], [ 10.8256531, 12.0496423 ], [ 10.8259107, 12.0480039 ], [ 10.8258917, 12.0451105 ], [ 10.8230925, 12.0264925 ], [ 10.822862, 12.0200559 ], [ 10.8226754, 12.014842 ], [ 10.8245768, 12.01447 ], [ 10.826193, 12.0133541 ], [ 10.8257177, 12.0116803 ], [ 10.8243866, 12.0087976 ], [ 10.8227907, 12.0070851 ], [ 10.8222915, 12.0067782 ], [ 10.8205041, 12.0074123 ], [ 10.8194461, 12.0089085 ], [ 10.8193253, 12.0096516 ], [ 10.8189688, 12.0100283 ], [ 10.8183841, 12.0099027 ], [ 10.8176191, 12.0097365 ], [ 10.8157601, 12.0088705 ], [ 10.8151999, 12.0079869 ], [ 10.8156277, 12.0069869 ], [ 10.815589, 12.0060808 ], [ 10.8170578, 12.0039047 ], [ 10.818207, 12.0029158 ], [ 10.818207, 11.9994983 ], [ 10.82056, 11.9999168 ], [ 10.8216565, 11.9991862 ], [ 10.8225494, 11.9985912 ], [ 10.8228335, 11.9976974 ], [ 10.8225565, 11.9971967 ], [ 10.8204376, 11.9950749 ], [ 10.8200811, 11.9943077 ], [ 10.8201952, 11.992829 ], [ 10.8207739, 11.9914077 ], [ 10.8217069, 11.9897601 ], [ 10.8219335, 11.9882753 ], [ 10.8215928, 11.9877932 ], [ 10.8216213, 11.9871655 ], [ 10.8219493, 11.9865238 ], [ 10.8225197, 11.9859518 ], [ 10.8228049, 11.9855333 ], [ 10.8223486, 11.9851985 ], [ 10.821607, 11.9850172 ], [ 10.8208512, 11.9849614 ], [ 10.8200954, 11.9846405 ], [ 10.8194251, 11.9843058 ], [ 10.8187977, 11.983971 ], [ 10.8185267, 11.9835804 ], [ 10.8183698, 11.983134 ], [ 10.8184554, 11.9827294 ], [ 10.8189117, 11.982562 ], [ 10.8196105, 11.9824922 ], [ 10.8203236, 11.9822132 ], [ 10.8212362, 11.9816134 ], [ 10.8217211, 11.9812228 ], [ 10.821935, 11.9809298 ], [ 10.8221775, 11.9806927 ], [ 10.8226338, 11.9806648 ], [ 10.8230331, 11.9808182 ], [ 10.8234182, 11.9805811 ], [ 10.8238032, 11.9801347 ], [ 10.8240456, 11.979758 ], [ 10.8239743, 11.9791721 ], [ 10.8235754, 11.9784667 ], [ 10.8234752, 11.9780142 ], [ 10.8237176, 11.9776515 ], [ 10.8236606, 11.9772051 ], [ 10.8232613, 11.9767866 ], [ 10.8227764, 11.9766192 ], [ 10.8221347, 11.9767587 ], [ 10.8217496, 11.9770656 ], [ 10.8215642, 11.9777073 ], [ 10.8215072, 11.9782095 ], [ 10.8210794, 11.9787955 ], [ 10.8207942, 11.979479 ], [ 10.8206658, 11.9798278 ], [ 10.8199813, 11.9798696 ], [ 10.819311, 11.9799115 ], [ 10.8188404, 11.9797441 ], [ 10.818698, 11.9794151 ], [ 10.8185552, 11.9786002 ], [ 10.8183271, 11.9776515 ], [ 10.8182985, 11.9770796 ], [ 10.8176711, 11.9768145 ], [ 10.8172004, 11.9766332 ], [ 10.8169758, 11.9761051 ], [ 10.8169865, 11.9750428 ], [ 10.8171434, 11.9739826 ], [ 10.8173145, 11.9731316 ], [ 10.8177566, 11.972727 ], [ 10.8181274, 11.9722109 ], [ 10.8182843, 11.9717644 ], [ 10.8187121, 11.9713738 ], [ 10.8188547, 11.971039 ], [ 10.8186978, 11.970481 ], [ 10.8182447, 11.9699287 ], [ 10.8170008, 11.9696296 ], [ 10.8156609, 11.9689441 ], [ 10.8146864, 11.9684791 ], [ 10.8140684, 11.9684558 ], [ 10.8138045, 11.9688609 ], [ 10.8128325, 11.9690371 ], [ 10.8109114, 11.9681652 ], [ 10.8107296, 11.967622 ], [ 10.8110737, 11.966898 ], [ 10.8103179, 11.9663925 ], [ 10.809814, 11.9658749 ], [ 10.8096739, 11.9654409 ], [ 10.8102418, 11.9647356 ], [ 10.8110261, 11.964224 ], [ 10.8115728, 11.9636427 ], [ 10.811122, 11.9625728 ], [ 10.8115253, 11.9615733 ], [ 10.812167, 11.9606898 ], [ 10.8128087, 11.9596667 ], [ 10.8132841, 11.9588528 ], [ 10.8139258, 11.9579228 ], [ 10.8137357, 11.9565974 ], [ 10.8140447, 11.9558068 ], [ 10.8140447, 11.9550627 ], [ 10.8136639, 11.9545801 ], [ 10.8126661, 11.9543651 ], [ 10.8118342, 11.9550395 ], [ 10.811145, 11.9558998 ], [ 10.8105745, 11.9566904 ], [ 10.8097189, 11.9571787 ], [ 10.8088148, 11.957097 ], [ 10.8081027, 11.9574577 ], [ 10.807247, 11.9573182 ], [ 10.8069489, 11.9564231 ], [ 10.807247, 11.955458 ], [ 10.8069812, 11.9547387 ], [ 10.8056308, 11.9526445 ], [ 10.804894, 11.9508307 ], [ 10.8049178, 11.9500634 ], [ 10.8055928, 11.9491435 ], [ 10.8064864, 11.9481799 ], [ 10.8067717, 11.9472963 ], [ 10.8055543, 11.9454476 ], [ 10.8044899, 11.9457383 ], [ 10.8036785, 11.9458028 ], [ 10.8033966, 11.9463894 ], [ 10.8034679, 11.94718 ], [ 10.8027311, 11.9475288 ], [ 10.8018279, 11.9474823 ], [ 10.8014001, 11.9475753 ], [ 10.8007346, 11.946901 ], [ 10.7998314, 11.9463429 ], [ 10.799665, 11.9456686 ], [ 10.7997839, 11.9445292 ], [ 10.7999046, 11.9439204 ], [ 10.8003543, 11.9433897 ], [ 10.8015427, 11.9431572 ], [ 10.8026996, 11.9431876 ], [ 10.8032065, 11.9425294 ], [ 10.803754, 11.9415517 ], [ 10.8037056, 11.9405993 ], [ 10.8030639, 11.9392041 ], [ 10.8031827, 11.9382042 ], [ 10.8032778, 11.9372275 ], [ 10.8019578, 11.9363869 ], [ 10.8027201, 11.9347401 ], [ 10.8046598, 11.9321098 ], [ 10.8064003, 11.92836 ], [ 10.8127899, 11.9169102 ], [ 10.8145885, 11.9059712 ], [ 10.8148899, 11.9015198 ], [ 10.8162403, 11.8955202 ], [ 10.816298, 11.8948072 ], [ 10.8163502, 11.894162 ], [ 10.8166199, 11.89083 ], [ 10.8170004, 11.8861303 ], [ 10.840747, 11.8729302 ], [ 10.8604965, 11.8555601 ], [ 10.8657539, 11.8473529 ], [ 10.8740481, 11.8344047 ], [ 10.8775171, 11.8289891 ], [ 10.9053568, 11.8273235 ], [ 10.9080122, 11.8213065 ], [ 10.9242297, 11.7845582 ], [ 10.9277237, 11.776641 ], [ 10.926534, 11.7392834 ], [ 10.9208841, 11.7183927 ], [ 10.9286881, 11.6664866 ], [ 10.928611, 11.663209 ], [ 10.9281926, 11.6602854 ], [ 10.9289311, 11.6574967 ], [ 10.9287109, 11.65271 ], [ 10.927879, 11.6403994 ], [ 10.9273495, 11.6317954 ], [ 10.9271028, 11.6156223 ], [ 10.9275599, 11.6135902 ], [ 10.9269695, 11.6102104 ], [ 10.9271498, 11.6043997 ], [ 10.92733, 11.5985804 ], [ 10.9279003, 11.5950098 ], [ 10.9282528, 11.5906494 ], [ 10.9286284, 11.586003 ], [ 10.9286604, 11.5856304 ], [ 10.9300537, 11.5812132 ], [ 10.9301996, 11.5807505 ], [ 10.9307804, 11.5771904 ], [ 10.9321299, 11.5711803 ], [ 10.9324562, 11.5670438 ], [ 10.9394949, 11.5540355 ], [ 10.9293306, 11.5346757 ], [ 10.9277401, 11.5256004 ], [ 10.9278905, 11.5247412 ], [ 10.9283199, 11.5220299 ], [ 10.9288902, 11.5184698 ], [ 10.9296598, 11.5160303 ], [ 10.9292698, 11.5137701 ], [ 10.9295422, 11.5104125 ], [ 10.9296503, 11.5090799 ], [ 10.9300299, 11.5043898 ], [ 10.9306002, 11.5008297 ], [ 10.9346733, 11.4956131 ], [ 10.9336758, 11.4863577 ], [ 10.9356098, 11.4814997 ], [ 10.9350204, 11.4781199 ], [ 10.9355898, 11.4745598 ], [ 10.9346497, 11.469172 ], [ 10.9344092, 11.4677939 ], [ 10.9334297, 11.4621801 ], [ 10.9325619, 11.4611157 ], [ 10.9311619, 11.4593983 ], [ 10.9305134, 11.4516307 ], [ 10.9300747, 11.4463768 ], [ 10.9298172, 11.4432859 ], [ 10.925561, 11.4351568 ], [ 10.9238729, 11.4319334 ], [ 10.922183, 11.4287062 ], [ 10.9207244, 11.4259205 ], [ 10.9207244, 11.3939518 ], [ 10.9207244, 11.3864471 ], [ 10.9102792, 11.3309085 ], [ 10.9330956, 11.3148929 ], [ 10.9317869, 11.3066837 ], [ 10.9280398, 11.2844202 ], [ 10.9170399, 11.2708963 ], [ 10.917944, 11.2687667 ], [ 10.9189918, 11.2681275 ], [ 10.9206333, 11.2678682 ], [ 10.944269, 11.2757696 ], [ 10.9478363, 11.2657659 ], [ 10.9260397, 11.2512144 ], [ 10.94558, 11.2189703 ], [ 10.9663395, 11.1959042 ], [ 10.981716, 11.17882 ], [ 11.0085317, 11.1490932 ], [ 10.9893331, 11.1363348 ], [ 10.9589047, 11.1128004 ], [ 10.9373806, 11.0961528 ], [ 10.9292672, 11.09448 ], [ 10.9295657, 11.0907351 ], [ 10.9219127, 11.0920617 ], [ 10.9103009, 11.0882545 ], [ 10.8821281, 11.0859702 ], [ 10.8642345, 11.0884449 ], [ 10.8533842, 11.0850185 ], [ 10.8204525, 11.0840667 ], [ 10.7991325, 11.084257 ], [ 10.7890436, 11.0728356 ], [ 10.7871063, 11.0640792 ], [ 10.786754, 11.0638194 ], [ 10.7724045, 11.0603407 ], [ 10.7669227, 11.0681421 ], [ 10.7383692, 11.1009787 ], [ 10.7079121, 11.0847983 ], [ 10.6898719, 11.047219 ], [ 10.6790123, 11.0457755 ], [ 10.6694507, 11.0398203 ], [ 10.6646714, 11.028261 ], [ 10.6624553, 11.0106962 ], [ 10.6647396, 10.9944017 ], [ 10.6596952, 10.9848838 ], [ 10.6426709, 10.9770346 ], [ 10.6410887, 10.9608162 ], [ 10.6571121, 10.9517017 ], [ 10.6627038, 10.9463479 ], [ 10.6746011, 10.9386146 ], [ 10.6772225, 10.9308715 ], [ 10.6634995, 10.913358 ], [ 10.6466594, 10.893217 ], [ 10.6520051, 10.881438 ], [ 10.6426599, 10.8759927 ], [ 10.6364623, 10.8675161 ], [ 10.6247137, 10.8587418 ], [ 10.6199548, 10.851306 ], [ 10.6098121, 10.8487956 ], [ 10.5955353, 10.8269236 ], [ 10.586874, 10.8181672 ], [ 10.5764996, 10.8071265 ], [ 10.5687404, 10.8107894 ], [ 10.5358624, 10.7547782 ], [ 10.5325949, 10.7487031 ], [ 10.5267155, 10.737043 ], [ 10.5266768, 10.7369667 ], [ 10.522981, 10.7336746 ], [ 10.5214123, 10.7325537 ], [ 10.5211271, 10.7296113 ], [ 10.5202715, 10.7269491 ], [ 10.5185602, 10.7254779 ], [ 10.5164923, 10.7252677 ], [ 10.5142819, 10.7255479 ], [ 10.5122141, 10.7234462 ], [ 10.5119541, 10.7213061 ], [ 10.5109306, 10.7198732 ], [ 10.5089341, 10.7192426 ], [ 10.506491, 10.7177714 ], [ 10.5069376, 10.7165103 ], [ 10.5053689, 10.7144785 ], [ 10.5026287, 10.7132466 ], [ 10.4996646, 10.7120264 ], [ 10.5001033, 10.7068243 ], [ 10.4999548, 10.6976285 ], [ 10.4968352, 10.6909138 ], [ 10.4942811, 10.688328 ], [ 10.4972257, 10.6870153 ], [ 10.5253033, 10.6627448 ], [ 10.5285718, 10.6496711 ], [ 10.5379504, 10.6493984 ], [ 10.5625778, 10.64226 ], [ 10.5694783, 10.6278642 ], [ 10.566147, 10.6181085 ], [ 10.5581912, 10.6006147 ], [ 10.569973, 10.5867537 ], [ 10.5933559, 10.5713735 ], [ 10.6123916, 10.5566208 ], [ 10.661893, 10.4913927 ], [ 10.6655237, 10.49089 ], [ 10.6696183, 10.4930553 ], [ 10.6748321, 10.4933028 ], [ 10.681792, 10.4932314 ], [ 10.6894301, 10.4930529 ], [ 10.701444, 10.4874064 ], [ 10.7054472, 10.4803828 ], [ 10.7215617, 10.4900903 ], [ 10.7301849, 10.4874063 ], [ 10.7424915, 10.4735961 ], [ 10.7907392, 10.4351458 ], [ 10.7926048, 10.4406563 ], [ 10.800434, 10.4506633 ], [ 10.8102564, 10.4477737 ], [ 10.8135115, 10.4377343 ], [ 10.8041358, 10.4244696 ], [ 10.8354034, 10.3995514 ], [ 10.8350725, 10.3951025 ], [ 10.8348421, 10.3920043 ], [ 10.834034, 10.3811359 ], [ 10.8340298, 10.3807373 ], [ 10.8338642, 10.3650084 ], [ 10.8282581, 10.3509828 ], [ 10.8221905, 10.3430116 ], [ 10.8234397, 10.3311143 ], [ 10.82225, 10.3207636 ], [ 10.8191896, 10.3129517 ], [ 10.8220889, 10.3097807 ], [ 10.8301195, 10.3034157 ], [ 10.8473092, 10.2864015 ], [ 10.8558752, 10.2765506 ], [ 10.8628708, 10.26827 ], [ 10.855281, 10.2408248 ], [ 10.8569492, 10.2362577 ], [ 10.8571596, 10.2356815 ], [ 10.8511667, 10.2242355 ], [ 10.8393269, 10.2151699 ], [ 10.8356875, 10.2042678 ], [ 10.8356295, 10.2040939 ], [ 10.8302908, 10.1969223 ], [ 10.8237963, 10.188199 ], [ 10.8198833, 10.1811476 ], [ 10.8180076, 10.1729142 ], [ 10.8172264, 10.1694851 ], [ 10.8186407, 10.1573362 ], [ 10.8074427, 10.1379638 ], [ 10.8003043, 10.1347515 ], [ 10.7867414, 10.1347515 ], [ 10.7746061, 10.1376069 ], [ 10.7492146, 10.119913 ], [ 10.7383888, 10.1209559 ], [ 10.7334711, 10.114576 ], [ 10.7264771, 10.1055024 ], [ 10.7260569, 10.1046783 ], [ 10.7250922, 10.102786 ], [ 10.7211979, 10.0951475 ], [ 10.7159028, 10.0945439 ], [ 10.7134044, 10.0888332 ], [ 10.7127728, 10.0786206 ], [ 10.7115442, 10.0762105 ], [ 10.7156077, 10.0648562 ], [ 10.7157292, 10.0646508 ], [ 10.7169402, 10.063492 ], [ 10.7174759, 10.0498533 ], [ 10.7244273, 10.0441835 ], [ 10.7276716, 10.0415373 ], [ 10.7400036, 10.0342827 ], [ 10.7511644, 10.0275812 ], [ 10.7629173, 10.0201231 ], [ 10.7635088, 10.0197477 ], [ 10.7752619, 10.0124798 ], [ 10.787178, 10.0067364 ], [ 10.7884455, 10.0061255 ], [ 10.7947769, 10.0002966 ], [ 10.8028994, 9.9909773 ], [ 10.8121719, 9.9793386 ], [ 10.8249903, 9.9699602 ], [ 10.8413572, 9.9628401 ], [ 10.8577232, 9.9557199 ], [ 10.8635125, 9.9515595 ], [ 10.8658819, 9.9498568 ], [ 10.8751783, 9.9405222 ], [ 10.8774072, 9.9391081 ], [ 10.8835479, 9.935212 ], [ 10.89062, 9.930725 ], [ 10.8944637, 9.9264842 ], [ 10.9053688, 9.9144525 ], [ 10.9184558, 9.8996999 ], [ 10.9439239, 9.8817771 ], [ 10.9454198, 9.880443 ], [ 10.9452509, 9.8791403 ], [ 10.9451693, 9.8785112 ], [ 10.9454549, 9.8759414 ], [ 10.9455262, 9.8726577 ], [ 10.9448838, 9.8704448 ], [ 10.9525932, 9.8608794 ], [ 10.9550203, 9.8561681 ], [ 10.957947, 9.8540979 ], [ 10.9590892, 9.8521706 ], [ 10.9583039, 9.84853 ], [ 10.9578756, 9.8453177 ], [ 10.9586609, 9.8426052 ], [ 10.9580898, 9.839036 ], [ 10.9577329, 9.8344674 ], [ 10.9592319, 9.8281142 ], [ 10.9612307, 9.8234029 ], [ 10.9657279, 9.8140516 ], [ 10.9702402, 9.8117111 ], [ 10.9773173, 9.8126734 ], [ 10.9776008, 9.8101824 ], [ 10.9816294, 9.7747791 ], [ 10.9786741, 9.7721875 ], [ 10.9785218, 9.769751 ], [ 10.9746766, 9.7669337 ], [ 10.9726208, 9.762822 ], [ 10.971669, 9.7608803 ], [ 10.9655321, 9.7523446 ], [ 10.9646755, 9.7454917 ], [ 10.9662459, 9.7382106 ], [ 10.9663887, 9.7310722 ], [ 10.96439, 9.723791 ], [ 10.9618201, 9.7167954 ], [ 10.9567045, 9.711389 ], [ 10.957805, 9.7032781 ], [ 10.9607793, 9.6957828 ], [ 10.9603035, 9.6847183 ], [ 10.9600655, 9.6792456 ], [ 10.9605414, 9.6754384 ], [ 10.9563183, 9.6718692 ], [ 10.9564899, 9.6709254 ], [ 10.9569131, 9.6685974 ], [ 10.9640515, 9.6625001 ], [ 10.9850205, 9.6418285 ], [ 10.9898945, 9.6405537 ], [ 10.98817, 9.6302251 ], [ 10.9822213, 9.6257636 ], [ 10.9780078, 9.622412 ], [ 10.9693164, 9.6154984 ], [ 10.9691343, 9.6153535 ], [ 10.9563447, 9.6056869 ], [ 10.9172323, 9.5545285 ], [ 10.7776726, 9.4504027 ], [ 10.7735429, 9.4473215 ], [ 10.7213135, 9.4525176 ], [ 10.6178399, 9.4628118 ], [ 10.6042274, 9.4664816 ], [ 10.5409638, 9.483537 ], [ 10.5270708, 9.4872825 ], [ 10.5229589, 9.488391 ], [ 10.5127904, 9.5110438 ], [ 10.5076303, 9.5225391 ], [ 10.5067614, 9.523333 ], [ 10.5036001, 9.5262213 ], [ 10.49967, 9.527977 ], [ 10.49547, 9.5355129 ], [ 10.4930187, 9.5399109 ], [ 10.4912701, 9.5430479 ], [ 10.4889002, 9.5525951 ], [ 10.4829502, 9.5561924 ], [ 10.4790201, 9.5579481 ], [ 10.4653797, 9.561204 ], [ 10.4617574, 9.5645169 ], [ 10.4593401, 9.5667276 ], [ 10.4533997, 9.5703239 ], [ 10.44946, 9.5720797 ], [ 10.4396696, 9.5755062 ], [ 10.4297895, 9.5808592 ], [ 10.4258499, 9.5826149 ], [ 10.4238396, 9.5844545 ], [ 10.4190564, 9.5842428 ], [ 10.4161501, 9.5841141 ], [ 10.4102001, 9.5877113 ], [ 10.4042597, 9.5913086 ], [ 10.3984003, 9.5929775 ], [ 10.39254, 9.5946493 ], [ 10.3827496, 9.5980749 ], [ 10.3728704, 9.6034279 ], [ 10.3649101, 9.6088657 ], [ 10.3609695, 9.6106215 ], [ 10.3557989, 9.6141547 ], [ 10.3530102, 9.6160603 ], [ 10.3471082, 9.6214666 ], [ 10.3469801, 9.6215839 ], [ 10.3429604, 9.6252661 ], [ 10.3389301, 9.6289482 ], [ 10.3286166, 9.6383882 ], [ 10.3278153, 9.6391216 ], [ 10.3268604, 9.6399956 ], [ 10.3182922, 9.6420401 ], [ 10.31322, 9.6432505 ], [ 10.3118232, 9.6440402 ], [ 10.3002736, 9.6527406 ], [ 10.295366, 9.6582431 ], [ 10.2935814, 9.6624072 ], [ 10.2923917, 9.6655302 ], [ 10.2866512, 9.6697716 ], [ 10.2810119, 9.6725556 ], [ 10.2755867, 9.6754823 ], [ 10.2718748, 9.6779094 ], [ 10.2673776, 9.6810502 ], [ 10.2648791, 9.6812644 ], [ 10.2632373, 9.683049 ], [ 10.2623807, 9.6848336 ], [ 10.2605961, 9.6871179 ], [ 10.2573838, 9.6876176 ], [ 10.2516017, 9.6879031 ], [ 10.2475715, 9.6878347 ], [ 10.2392434, 9.6888757 ], [ 10.2318076, 9.689768 ], [ 10.2264538, 9.6900654 ], [ 10.2212487, 9.6891731 ], [ 10.2147052, 9.6894706 ], [ 10.2068233, 9.6884295 ], [ 10.1995362, 9.689768 ], [ 10.1907619, 9.6890244 ], [ 10.180203, 9.6872398 ], [ 10.1736595, 9.6854552 ], [ 10.1651827, 9.6841168 ], [ 10.1614648, 9.6832245 ], [ 10.1568546, 9.6801014 ], [ 10.1522444, 9.678763 ], [ 10.1500136, 9.6806963 ], [ 10.1473799, 9.6880102 ], [ 10.1464973, 9.6903055 ], [ 10.1447675, 9.6913529 ], [ 10.1431988, 9.692126 ], [ 10.1401327, 9.6922666 ], [ 10.1376371, 9.6923369 ], [ 10.133858, 9.6928289 ], [ 10.1317902, 9.6923369 ], [ 10.1299363, 9.6922666 ], [ 10.1228772, 9.69311 ], [ 10.121665, 9.6941643 ], [ 10.1206667, 9.6934614 ], [ 10.1185305, 9.6936256 ], [ 10.1169589, 9.6938129 ], [ 10.115319, 9.6936723 ], [ 10.1145346, 9.6928992 ], [ 10.1123955, 9.6917043 ], [ 10.108759, 9.6905797 ], [ 10.1041403, 9.7000058 ], [ 10.1036964, 9.7009117 ], [ 10.1048692, 9.7105118 ], [ 10.1032911, 9.7195124 ], [ 10.1005804, 9.7221842 ], [ 10.0983215, 9.7220358 ], [ 10.0959596, 9.7242278 ], [ 10.0916954, 9.7247075 ], [ 10.0880955, 9.7244136 ], [ 10.0865216, 9.7245592 ], [ 10.0849186, 9.7247075 ], [ 10.0793467, 9.7263403 ], [ 10.0757324, 9.7291604 ], [ 10.071076, 9.7308454 ], [ 10.0682027, 9.7309415 ], [ 10.0627813, 9.7301994 ], [ 10.0576611, 9.729012 ], [ 10.0534445, 9.729012 ], [ 10.0520925, 9.7272209 ], [ 10.0484749, 9.7260434 ], [ 10.0468184, 9.7288635 ], [ 10.0418488, 9.7304963 ], [ 10.0388369, 9.7270824 ], [ 10.0334155, 9.7260434 ], [ 10.0135371, 9.7190671 ], [ 10.0057063, 9.7175828 ], [ 9.9956165, 9.7181766 ], [ 9.9921528, 9.7168407 ], [ 9.9843219, 9.7129814 ], [ 9.9725896, 9.6995277 ], [ 9.9751387, 9.6893311 ], [ 9.9785189, 9.6808066 ], [ 9.9856911, 9.6627197 ], [ 9.9916563, 9.6457443 ], [ 9.9916497, 9.6456392 ], [ 9.9911976, 9.6384029 ], [ 9.9806442, 9.6232624 ], [ 9.9622917, 9.61271 ], [ 9.9549265, 9.6113708 ], [ 9.9444017, 9.609457 ], [ 9.9421697, 9.6090512 ], [ 9.9355977, 9.6051028 ], [ 9.9159517, 9.6108742 ], [ 9.9131605, 9.6111532 ], [ 9.9067755, 9.6117916 ], [ 9.9019879, 9.608672 ], [ 9.854934, 9.6031308 ], [ 9.838871, 9.6012392 ], [ 9.8314253, 9.5986021 ], [ 9.8283733, 9.5935029 ], [ 9.8242092, 9.5832415 ], [ 9.8077584, 9.5799955 ], [ 9.8032851, 9.5791129 ], [ 9.801538, 9.5769953 ], [ 9.7939072, 9.5677462 ], [ 9.7882127, 9.5615089 ], [ 9.7842722, 9.5571928 ], [ 9.782815, 9.5565453 ], [ 9.7814522, 9.5559382 ], [ 9.7776995, 9.5512047 ], [ 9.7638304, 9.5401137 ], [ 9.760876, 9.5387092 ], [ 9.745687, 9.5314882 ], [ 9.7443539, 9.5315941 ], [ 9.7326002, 9.5325279 ], [ 9.7135506, 9.5278215 ], [ 9.7039356, 9.5273943 ], [ 9.6959, 9.5237493 ], [ 9.6945, 9.5231142 ], [ 9.6923417, 9.5224703 ], [ 9.6875602, 9.523788 ], [ 9.6832201, 9.5257867 ], [ 9.6781375, 9.5308121 ], [ 9.6728266, 9.5334391 ], [ 9.6678583, 9.5353236 ], [ 9.6635952, 9.5342912 ], [ 9.6586069, 9.5317259 ], [ 9.6562739, 9.5280379 ], [ 9.6544904, 9.5249801 ], [ 9.651007, 9.5219027 ], [ 9.6497696, 9.5228925 ], [ 9.6483786, 9.5222872 ], [ 9.6455426, 9.5239868 ], [ 9.6410936, 9.5263216 ], [ 9.6376136, 9.5281954 ], [ 9.635829, 9.5303072 ], [ 9.6312188, 9.5323297 ], [ 9.6274414, 9.5346199 ], [ 9.6270845, 9.5360476 ], [ 9.6276794, 9.537862 ], [ 9.6265194, 9.5383379 ], [ 9.6253296, 9.5371481 ], [ 9.6241994, 9.5371779 ], [ 9.6233963, 9.5381891 ], [ 9.6230394, 9.5392896 ], [ 9.6202435, 9.5413717 ], [ 9.6200948, 9.5433347 ], [ 9.6182507, 9.5446434 ], [ 9.615098, 9.5446137 ], [ 9.6141164, 9.5469634 ], [ 9.6119154, 9.547588 ], [ 9.6108447, 9.5488967 ], [ 9.6095062, 9.5477367 ], [ 9.607216, 9.5469931 ], [ 9.6059965, 9.5460414 ], [ 9.6042119, 9.5462793 ], [ 9.6032601, 9.5470526 ], [ 9.6019217, 9.5461603 ], [ 9.5988581, 9.546547 ], [ 9.5973115, 9.5458034 ], [ 9.5955804, 9.545616 ], [ 9.5921897, 9.5438017 ], [ 9.5902861, 9.5436827 ], [ 9.5884538, 9.5443825 ], [ 9.5882111, 9.5443436 ], [ 9.5866872, 9.5440991 ], [ 9.5859734, 9.5449022 ], [ 9.5837426, 9.5462704 ], [ 9.5815297, 9.5485457 ], [ 9.5799057, 9.5497503 ], [ 9.5792205, 9.5516729 ], [ 9.5781561, 9.5427967 ], [ 9.5739749, 9.537627 ], [ 9.5700488, 9.5343552 ], [ 9.5704652, 9.5291204 ], [ 9.573856, 9.5249564 ], [ 9.576726, 9.5227524 ], [ 9.5830132, 9.5174083 ], [ 9.5899217, 9.511536 ], [ 9.5691052, 9.4727124 ], [ 9.5474676, 9.4733396 ], [ 9.4842388, 9.4751723 ], [ 9.4759715, 9.475412 ], [ 9.4643555, 9.4757487 ], [ 9.4254453, 9.4768765 ], [ 9.4055534, 9.5070955 ], [ 9.4035081, 9.5102027 ], [ 9.402051, 9.5139904 ], [ 9.4017839, 9.5197697 ], [ 9.3995934, 9.5254641 ], [ 9.3990804, 9.526798 ], [ 9.3974037, 9.5311584 ], [ 9.3510262, 9.532267 ], [ 9.3405431, 9.541025 ], [ 9.3141768, 9.5630526 ], [ 9.3040319, 9.5715281 ], [ 9.3049536, 9.5763311 ], [ 9.3092923, 9.5989409 ], [ 9.3271551, 9.5957508 ], [ 9.3267638, 9.5961874 ], [ 9.3153343, 9.60722 ], [ 9.2928392, 9.6134977 ], [ 9.2897551, 9.6143584 ], [ 9.2972898, 9.6248493 ], [ 9.2954159, 9.6256752 ], [ 9.2927875, 9.6283139 ], [ 9.2905626, 9.6305475 ], [ 9.2876701, 9.6334515 ], [ 9.2845802, 9.6361122 ], [ 9.2844687, 9.6400433 ], [ 9.2844116, 9.641277 ], [ 9.2842903, 9.6438971 ], [ 9.2877798, 9.6517735 ], [ 9.291358, 9.6577244 ], [ 9.2911797, 9.6615772 ], [ 9.2915907, 9.6630333 ], [ 9.2939293, 9.6713183 ], [ 9.2944908, 9.6733074 ], [ 9.290556, 9.6750631 ], [ 9.2902002, 9.6827688 ], [ 9.2882012, 9.6908292 ], [ 9.2878323, 9.692317 ], [ 9.2846332, 9.6980524 ], [ 9.2831551, 9.6968064 ], [ 9.2806832, 9.695307 ], [ 9.2770705, 9.691371 ], [ 9.2671502, 9.6803884 ], [ 9.2600106, 9.6807454 ], [ 9.228588, 9.6823166 ], [ 9.2238172, 9.6825551 ], [ 9.2165619, 9.6839675 ], [ 9.2103137, 9.6873601 ], [ 9.2075757, 9.6938323 ], [ 9.2038824, 9.7034602 ], [ 9.2025146, 9.7039728 ], [ 9.1991516, 9.7074289 ], [ 9.1981354, 9.7084732 ], [ 9.195071, 9.7138233 ], [ 9.1915337, 9.7143351 ], [ 9.1886603, 9.7165062 ], [ 9.1864185, 9.7187014 ], [ 9.1823063, 9.7243109 ], [ 9.1815465, 9.7250061 ], [ 9.1782818, 9.727993 ], [ 9.173604, 9.7305269 ], [ 9.1684008, 9.733346 ], [ 9.1655124, 9.7353196 ], [ 9.1631251, 9.7369508 ], [ 9.1604424, 9.7387838 ], [ 9.1576229, 9.7408245 ], [ 9.1521835, 9.7447615 ], [ 9.150383, 9.7479897 ], [ 9.1521273, 9.7519283 ], [ 9.1535266, 9.7534634 ], [ 9.1557951, 9.7559519 ], [ 9.1595507, 9.758049 ], [ 9.1609387, 9.7585825 ], [ 9.1652308, 9.760232 ], [ 9.1689873, 9.7623291 ], [ 9.1743526, 9.764677 ], [ 9.1743752, 9.7646866 ], [ 9.184103, 9.7687922 ], [ 9.1879482, 9.7689629 ], [ 9.1926814, 9.7714952 ], [ 9.1983151, 9.7726609 ], [ 9.1987021, 9.772741 ], [ 9.2025915, 9.7715958 ], [ 9.2093603, 9.7700842 ], [ 9.2120146, 9.7729207 ], [ 9.2187203, 9.7732557 ], [ 9.2232506, 9.777172 ], [ 9.2272999, 9.7813911 ], [ 9.2305691, 9.7844927 ], [ 9.2343783, 9.78842 ], [ 9.2357759, 9.7896133 ], [ 9.2375018, 9.7919064 ], [ 9.2400344, 9.795662 ], [ 9.2442083, 9.8023491 ], [ 9.2478719, 9.804782 ], [ 9.2535543, 9.8085556 ], [ 9.254329, 9.8103034 ], [ 9.2552996, 9.8124933 ], [ 9.2608004, 9.8185291 ], [ 9.2631107, 9.8237441 ], [ 9.2660351, 9.8303452 ], [ 9.2676907, 9.8362103 ], [ 9.2712688, 9.8421602 ], [ 9.2720696, 9.8461446 ], [ 9.2457184, 9.8479274 ], [ 9.2321356, 9.8616489 ], [ 9.2304818, 9.876092 ], [ 9.2243929, 9.9292686 ], [ 9.2196735, 9.970485 ], [ 9.2142896, 10.0175036 ], [ 9.2512684, 10.0246696 ], [ 9.2547592, 10.0300999 ], [ 9.2445243, 10.0381244 ], [ 9.2438695, 10.0389062 ], [ 9.2297073, 10.0482473 ], [ 9.210797, 10.0483864 ], [ 9.2031199, 10.0453095 ], [ 9.1990794, 10.0430861 ], [ 9.1925432, 10.0402192 ], [ 9.1830006, 10.0382713 ], [ 9.1629794, 10.0419021 ], [ 9.1646026, 10.0464489 ], [ 9.1595763, 10.0461681 ], [ 9.1553271, 10.0460294 ], [ 9.1534138, 10.0466028 ], [ 9.1488384, 10.0480772 ], [ 9.1445958, 10.0494697 ], [ 9.1421834, 10.0512718 ], [ 9.1385231, 10.0528281 ], [ 9.1358576, 10.0546724 ], [ 9.1354452, 10.0549578 ], [ 9.1327831, 10.0562683 ], [ 9.1280414, 10.0586437 ], [ 9.1240025, 10.0580307 ], [ 9.118558, 10.0560226 ], [ 9.114565, 10.0516813 ], [ 9.1126552, 10.0490136 ], [ 9.1109879, 10.0466847 ], [ 9.1089303, 10.0440442 ], [ 9.1041665, 10.0408689 ], [ 9.1032209, 10.0399895 ], [ 9.1011717, 10.0380838 ], [ 9.1002567, 10.0366913 ], [ 9.0985929, 10.0352168 ], [ 9.096656, 10.0334055 ], [ 9.0921043, 10.0298923 ], [ 9.0887767, 10.0275986 ], [ 9.0855484, 10.0250301 ], [ 9.0771757, 10.0232454 ], [ 9.076328, 10.0230647 ], [ 9.0740995, 10.0225897 ], [ 9.0737555, 10.0225748 ], [ 9.0687401, 10.0223575 ], [ 9.0683317, 10.0223398 ], [ 9.0645752, 10.0202398 ], [ 9.0627327, 10.0195325 ], [ 9.0588961, 10.0180597 ], [ 9.0587362, 10.0180527 ], [ 9.0550499, 10.01789 ], [ 9.0474482, 10.0156202 ], [ 9.0417539, 10.0153632 ], [ 9.0416794, 10.0153599 ], [ 9.0356858, 10.0161816 ], [ 9.0308846, 10.0180073 ], [ 9.0272244, 10.0209096 ], [ 9.0228035, 10.0219394 ], [ 9.0201415, 10.0232969 ], [ 9.0171943, 10.025497 ], [ 9.0116801, 10.0299439 ], [ 9.0071935, 10.0327752 ], [ 9.0071642, 10.0327525 ], [ 9.0062135, 10.0317227 ], [ 9.0054529, 10.0315354 ], [ 9.0045973, 10.031395 ], [ 9.0038842, 10.0317695 ], [ 9.0035515, 10.0309737 ], [ 9.0039793, 10.0298035 ], [ 9.0048349, 10.0291482 ], [ 9.0043596, 10.0279779 ], [ 9.0037892, 10.0271821 ], [ 9.0040268, 10.0259651 ], [ 9.0049776, 10.0250289 ], [ 9.0051202, 10.0231097 ], [ 9.0055004, 10.021799 ], [ 9.0063086, 10.0208159 ], [ 9.0069265, 10.0194116 ], [ 9.0064077, 10.0155851 ], [ 9.0054054, 10.0141687 ], [ 9.005548, 10.0129984 ], [ 9.0058332, 10.012109 ], [ 9.0050251, 10.0119218 ], [ 9.0040268, 10.0116877 ], [ 9.0030286, 10.0106578 ], [ 9.0021245, 10.0096099 ], [ 9.0012697, 10.008879 ], [ 9.0013892, 10.0072857 ], [ 9.0007646, 10.0071243 ], [ 9.0004616, 10.0059766 ], [ 9.0008419, 10.005368 ], [ 9.0003666, 10.0048063 ], [ 9.0006435, 10.0029655 ], [ 9.0014599, 10.0018102 ], [ 9.0019828, 10.0008271 ], [ 9.0012697, 10.0002186 ], [ 9.0027754, 9.9887914 ], [ 8.9999059, 9.9886356 ], [ 8.9774609, 9.9874163 ], [ 8.9620866, 10.0052097 ], [ 8.9515103, 10.0110855 ], [ 8.9499184, 10.0132186 ], [ 8.9495229, 10.0198537 ], [ 8.947185, 10.0196153 ], [ 8.9458778, 10.0226745 ], [ 8.9437625, 10.0263491 ], [ 8.9386859, 10.0265672 ], [ 8.9392883, 10.0330629 ], [ 8.9520929, 10.0930118 ], [ 8.9682703, 10.1028404 ], [ 8.9682351, 10.1035999 ], [ 8.968092, 10.1066904 ], [ 8.9698362, 10.11063 ], [ 8.9705293, 10.1164394 ], [ 8.9712248, 10.1222696 ], [ 8.9728804, 10.1281405 ], [ 8.9727386, 10.1312016 ], [ 8.972702, 10.1319904 ], [ 8.9743576, 10.1378603 ], [ 8.972168, 10.1435499 ], [ 8.9719896, 10.1473999 ], [ 8.9718113, 10.1512604 ], [ 8.9723614, 10.1525016 ], [ 8.9735575, 10.1552 ], [ 8.9771347, 10.16115 ], [ 8.9768212, 10.1679281 ], [ 8.9766893, 10.1707802 ], [ 8.9781666, 10.1805 ], [ 8.9760656, 10.1842699 ], [ 8.9759151, 10.1846611 ], [ 8.973876, 10.1899595 ], [ 8.9679289, 10.1935596 ], [ 8.9659166, 10.1954002 ], [ 8.9600592, 10.1970701 ], [ 8.951067, 10.2031155 ], [ 8.9461546, 10.2061005 ], [ 8.9422188, 10.20786 ], [ 8.9382849, 10.20961 ], [ 8.9303265, 10.2150497 ], [ 8.9301472, 10.2189102 ], [ 8.9299961, 10.2221795 ], [ 8.9298801, 10.2246904 ], [ 8.9297018, 10.2285404 ], [ 8.9302691, 10.2329588 ], [ 8.9309798, 10.2384941 ], [ 8.931448, 10.2421408 ], [ 8.9312468, 10.2451115 ], [ 8.9346685, 10.24613 ], [ 8.9364138, 10.2500696 ], [ 8.9360571, 10.2577801 ], [ 8.9357901, 10.2635603 ], [ 8.9356117, 10.2674103 ], [ 8.9391899, 10.2733603 ], [ 8.9416787, 10.2760924 ], [ 8.9446917, 10.2793999 ], [ 8.9538603, 10.2894602 ], [ 8.9535923, 10.2952404 ], [ 8.95477, 10.3075351 ], [ 8.9548922, 10.3088102 ], [ 8.9547551, 10.3090561 ], [ 8.9527912, 10.3125801 ], [ 8.948678, 10.3181801 ], [ 8.94631, 10.3277302 ], [ 8.9421968, 10.3333397 ], [ 8.940205, 10.3377305 ], [ 8.9379053, 10.3428001 ], [ 8.9362908, 10.347003 ], [ 8.9357157, 10.3485003 ], [ 8.9297705, 10.3520899 ], [ 8.9258347, 10.3538504 ], [ 8.9205332, 10.3536157 ], [ 8.9181433, 10.3535099 ], [ 8.9179268, 10.3535716 ], [ 8.9122858, 10.3551798 ], [ 8.9080137, 10.3559939 ], [ 8.9073763, 10.3561153 ], [ 8.9060266, 10.3564418 ], [ 8.9039183, 10.3569517 ], [ 8.8986931, 10.3582144 ], [ 8.8928814, 10.3580666 ], [ 8.8871098, 10.3579197 ], [ 8.8701925, 10.3576345 ], [ 8.8516742, 10.3643825 ], [ 8.8486525, 10.366125 ], [ 8.8380761, 10.3703772 ], [ 8.8322294, 10.3718333 ], [ 8.82315, 10.3742181 ], [ 8.8206306, 10.3754805 ], [ 8.8197274, 10.3776782 ], [ 8.8192996, 10.3794082 ], [ 8.8183184, 10.3804462 ] ] ] } }
]
}
